 2008  5 1  043 56.3 L -15.537 167.858131.0  VAN  8 .30 2.0LVAN                1
 GAP=317       0.520      10.6    21.4 14.1  0.1430E+03 -0.2731E+03 -0.8082E+02E
 2008-05-01-0043-56S.VNRC__051_MSEED                                           6
 ACTION:UPD 12-03-27 13:59 OP:chb  STATUS:               ID:20080501004356 L   I
 STAT SP IPHASW D HRMM SECON CODA AMPLIT PERI AZIMU VELO AIN AR TRES W  DIS CAZ7
 VASAVBZ EPg  1    044 15.91                            14.9   0.300 769.80 252 
 VASAVBZ ESg  1    044 30.41                            14.9   -.230 769.80 252 
 VASAVBZ  IAML     044 31.49        19.9 0.18                         69.80 252 
 VIRHOBZ EPg  2    044 16.19                            14.8   0.560 570.90 278 
 VIRHOBZ ESg  2    044 30.43                            14.8   -.230 570.90 278 
 VIRHOBZ  IAML     044 30.91        11.8 0.22                         70.90 278 
 VTURTBZ ESg  2    044 30.59                            14.6   -.670 577.70 287 
 VTURTBZ  IAML     044 32.08        26.9 0.08                         77.70 287 
 VAVUNBZ EPg  1    044 16.11                            14.5   -.060 778.90 261 
 VAVUNBZ ESg  2    044 31.98                            14.5   0.350 578.90 261 
 VAVUNBZ  IAML     044 34.26        13.2 0.20                         78.90 261 
 VKOLHBZ EPg  2    044 16.36                            14.4   -.070 583.40 295 
 VKOLHBZ ESg  1    044 32.40                            14.4   0.300 783.40 295 
 VKOLHBZ  IAML     044 33.47        41.2 0.08                         83.40 295 
 VBUTMBZ EPg  2    044 17.04                            14.0   -.190 594.50 282 
 VBUTMBZ ESg  1    044 33.48                            14.0   -.040 794.50 282 
 VBUTMBZ  IAML     044 35.68        29.4 0.18                         94.50 282 
 VLEBEBZ ESg  2    044 34.22                            13.9   0.180 598.10 278 
 VLEBEBZ  IAML     044 36.39        23.8 0.20                         98.10 278 
 VSARABZ EPg  0    044 17.29                            13.9   -.2101098.90 290 
 VSARABZ ESg  1    044 34.14                            13.9   0.130 798.90 290 
 VSARABZ  IAML     044 34.75        56.5 0.16                         98.90 290 
 VANGOBZ EP    A   044  7.44    5                                               
 VASAVBZ EP    A   044 16.12   13                                               
 VAVUNBZ EP    A   044 16.85   13                                               
 VBUTMBZ EP    A   044 17.59   13                                               
 VIRHOBZ EP    A   044 16.23    3                                               
 VKOLHBZ EP    A   044 17.22   32                                               
 VLAKABZ EP    A   044 19.51   11                                               
 VLEVIBZ EP    A   044 22.16    5                                               
 VSARABZ EP    A   044 17.50   35                                               
                                                                                
 2008  5 1  1 0 58.2 R -15.637 167.400 34.0  VAN  8 .50 1.5LVAN                1
 GAP=219       0.980       9.3    18.1 19.3  0.1532E+03 -0.2816E+03 -0.1525E+03E
 2008-05-01-0100-48S.VNRC__051_MSEED                                           6
 ACTION:UPD 12-03-27 13:59 OP:chb  STATUS:               ID:20080501010100 L   I
 STAT SP IPHASW D HRMM SECON CODA AMPLIT PERI AZIMU VELO AIN AR TRES W  DIS CAZ7
 VASAVBZ ESg  1    1 1 10.33                            14.1   -.290 720.30 238 
 VASAVBZ  IAML     1 1 10.57        32.5 0.18                         20.30 238 
 VAVUNBZ EPg  1    1 1  6.94                            12.9   0.950 728.90 269 
 VAVUNBZ ESg  0    1 1 12.60                            12.9   0.5101028.90 269 
 VAVUNBZ  IAML     1 1 13.09        44.6 0.12                         28.90 269 
 VPOTOBZ EPg  2    1 1  6.98                            12.5   0.570 532.00 209 
 VPOTOBZ ESg  2    1 1 12.83                            12.5   -.010 532.00 209 
 VPOTOBZ  IAML     1 1 14.35        22.1 0.10                         32.00 209 
 VNARWBZ EPg  2    1 1  7.23                            11.8   0.100 538.50 189 
 VNARWBZ ESg  1    1 1 13.43                            11.8   -.690 738.50 189 
 VNARWBZ  IAML     1 1 14.18        22.6 0.08                         38.50 189 
 VTAMBBZ ESg  0    1 1 13.85                            11.7   -.3801039.90 298 
 VTAMBBZ  IAML     1 1 15.54       100.2 0.20                         39.90 298 
 VKOLHBZ ESg  2    1 1 17.43                            10.7   0.240 553.20 330 
 VKOLHBZ  IAML     1 1 19.07        29.1 0.06                         53.20 330 
 VBUTMBZ ESg  1    1 1 16.88                            10.7   -.410 753.50 306 
 VBUTMBZ  IAML     1 1 17.75        26.1 0.08                         53.50 306 
 VSARABZ ESg  1    1 1 19.18                            10.2   -.180 762.80 316 
 VSARABZ  IAML     1 1 20.61        29.8 0.20                         62.80 316 
 VAVUNBZ EP    A   1 1  7.00   16                                               
 VESPIBZ EP    A   1 1  8.06   11                                               
 VIRHOBZ EP    A   1 1  7.83   13                                               
 VKOLHBZ EP    A   1 1  9.89   23                                               
 VLEVIBZ EP    A   1 0 55.76    3                                               
 VPOTOBZ EP    A   1 1  7.10   12                                               
 VSARABZ EP    A   1 1 10.60   39                                               
                                                                                
 2008  5 1  1 3 54.0 R                       VAN  2                            1
 2008-05-01-0103-54S.VNRC__051_MSEED                                           6
 ACTION:UPD 12-03-27 13:59 OP:chb  STATUS:               ID:20080501010354 L   I
 STAT SP IPHASW D HRMM SECON CODA AMPLIT PERI AZIMU VELO AIN AR TRES W  DIS CAZ7
 VESPIBZ EPg  1    1 4 19.64                                                    
 VESPIBZ  IAML     1 4 36.27        18.4 0.26                                   
 VNARWBZ ESg  3    1 4 17.39                                                    
 VESPIBZ ESg  2    1 4 33.11                                                    
 VNARWBZ  IAML     1 4 20.75         6.0 0.14                                   
 VAVUNBZ EP    A   1 4 26.21    4                                               
 VESPIBZ EP    A   1 4 20.02    9                                               
 VLEBEBZ EP    A   1 4  1.21    5                                               
 VNARWBZ EP    A   1 4 17.46   96                                               
 VTAMBBZ EP    A   1 4 28.41    3                                               
                                                                                
 2008  5 1  115 34.0 L                       VAN  2                            1
 2008-05-01-0115-34S.VNRC__051_MSEED                                           6
 ACTION:UPD 12-03-27 13:59 OP:chb  STATUS:               ID:20080501011534 L   I
 STAT SP IPHASW D HRMM SECON CODA AMPLIT PERI AZIMU VELO AIN AR TRES W  DIS CAZ7
 VKOLHBZ ESg  2    115 56.18                                                    
 VKOLHBZ  IAML     115 57.01         8.7 0.18                                   
 VSARABZ ESg  2    115 58.79                                                    
 VSARABZ  IAML     115 59.62         3.9 0.06                                   
 VEBENBZ EP    A   115 46.68   27                                               
 VKOLHBZ EP    A   115 56.22    5                                               
 VLAKABZ EP    A   115 41.63    3                                               
 VLEBEBZ EP    A   115 37.76    3                                               
 VSARABZ EP    A   115 54.86    3                                               
 VTAMBBZ EP    A   115 42.52    4                                               
                                                                                
 2008  5 1  122  3.6 L -14.592 167.002 38.6  VAN  8 .20 2.2LVAN                1
 GAP=343       0.410       4.4     7.7 14.9  0.9576E+01 -0.1856E+02 -0.4548E+02E
 2008-05-01-0121-56S.VNRC__051_MSEED                                           6
 ACTION:UPD 12-03-27 13:59 OP:chb  STATUS:               ID:20080501012203 L   I
 STAT SP IPHASW D HRMM SECON CODA AMPLIT PERI AZIMU VELO AIN AR TRES W  DIS CAZ7
 VSARABZ EPg  0    122 16.71                            10.6   0.0501070.50 181 
 VSARABZ ESg  1    122 26.79                            10.6   -.050 770.50 181 
 VSARABZ  IAML     122 28.20       201.9 0.10                         70.50 181 
 VKOLHBZ EPg  0    122 16.52                            10.6   -.2601071.20 167 
 VKOLHBZ ESg  2    122 27.40                            10.6   0.360 571.20 167 
 VKOLHBZ  IAML     122 28.14       150.3 0.08                         71.20 167 
 VTURTBZ EPg  1    122 18.39                            10.2   0.160 783.30 168 
 VTURTBZ ESg  1    122 29.89                            10.2   0.260 783.30 168 
 VTURTBZ  IAML     122 30.64        52.1 0.08                         83.30 168 
 VBUTMBZ EPg  0    122 18.48                            10.2   0.0401083.90 180 
 VBUTMBZ ESg  2    122 29.75                            10.2   -.260 583.90 180 
 VBUTMBZ  IAML     122 32.25        69.9 0.14                         83.90 180 
 VLEBEBZ EPg  1    122 19.55                            10.0   0.130 791.20 183 
 VLEBEBZ ESg  2    122 31.67                            10.0   -.080 591.20 183 
 VLEBEBZ  IAML     122 33.02       120.5 0.18                         91.20 183 
 VIRHOBZ EPg  0    122 20.08                             9.9   -.0201097.00 167 
 VIRHOBZ  IAML     122 20.56        33.9 0.10                         97.00 167 
 VIRHOBZ ESg  2    122 32.87                             9.9   -.090 597.00 167 
 VTAMBBZ EPg  0    122 20.23                             9.9   0.0801097.20 176 
 VTAMBBZ ESg  2    122 33.02                             9.9   -.020 597.20 176 
 VTAMBBZ  IAML     122 35.78        72.8 0.20                         97.20 176 
 VPOTOBZ ESg  2    122 44.19                             9.5   -.590 5146.0 169 
 VPOTOBZ  IAML     122 45.98        19.3 0.14                         146.0 169 
 VIRHOBZ EP    A   122 20.33   30                                               
 VKOLHBZ EP    A   122 16.57   47                                               
 VNARWBZ EP    A   122 28.50    3                                               
 VPOTOBZ EP    A   122 27.04    4                                               
 VSARABZ EP    A   122 16.88   55                                               
 VTAMBBZ EP    A   122 20.39   31                                               
                                                                                
 2008  5 1  124 21.2 R -15.802 168.302161.6  VAN  7 .30 1.8LVAN                1
 GAP=331       0.440      18.0    39.5 27.6  0.5571E+03 -0.1044E+04 -0.3274E+03E
 2008-05-01-0124-16S.VNRC__051_MSEED                                           6
 ACTION:UPD 12-03-27 13:59 OP:chb  STATUS:               ID:20080501012421 L   I
 STAT SP IPHASW D HRMM SECON CODA AMPLIT PERI AZIMU VELO AIN AR TRES W  DIS CAZ7
 VPOTOBZ EPg  2    124 45.98                            14.4   -.060 5113.0 265 
 VPOTOBZ  IAML     124 46.78        12.1 0.06                         113.0 265 
 VPOTOBZ ESg  3    125  4.75                            14.4   -.690 2113.0 265 
 VASAVBZ EPg  1    124 46.19                            14.4   0.150 7114.0 274 
 VASAVBZ ESg  1    125  5.50                            14.4   0.050 7114.0 274 
 VASAVBZ  IAML     125  6.05         8.5 0.26                         114.0 274 
 VIRHOBZ EPg  2    124 46.59                            14.1   -.110 5124.0 288 
 VIRHOBZ  IAML     125  2.61         4.1 0.10                         124.0 288 
 VIRHOBZ ESg  2    125  6.36                            14.1   -.270 5124.0 288 
 VAVUNBZ EPg  2    124 46.74                            14.0   -.210 5127.0 278 
 VAVUNBZ  IAML     124 47.82         3.7 0.08                         127.0 278 
 VAVUNBZ ESg  3    125  8.54                            14.0    1.47 2127.0 278 
 VTURTBZ ESg  1    125  7.77                            13.9   0.170 7133.0 293 
 VTURTBZ  IAML     125  8.60        36.2 0.10                         133.0 293 
 VTAMBBZ EPg  2    124 47.80                            13.8   0.110 5137.0 286 
 VTAMBBZ  IAML     124 53.63        10.1 0.16                         137.0 286 
 VTAMBBZ ESg  1    125  8.19                            13.8   -.200 7137.0 286 
 VSARABZ  IAML     124 59.97         7.7 0.06                         154.0 294 
 VSARABZ ESg  1    125 10.78                            13.4   -.020 7154.0 294 
 VANGOBZ EP    A   124 21.09    3                                               
 VASAVBZ EP    A   124 46.25    5                                               
 VAVUNBZ EP    A   124 46.83   33                                               
 VIRHOBZ EP    A   124 47.55   31                                               
 VKOLHBZ EP    A   124 48.29   41                                               
 VSARABZ EP    A   124 49.20   54                                               
                                                                                
 2008  5 1  124 21.1 R -15.800 168.270165.1  VAN  9 .30 1.9LVAN                1
 GAP=324       0.420      16.1    34.5 24.0  0.4819E+03 -0.8030E+03 -0.3093E+03E
 2008-05-01-0124-26S.VNRC__051_MSEED                                           6
 ACTION:UPD 12-03-27 13:59 OP:chb  STATUS:               ID:20080501012422dL   I
 STAT SP IPHASW D HRMM SECON CODA AMPLIT PERI AZIMU VELO AIN AR TRES W  DIS CAZ7
 VNARWBZ EPg  1    124 45.56                            14.6   0.010 7101.0 259 
 VNARWBZ  IAML     124 48.17         8.8 0.14                         101.0 259 
 VNARWBZ ESg  3    125  5.51                            14.6   0.920 2101.0 259 
 VPOTOBZ EPg  2    124 45.98                            14.4   -.100 5109.0 265 
 VPOTOBZ  IAML     124 46.78        12.1 0.06                         109.0 265 
 VPOTOBZ ESg  3    125  4.75                            14.4   -.800 2109.0 265 
 VASAVBZ EPg  1    124 46.19                            14.3   0.110 7111.0 274 
 VASAVBZ ESg  1    125  5.50                            14.3   -.040 7111.0 274 
 VASAVBZ  IAML     125  6.05         8.5 0.26                         111.0 274 
 VIRHOBZ EPg  2    124 46.59                            14.1   -.130 5121.0 289 
 VIRHOBZ  IAML     125  2.61         4.1 0.10                         121.0 289 
 VIRHOBZ ESg  2    125  6.36                            14.1   -.330 5121.0 289 
 VAVUNBZ EPg  2    124 46.74                            14.0   -.220 5123.0 278 
 VAVUNBZ  IAML     124 47.82         3.7 0.08                         123.0 278 
 VAVUNBZ ESg  3    125  8.54                            14.0    1.43 2123.0 278 
 VTURTBZ ESg  1    125  7.77                            13.9   0.130 7129.0 294 
 VTURTBZ  IAML     125  8.60        36.2 0.10                         129.0 294 
 VTAMBBZ EPg  2    124 47.80                            13.8   0.120 5134.0 286 
 VTAMBBZ  IAML     124 53.63        10.1 0.16                         134.0 286 
 VTAMBBZ ESg  1    125  8.19                            13.8   -.210 7134.0 286 
 VBUTMBZ ESg  2    125 10.10                            13.5   0.060 5145.0 290 
 VBUTMBZ  IAML     125 13.67        44.5 0.16                         145.0 290 
 VSARABZ EPg  0    124 49.02                            13.4   0.01010151.0 295 
 VSARABZ  IAML     124 59.97         7.7 0.06                         151.0 295 
 VSARABZ ESg  1    125 10.84                            13.4   0.080 7151.0 295 
 VANGOBZ EP    A   124 50.23    8                                               
 VASAVBZ EP    A   124 46.25    5                                               
 VAVUNBZ EP    A   124 46.87   34                                               
 VBUTMBZ EP    A   125 10.70    9                                               
 VIRHOBZ EP    A   124 47.14   32                                               
 VKOLHBZ EP    A   124 48.30   41                                               
 VSARABZ EP    A   124 49.24   54                                               
 VTAMBBZ EP    A   124 47.89   18                                               
                                                                                
 2008  5 1  130 44.0 R                       VAN  1                            1
 2008-05-01-0130-44S.VNRC__051_MSEED                                           6
 ACTION:UPD 12-03-27 13:59 OP:chb  STATUS:               ID:20080501013044 L   I
 STAT SP IPHASW D HRMM SECON CODA AMPLIT PERI AZIMU VELO AIN AR TRES W  DIS CAZ7
 VSARABZ EPg  1    132  5.49                                                    
 VSARABZ ESg  0    132 16.52                                                    
 VSARABZ  IAML     132 17.10        41.6 0.14                                   
 VTAMBBZ EP    A   130 48.59   20                                               
                                                                                
 2008  5 1  136  6.5 L                       VAN  2                            1
 2008-05-01-0136-16S.VNRC__051_MSEED                                           6
 ACTION:UPD 12-03-27 13:59 OP:chb  STATUS:               ID:20080501013606 L   I
 STAT SP IPHASW D HRMM SECON CODA AMPLIT PERI AZIMU VELO AIN AR TRES W  DIS CAZ7
 VSARABZ EPg  0    136 47.20                                                    
 VSARABZ ESg  1    137  1.68                                                    
 VSARABZ  IAML     137  3.51       136.4 0.22                                   
 VPOTOBZ ESg  2    137 10.68                                                    
 VPOTOBZ  IAML     137 13.41        24.6 0.14                                   
 VANGOBZ EP    A   136 51.60    5                                               
 VAVUNBZ EP    A   136 50.09   43                                               
 VBUTMBZ EP    A   136 27.28    3                                               
 VIRHOBZ EP    A   136 48.19   31                                               
 VKOLHBZ EP    A   136 46.41   53                                               
 VPOTOBZ EP    A   136 53.49    9                                               
 VSALEBZ EP    A   136 51.73    3                                               
 VSARABZ EP    A   136 47.50   58                                               
 VTAMBBZ EP    A   137  4.35    6                                               
 VTURTBZ EP    A   136 48.17   31                                               
                                                                                
