 2008  5 1  928 13.4 R -15.451 166.995 45.0  VAN 10 1.7 2.0LVAN                1
 GAP= 92        3.01      13.3    17.1 22.7 -0.2416E+02 -0.2500E+02  0.1089E+03E
 2008-05-01-0928-01S.VNRC__051_MSEED                                           6
 ACTION:UPD 12-03-27 13:59 OP:chb  STATUS:               ID:20080501092814 L   I
 STAT SP IPHASW D HRMM SECON CODA AMPLIT PERI AZIMU VELO AIN AR TRES W  DIS CAZ7
 VLEBEBZ EPg  0    928 20.35                            16.7   -.640106.070 312 
 VLEBEBZ ESg  1    928 25.34                            16.7   -1.56 76.070 312 
 VLEBEBZ  IAML     928 25.63       654.0 0.16                         6.070 312 
 VTAMBBZ EPg  0    928 21.38                            16.5   0.400108.430 103 
 VTAMBBZ ESg  2    928 26.74                            16.5   -.130 58.430 103 
 VTAMBBZ  IAML     928 29.73       349.9 0.24                         8.430 103 
 VBUTMBZ EPg  0    928 20.75                            15.8   -.3601011.10   2 
 VBUTMBZ ESg  2    928 25.53                            15.8   -1.58 511.10   2 
 VBUTMBZ  IAML     928 26.99       157.6 0.12                         11.10   2 
 VIRHOBZ EPg  0    928 22.59                            14.2   0.9501022.40  89 
 VIRHOBZ ESg  2    928 29.04                            14.2   0.990 522.40  89 
 VIRHOBZ  IAML     928 29.15       106.5 0.14                         22.40  89 
 VTURTBZ EPg  0    928 21.88                            14.0   0.2901022.90  54 
 VTURTBZ ESg  1    928 27.73                            14.0   -.240 722.90  54 
 VTURTBZ  IAML     928 27.97       278.2 0.12                         22.90  54 
 VAVUNBZ EPg  0    928 23.04                            13.9    1.101025.70 145 
 VAVUNBZ ESg  3    928 29.69                            13.9    1.11 225.70 145 
 VAVUNBZ  IAML     928 30.54        67.2 0.16                         25.70 145 
 VSALEBZ EPg  0    928 22.66                            13.6   0.6301027.90 219 
 VSALEBZ  IAML     928 23.13        52.8 0.10                         27.90 219 
 VKOLHBZ EPg  0    928 22.56                            13.1   0.2401030.80  34 
 VKOLHBZ ESg  1    928 28.32                            13.1   -.950 730.80  34 
 VKOLHBZ  IAML     928 29.07       432.3 0.16                         30.80  34 
 VASAVBZ EPg  2    928 25.02                            12.3    1.76 540.80 140 
 VASAVBZ ESg  2    928 32.93                            12.3    1.99 540.80 140 
 VASAVBZ  IAML     928 34.05        67.1 0.16                         40.80 140 
 VNARWBZ ESg  2    928 29.12                            10.6   -7.59 569.40 148 
 VNARWBZ  IAML     928 31.36        12.1 0.16                         69.40 148 
 VANGOBZ EP    A   928  9.56    4                                               
 VASAVBZ EP    A   928 25.33   12                                               
 VBUTMBZ EP    A   928  6.76    3                                               
 VIRHOBZ EP    A   928 22.65   39                                               
 VLEBEBZ EP    A   928  8.29    4                                               
 VNARWBZ EP    A   928 18.76    3                                               
 VSALEBZ EP    A   928 22.84   16                                               
 VSARABZ EP    A   928  6.91    4                                               
 VTAMBBZ EP    A   928  7.37    6                                               
 VTURTBZ EP    A   928 22.26   27                                               
                                                                                
 2008  5 1  931  5.5 R -15.623 167.857125.9  VAN  6 .40 1.7LVAN                1
 GAP=294       0.570      12.7    27.4 21.2  0.2551E+03 -0.4477E+03 -0.1344E+03E
 2008-05-01-0931-03S.VNRC__051_MSEED                                           6
 ACTION:UPD 12-03-27 13:59 OP:chb  STATUS:               ID:20080501093105 L   I
 STAT SP IPHASW D HRMM SECON CODA AMPLIT PERI AZIMU VELO AIN AR TRES W  DIS CAZ7
 VASAVBZ ESg  2    931 37.83                            14.9   -.880 567.30 259 
 VASAVBZ  IAML     931 39.85         8.6 0.18                         67.30 259 
 VNARWBZ EPg  2    931 24.40                            14.8   0.120 567.80 234 
 VNARWBZ ESg  2    931 39.46                            14.8   0.560 567.80 234 
 VNARWBZ  IAML     931 40.68        14.0 0.14                         67.80 234 
 VIRHOBZ EPg  2    931 24.23                            14.6   -.230 572.70 285 
 VIRHOBZ ESg  2    931 39.21                            14.6   0.000 572.70 285 
 VIRHOBZ  IAML     931 40.04         6.0 0.20                         72.70 285 
 VTURTBZ ESg  2    931 39.88                            14.3   -.120 580.90 294 
 VTURTBZ  IAML     931 41.10        11.2 0.18                         80.90 294 
 VKOLHBZ ESg  1    931 41.17                            14.1   0.150 787.70 301 
 VKOLHBZ  IAML     931 42.66        23.7 0.10                         87.70 301 
 VBUTMBZ ESg  0    931 42.32                            13.8   0.0501096.90 288 
 VBUTMBZ  IAML     931 43.72        21.6 0.24                         96.90 288 
 VAVUNBZ EP    A   931 24.84    3                                               
 VKOLHBZ EP    A   931 25.50   25                                               
 VLEBEBZ EP    A   931  8.09    5                                               
 VNARWBZ EP    A   931 24.66    5                                               
 VPOTOBZ EP    A   931 23.73   13                                               
 VSALEBZ EP    A   931  7.00    4                                               
 VSARABZ EP    A   931 26.76   31                                               
                                                                                
 2008  5 1  936 54.8 L -16.098 167.845 85.8  VAN  4 .30 1.3LVAN                1
 GAP=349       0.440      51.5    30.4 50.7  0.1068E+04  0.3401E+03  0.2136E+04E
 2008-05-01-0936-51S.VNRC__051_MSEED                                           6
 ACTION:UPD 12-03-27 13:59 OP:chb  STATUS:               ID:20080501093654 L   I
 STAT SP IPHASW D HRMM SECON CODA AMPLIT PERI AZIMU VELO AIN AR TRES W  DIS CAZ7
 VIRHOBZ EPg  2    937 12.87                            12.3   0.230 599.60 316 
 VIRHOBZ ESg  2    937 26.35                            12.3   -.220 599.60 316 
 VIRHOBZ  IAML     937 28.36         2.6 0.10                         99.60 316 
 VTURTBZ ESg  2    937 28.75                            11.9   0.180 5112.0 319 
 VTURTBZ  IAML     937 30.08        10.7 0.14                         112.0 319 
 VLEBEBZ ESg  3    937 31.56                            11.7   0.930 2122.0 308 
 VLEBEBZ  IAML     937 33.13         5.4 0.14                         122.0 308 
 VBUTMBZ EPg  2    937 14.75                            11.6   -.230 5123.0 312 
 VBUTMBZ ESg  1    937 30.64                            11.6   -.090 7123.0 312 
 VBUTMBZ  IAML     937 31.77         8.1 0.16                         123.0 312 
 VAVUNBZ EP    A   937 13.82    3                                               
 VBUTMBZ EP    A   937 15.32    8                                               
 VIRHOBZ EP    A   937 13.10    6                                               
 VLAKABZ EP    A   936 53.88    5                                               
 VLEBEBZ EP    A   937 31.84    4                                               
 VNARWBZ EP    A   937 11.47    5                                               
 VPOTOBZ EP    A   937 11.42   10                                               
 VTURTBZ EP    A   937 15.14    3                                               
                                                                                
 2008  5 1  945 20.4 L -16.713 167.359 38.6  VAN  9 .50 2.1LVAN                1
 GAP=336       0.780      13.7    47.0999.9  0.4593E+03  0.1013E+06  0.2674E+05E
 2008-05-01-0945-19S.VNRC__051_MSEED                                           6
 ACTION:UPD 12-03-27 13:59 OP:chb  STATUS:               ID:20080501094520 L   I
 STAT SP IPHASW D HRMM SECON CODA AMPLIT PERI AZIMU VELO AIN AR TRES W  DIS CAZ7
 VLAKABZ EPg  2    945 32.56                             9.0   -.650 567.60   6 
 VLAKABZ ESg  2    945 42.46                             9.0   -.740 567.60   6 
 VLAKABZ  IAML     945 43.65       281.8 0.16                         67.60   6 
 VNARWBZ EPg  0    945 34.93                             9.0   0.1401081.20 359 
 VNARWBZ ESg  2    945 47.17                             9.0    1.15 581.20 359 
 VNARWBZ  IAML     945 49.76       149.8 0.14                         81.20 359 
 VESPIBZ EPg  1    945 34.63                             9.0   -.370 783.80 348 
 VESPIBZ  IAML     945 49.30        43.5 0.22                         83.80 348 
 VPOTOBZ EPg  0    945 36.37                             9.0   0.2501091.90 353 
 VPOTOBZ ESg  2    945 48.93                             9.0   0.540 591.90 353 
 VPOTOBZ  IAML     945 49.93        83.8 0.18                         91.90 353 
 VASAVBZ EPg  2    945 38.68                             9.0   0.550 5109.0 353 
 VASAVBZ ESg  2    945 51.35                             9.0   -.610 5109.0 353 
 VASAVBZ  IAML     945 57.46        35.7 0.20                         109.0 353 
 VAVUNBZ EPg  0    945 39.68                             9.0   0.11010121.0 348 
 VAVUNBZ ESg  2    945 54.14                             9.0   -.400 5121.0 348 
 VAVUNBZ  IAML     945 59.14        26.8 0.26                         121.0 348 
 VBUTMBZ EPg  0    945 43.62                             9.0   -.19010156.0 346 
 VBUTMBZ ESg  3    946  2.10                             9.0   0.030 2156.0 346 
 VBUTMBZ  IAML     946  2.53        28.3 0.20                         156.0 346 
 VANGOBZ EPg  2    945 45.63                             9.0   0.620 5165.0 342 
 VANGOBZ  IAML     946  5.62        10.7 0.20                         165.0 342 
 VSARABZ EPg  0    945 45.16                             9.0   -.21010169.0 347 
 VSARABZ  IAML     945 46.26         9.9 0.16                         169.0 347 
 VANGOBZ EP    A   945 45.98   55                                               
 VASAVBZ EP    A   945 38.82   31                                               
 VAVUNBZ EP    A   945 39.87   49                                               
 VBUTMBZ EP    A   945 43.89   54                                               
 VESPIBZ EP    A   945 35.48   40                                               
 VLAKABZ EP    A   945 33.75   30                                               
 VLEBEBZ EP    A   945 43.05   55                                               
 VNARWBZ EP    A   945 35.21   45                                               
 VPOTOBZ EP    A   945 36.68   51                                               
 VSARABZ EP    A   945 45.67   72                                               
 VTAMBBZ EP    A   945 28.28   10                                               
                                                                                
 2008  5 1  945 20.3 L -16.716 167.345 41.8  VAN  8 .50 2.1LVAN                1
 GAP=339       0.770      15.2    51.2118.0  0.5975E+03  0.5566E+04  0.1534E+04E
 2008-05-01-0945-02S.VNRC__051_MSEED                                           6
 ACTION:UPD 12-03-27 13:59 OP:chb  STATUS:               ID:20080501094521dL   I
 STAT SP IPHASW D HRMM SECON CODA AMPLIT PERI AZIMU VELO AIN AR TRES W  DIS CAZ7
 VLAKABZ EPg  2    945 32.56                            10.0   -.680 568.00   7 
 VLAKABZ ESg  2    945 42.46                            10.0   -.850 568.00   7 
 VLAKABZ  IAML     945 43.65       281.8 0.16                         68.00   7 
 VNARWBZ EPg  0    945 34.93                             9.6   0.1401081.40 360 
 VNARWBZ ESg  2    945 47.17                             9.6    1.11 581.40 360 
 VNARWBZ  IAML     945 49.76       149.8 0.14                         81.40 360 
 VESPIBZ EPg  1    945 34.63                             9.6   -.330 783.70 349 
 VESPIBZ  IAML     945 49.30        43.5 0.22                         83.70 349 
 VPOTOBZ EPg  0    945 36.37                             9.5   0.2801092.00 354 
 VPOTOBZ ESg  2    945 48.93                             9.5   0.550 592.00 354 
 VPOTOBZ  IAML     945 49.93        83.8 0.18                         92.00 354 
 VASAVBZ EPg  2    945 38.68                             9.3   0.590 5109.0 354 
 VASAVBZ ESg  2    945 51.35                             9.3   -.590 5109.0 354 
 VASAVBZ  IAML     945 57.46        35.7 0.20                         109.0 354 
 VAVUNBZ EPg  0    945 39.60                             9.3   0.08010121.0 349 
 VAVUNBZ ESg  2    945 54.14                             9.3   -.340 5121.0 349 
 VAVUNBZ  IAML     945 58.93        27.9 0.16                         121.0 349 
 VBUTMBZ EPg  0    945 43.62                             9.2   -.12010156.0 346 
 VBUTMBZ ESg  3    946  2.10                             9.2   0.100 2156.0 346 
 VBUTMBZ  IAML     946  2.53        28.3 0.20                         156.0 346 
 VSARABZ EPg  0    945 45.16                             9.2   -.14010169.0 347 
 VSARABZ  IAML     945 46.26         9.9 0.16                         169.0 347 
 VANGOBZ EP    A   945 45.90   55                                               
 VASAVBZ EP    A   945 39.08   31                                               
 VIRHOBZ EP    A   945 32.28    3                                               
 VKOLHBZ EP    A   945 46.08   49                                               
 VLEBEBZ EP    A   945 43.07   55                                               
 VNARWBZ EP    A   945 35.21   45                                               
 VPOTOBZ EP    A   945 36.44   52                                               
 VSARABZ EP    A   945 45.68   74                                               
                                                                                
 2008  5 1 10 2 36.4 L -14.689 167.473152.7  VAN  5 .10 2.0LVAN                1
 GAP=344       0.330      29.6    18.0 20.1  0.1763E+03 -0.1918E+03 -0.5599E+03E
 2008-05-01-1002-38S.VNRC__051_MSEED                                           6
 ACTION:UPD 12-03-27 13:59 OP:chb  STATUS:               ID:20080501100236 L   I
 STAT SP IPHASW D HRMM SECON CODA AMPLIT PERI AZIMU VELO AIN AR TRES W  DIS CAZ7
 VTURTBZ ESg  2   10 3 15.10                            15.0   0.140 577.90 205 
 VTURTBZ  IAML    10 3 15.67        12.8 0.08                         77.90 205 
 VIRHOBZ EPg  1   10 2 58.65                            14.7   -.110 788.70 199 
 VIRHOBZ ESg  1   10 3 16.24                            14.7   0.030 788.70 199 
 VIRHOBZ  IAML    10 3 16.92        12.5 0.14                         88.70 199 
 VBUTMBZ EPg  1   10 2 58.81                            14.7   -.050 789.10 215 
 VBUTMBZ ESg  1   10 3 16.31                            14.7   -.080 789.10 215 
 VBUTMBZ  IAML    10 3 18.18        13.7 0.14                         89.10 215 
 VTAMBBZ ESg  1   10 3 17.10                            14.5   -.010 796.30 207 
 VTAMBBZ  IAML    10 3 18.40        35.8 0.18                         96.30 207 
 VLEBEBZ EPg  2   10 2 59.79                            14.4   0.360 597.80 215 
 VLEBEBZ ESg  2   10 3 17.40                            14.4   -.010 597.80 215 
 VLEBEBZ  IAML    10 3 18.51        18.4 0.12                         97.80 215 
 VANGOBZ EP    A  10 2 56.92   19                                               
 VBUTMBZ EP    A  10 2 59.15   33                                               
 VEBENBZ EP    A  10 4 25.02    3                                               
 VKOLHBZ EP    A  10 2 57.66   10                                               
 VLEBEBZ EP    A  10 2 59.90   33                                               
 VPOTOBZ EP    A  10 4 26.06   11                                               
 VSALEBZ EP    A  10 4 24.77   13                                               
 VSARABZ EP    A  10 2 58.15   36                                               
 VTURTBZ EP    A  10 2 40.27    5                                               
                                                                                
