 2008  5 1  754 52.2 R -14.725 167.477122.7  VAN  3 .10 2.2LVAN                1
 GAP=337       0.350      17.7    35.5 25.4  0.4474E+03 -0.7992E+03 -0.4056E+03E
 2008-05-01-0754-37S.VNRC__051_MSEED                                           6
 ACTION:UPD 12-03-27 13:59 OP:chb  STATUS:               ID:20080501075452 L   I
 STAT SP IPHASW D HRMM SECON CODA AMPLIT PERI AZIMU VELO AIN AR TRES W  DIS CAZ7
 VSARABZ EPg  0    755 11.00                            14.4   -.0601076.30 223 
 VSARABZ ESg  1    755 25.83                            14.4   0.060 776.30 223 
 VSARABZ  IAML     755 27.57        66.1 0.08                         76.30 223 
 VIRHOBZ ESg  2    755 26.79                            14.1   0.000 585.10 200 
 VIRHOBZ  IAML     755 27.97        15.6 0.18                         85.10 200 
 VTAMBBZ EPg  2    755 12.46                            13.8   0.230 593.00 208 
 VTAMBBZ ESg  0    755 27.82                            13.8   -.0301093.00 208 
 VTAMBBZ  IAML     755 32.10        65.9 0.22                         93.00 208 
 VAVUNBZ EP    A   755 14.28   10                                               
 VBUTMBZ EP    A   755 12.15   84                                               
 VIRHOBZ EP    A   755 27.71    8                                               
                                                                                
 2008  5 1  8 6 16.3 R -14.995 167.341133.0  VAN  3 .10 1.3LVAN                1
 GAP=321       0.340      34.5    36.6 20.1  0.1031E+04 -0.6495E+03 -0.6473E+03E
 2008-05-01-0806-11S.VNRC__051_MSEED                                           6
 ACTION:UPD 12-03-27 13:59 OP:chb  STATUS:               ID:20080501080616 L   I
 STAT SP IPHASW D HRMM SECON CODA AMPLIT PERI AZIMU VELO AIN AR TRES W  DIS CAZ7
 VSARABZ EPg  0    8 6 34.50                            15.9   -.0501045.50 235 
 VSARABZ ESg  2    8 6 48.88                            15.9   0.110 545.50 235 
 VSARABZ  IAML     8 6 50.83        11.4 0.14                         45.50 235 
 VIRHOBZ EPg  2    8 6 35.08                            15.6   0.270 552.20 196 
 VIRHOBZ ESg  2    8 6 49.08                            15.6   -.150 552.20 196 
 VIRHOBZ  IAML     8 6 50.82         2.9 0.10                         52.20 196 
 VBUTMBZ EPg  1    8 6 34.92                            15.5   -.040 753.80 223 
 VBUTMBZ ESg  2    8 6 49.55                            15.5   0.050 553.80 223 
 VBUTMBZ  IAML     8 6 51.90         5.6 0.18                         53.80 223 
 VAVUNBZ EP    A   8 6 31.08    3                                               
 VBUTMBZ EP    A   8 6 35.24   27                                               
 VIRHOBZ EP    A   8 6 35.53    3                                               
 VKOLHBZ EP    A   8 6 35.04   23                                               
 VLEBEBZ EP    A   8 6 51.34    3                                               
 VTURTBZ EP    A   8 6 34.66    3                                               
                                                                                
 2008  5 1  831 21.2 R                       VAN  1                            1
 2008-05-01-0831-24S.VNRC__051_MSEED                                           6
 ACTION:UPD 12-03-27 13:59 OP:chb  STATUS:               ID:20080501083121 L   I
 STAT SP IPHASW D HRMM SECON CODA AMPLIT PERI AZIMU VELO AIN AR TRES W  DIS CAZ7
 VESPIBZ EPg  2    831 44.54                                                    
 VESPIBZ  IAML     831 46.07        12.2 0.20                                   
 VBUTMBZ EP    A   831 48.02   10                                               
                                                                                
 2008  5 1  837 25.1 R -15.531 167.906151.2  VAN 10 .30 2.1LVAN                1
 GAP=297       0.670      12.1    24.6 14.3  0.2082E+03 -0.3159E+03 -0.1242E+03E
 2008-05-01-0837-17S.VNRC__051_MSEED                                           6
 ACTION:UPD 12-03-27 13:59 OP:chb  STATUS:               ID:20080501083725 L   I
 STAT SP IPHASW D HRMM SECON CODA AMPLIT PERI AZIMU VELO AIN AR TRES W  DIS CAZ7
 VASAVBZ ESg  1    838  2.64                            15.1   -.730 774.90 253 
 VASAVBZ  IAML     838  3.85        23.4 0.18                         74.90 253 
 VIRHOBZ EPg  1    837 46.24                            15.1   -.380 775.90 277 
 VIRHOBZ ESg  2    838  3.00                            15.1   -.380 575.90 277 
 VIRHOBZ  IAML     838  4.04        11.0 0.14                         75.90 277 
 VNARWBZ ESg  1    838  4.59                            15.0   0.760 778.10 230 
 VNARWBZ  IAML     838  5.42        36.4 0.14                         78.10 230 
 VPOTOBZ ESg  2    838  3.69                            14.9   -.390 580.30 240 
 VPOTOBZ  IAML     838  6.22        27.7 0.14                         80.30 240 
 VTURTBZ EPg  2    837 46.61                            14.9   -.300 582.50 286 
 VTURTBZ ESg  1    838  3.96                            14.9   0.070 782.50 286 
 VTURTBZ  IAML     838  4.26        35.8 0.10                         82.50 286 
 VKOLHBZ EPg  1    837 47.55                            14.7   0.220 787.80 293 
 VKOLHBZ ESg  1    838  4.89                            14.7   0.240 787.80 293 
 VKOLHBZ  IAML     838  5.64        42.6 0.12                         87.80 293 
 VBUTMBZ EPg  0    837 48.03                            14.4   -.0801099.40 281 
 VBUTMBZ ESg  1    838  5.97                            14.4   -.070 799.40 281 
 VBUTMBZ  IAML     838  6.81        27.4 0.10                         99.40 281 
 VLEBEBZ ESg  2    838  6.61                            14.3   0.080 5103.0 277 
 VLEBEBZ  IAML     838  7.57        28.0 0.14                         103.0 277 
 VSARABZ EPg  0    837 48.50                            14.2   0.16010104.0 289 
 VSARABZ ESg  1    838  6.52                            14.2   0.070 7104.0 289 
 VSARABZ  IAML     838  7.78        31.4 0.10                         104.0 289 
 VANGOBZ EPg  1    837 49.18                            14.0   0.070 7113.0 283 
 VANGOBZ ESg  2    838  7.90                            14.0   0.090 5113.0 283 
 VANGOBZ  IAML     838  8.32        10.0 0.24                         113.0 283 
 VANGOBZ EP    A   837 50.11   11                                               
 VKOLHBZ EP    A   837 37.67    6                                               
 VPOTOBZ EP    A   837 50.68   24                                               
                                                                                
 2008  5 1  839 25.5 L -15.827 167.209 18.0  VAN  6 .30 0.8LVAN                1
 GAP=192       0.510       2.7     8.8  6.2  0.7659E+01  0.3949E+02 -0.3084E+01E
 2008-05-01-0839-07S.VNRC__051_MSEED                                           6
 ACTION:UPD 12-03-27 13:59 OP:chb  STATUS:               ID:20080501083926 L   I
 STAT SP IPHASW D HRMM SECON CODA AMPLIT PERI AZIMU VELO AIN AR TRES W  DIS CAZ7
 VPOTOBZ EPg  1    839 29.72                            14.6   -.050 78.340 145 
 VPOTOBZ ESg  2    839 32.71                            14.6   -.410 58.340 145 
 VPOTOBZ  IAML     839 32.90        30.4 0.08                         8.340 145 
 VASAVBZ ESg  1    839 33.66                            13.7   0.290 710.80  17 
 VASAVBZ  IAML     839 33.86        36.8 0.10                         10.80  17 
 VIRHOBZ EPg  2    839 34.68                             9.5   0.470 542.10 359 
 VIRHOBZ ESg  1    839 40.70                             9.5   -.330 742.10 359 
 VIRHOBZ  IAML     839 41.07        11.1 0.12                         42.10 359 
 VTURTBZ ESg  2    839 44.11                             9.3   -.270 555.40 355 
 VTURTBZ  IAML     839 45.72         7.3 0.18                         55.40 355 
 VBUTMBZ EPg  2    839 36.85                             9.3   0.340 557.40 337 
 VBUTMBZ ESg  1    839 45.00                             9.3   -.130 757.40 337 
 VBUTMBZ  IAML     839 46.42         4.5 0.10                         57.40 337 
 VSARABZ EPg  2    839 38.75                             9.2   0.410 570.10 341 
 VSARABZ ESg  2    839 48.36                             9.2   -.030 570.10 341 
 VSARABZ  IAML     839 49.29         3.2 0.10                         70.10 341 
 VESPIBZ EP    A   839 27.54   11                                               
 VIRHOBZ EP    A   839 34.71   14                                               
 VPOTOBZ EP    A   839 29.78    9                                               
 VSARABZ EP    A   839 48.98    4                                               
 VTURTBZ EP    A   839 36.49   13                                               
                                                                                
 2008  5 1  847 22.4 R -15.506 167.483 89.6  VAN  5 .20 1.3LVAN                1
 GAP=244       0.380       5.7    16.1  7.9  0.6528E+02 -0.8376E+02 -0.2728E+02E
 2008-05-01-0847-15S.VNRC__051_MSEED                                           6
 ACTION:UPD 12-03-27 13:59 OP:chb  STATUS:               ID:20080501084722 L   I
 STAT SP IPHASW D HRMM SECON CODA AMPLIT PERI AZIMU VELO AIN AR TRES W  DIS CAZ7
 VIRHOBZ  IAML     847 36.36         6.5 0.14                         30.70 282 
 VIRHOBZ ESg  2    847 45.96                            15.7   0.280 530.70 282 
 VKOLHBZ EPg  1    847 36.19                            14.7   -.170 747.50 312 
 VKOLHBZ ESg  2    847 47.21                            14.7   -.070 547.50 312 
 VKOLHBZ  IAML     847 48.06        13.6 0.08                         47.50 312 
 VPOTOBZ EPg  2    847 36.74                            14.6   0.170 548.90 210 
 VPOTOBZ ESg  2    847 47.73                            14.6   0.080 548.90 210 
 VPOTOBZ  IAML     847 48.97        11.9 0.14                         48.90 210 
 VNARWBZ ESg  2    847 47.97                            14.3   -.280 554.50 196 
 VNARWBZ  IAML     847 49.48         8.1 0.18                         54.50 196 
 VBUTMBZ EPg  0    847 36.97                            14.3   0.1101054.70 288 
 VBUTMBZ ESg  2    847 47.95                            14.3   -.220 554.70 288 
 VBUTMBZ  IAML     847 49.93         5.5 0.08                         54.70 288 
 VBUTMBZ EP    A   847 37.04   26                                               
 VIRHOBZ EP    A   847 35.16    4                                               
 VKOLHBZ EP    A   847 36.37   20                                               
 VPOTOBZ EP    A   847 37.10    7                                               
                                                                                
 2008  5 1  849  6.9 L -14.922 166.614 40.8  VAN  9 .10 2.4LVAN                1
 GAP=333       0.260       2.7     2.7  5.5  0.4223E+01  0.3224E+01 -0.3160E+00E
 2008-05-01-0848-59S.VNRC__051_MSEED                                           6
 ACTION:UPD 12-03-27 13:59 OP:chb  STATUS:               ID:20080501084907 L   I
 STAT SP IPHASW D HRMM SECON CODA AMPLIT PERI AZIMU VELO AIN AR TRES W  DIS CAZ7
 VANGOBZ EPg  0    849 17.76                            11.0   0.0501050.70 145 
 VANGOBZ  IAML     849 29.65       176.1 0.18                         50.70 145 
 VSARABZ EPg  0    849 17.88                            10.8   0.0401053.00 130 
 VSARABZ ESg  1    849 26.41                            10.8   0.050 753.00 130 
 VSARABZ  IAML     849 26.80       330.5 0.10                         53.00 130 
 VBUTMBZ EPg  0    849 18.97                            10.1   -.0901062.90 139 
 VBUTMBZ ESg  2    849 28.75                            10.1   0.230 562.90 139 
 VBUTMBZ  IAML     849 29.61       104.4 0.12                         62.90 139 
 VLEBEBZ EPg  0    849 19.29                            10.0   -.1201065.60 146 
 VLEBEBZ ESg  2    849 29.05                            10.0   -.090 565.60 146 
 VLEBEBZ  IAML     849 29.91       156.3 0.24                         65.60 146 
 VKOLHBZ EPg  0    849 19.50                             9.9   0.0101066.70 120 
 VKOLHBZ ESg  2    849 29.10                             9.9   -.190 566.70 120 
 VKOLHBZ  IAML     849 31.80       245.1 0.10                         66.70 120 
 VTURTBZ EPg  0    849 20.34                             9.7   0.0201074.50 127 
 VTURTBZ ESg  0    849 30.70                             9.7   -.0601074.50 127 
 VTURTBZ  IAML     849 31.54       369.8 0.14                         74.50 127 
 VTAMBBZ EPg  0    849 20.79                             9.6   -.0401077.90 141 
 VTAMBBZ ESg  0    849 31.62                             9.6   -.0601077.90 141 
 VTAMBBZ  IAML     849 32.18       365.0 0.22                         77.90 141 
 VIRHOBZ EPg  0    849 21.87                             9.4   0.0801086.00 133 
 VIRHOBZ  IAML     849 22.34       100.7 0.10                         86.00 133 
 VIRHOBZ ESg  1    849 33.48                             9.4   0.100 786.00 133 
 VAVUNBZ EPg  0    849 23.27                             9.3   0.0601097.20 145 
 VAVUNBZ  IAML     849 23.47        43.9 0.14                         97.20 145 
 VAVUNBZ ESg  2    849 36.08                             9.3   0.160 597.20 145 
 VANGOBZ EP    A   849 17.89   55                                               
 VEBENBZ EP    A   850 41.98   17                                               
 VIRHOBZ EP    A   849 22.05   65                                               
 VLEBEBZ EP    A   849 19.43   69                                               
 VSALEBZ EP    A   849 21.45   11                                               
 VSARABZ EP    A   849 17.96   83                                               
                                                                                
 2008  5 1  859 22.3 R                       VAN  2                            1
 2008-05-01-0859-17S.VNRC__051_MSEED                                           6
 ACTION:UPD 12-03-27 13:59 OP:chb  STATUS:               ID:20080501085922 L   I
 STAT SP IPHASW D HRMM SECON CODA AMPLIT PERI AZIMU VELO AIN AR TRES W  DIS CAZ7
 VBUTMBZ EPg  1    859 40.91                                                    
 VBUTMBZ  IAML     859 56.65         9.7 0.16                                   
 VIRHOBZ ESg  3    859 55.11                                                    
 VBUTMBZ ESg  1    859 55.50                                                    
 VIRHOBZ EPg  2    859 40.47                                                    
 VIRHOBZ  IAML     859 41.13         2.9 0.06                                   
 VBUTMBZ EP    A   859 41.19   25                                               
 VIRHOBZ EP    A   859 41.02    4                                               
 VKOLHBZ EP    A   859 54.06    3                                               
 VLEBEBZ EP    A   859 41.95    4                                               
 VSARABZ EP    A   859 40.54   27                                               
 VTAMBBZ EP    A   859 25.86    3                                               
                                                                                
 2008  5 1  919  6.0 L -14.764 167.523120.5  VAN  5 .10 1.5LVAN                1
 GAP=335       0.260      12.6    11.0 10.4  0.3483E+02 -0.7576E+02 -0.1054E+03E
 2008-05-01-0919-04S.VNRC__051_MSEED                                           6
 ACTION:UPD 12-03-27 13:59 OP:chb  STATUS:               ID:20080501091906 L   I
 STAT SP IPHASW D HRMM SECON CODA AMPLIT PERI AZIMU VELO AIN AR TRES W  DIS CAZ7
 VKOLHBZ EPg  2    919 23.95                            14.8   0.050 564.10 218 
 VKOLHBZ ESg  2    919 37.94                            14.8   0.060 564.10 218 
 VKOLHBZ  IAML     919 39.89         7.7 0.08                         64.10 218 
 VSARABZ EPg  0    919 24.66                            14.3   -.0201076.80 228 
 VSARABZ ESg  1    919 39.22                            14.3   -.050 776.80 228 
 VSARABZ  IAML     919 40.04        13.3 0.08                         76.80 228 
 VIRHOBZ EPg  2    919 25.07                            14.1   -.020 583.00 204 
 VIRHOBZ  IAML     919 25.35         4.3 0.10                         83.00 204 
 VIRHOBZ ESg  2    919 39.85                            14.1   -.130 583.00 204 
 VBUTMBZ EPg  1    919 25.43                            14.0   0.070 786.00 221 
 VBUTMBZ ESg  1    919 40.59                            14.0   0.110 786.00 221 
 VBUTMBZ  IAML     919 41.97        12.8 0.16                         86.00 221 
 VANGOBZ EPg  2    919 25.70                            13.8   -.080 590.40 229 
 VANGOBZ ESg  2    919 41.14                            13.8   -.070 590.40 229 
 VANGOBZ  IAML     919 43.63         8.8 0.18                         90.40 229 
 VANGOBZ EP    A   919 25.84    5                                               
 VAVUNBZ EP    A   919 27.15    3                                               
 VBUTMBZ EP    A   919 25.67   14                                               
 VIRHOBZ EP    A   919 25.18    4                                               
 VKOLHBZ EP    A   919 24.13    9                                               
 VSARABZ EP    A   919 24.87   28                                               
                                                                                
 2008  5 1  923 54.0 R                       VAN                               1
 2008-05-01-0923-54S.VNRC__051_MSEED                                           6
 ACTION:UPD 12-03-27 13:59 OP:chb  STATUS:               ID:20080501092354 L   I
 STAT SP IPHASW D HRMM SECON CODA AMPLIT PERI AZIMU VELO AIN AR TRES W  DIS CAZ7
 VAVUNBZ EP    A   924 28.15    4                                               
 VBUTMBZ EP    A   924 20.70    3                                               
 VEBENBZ EP    A   924 31.28    4                                               
 VLEVIBZ EP    A   923 56.08    3                                               
                                                                                
