 2008  6 1 0742  4.1 L -14.769 167.562125.8  VAN  7 0.2 2.3LVAN                1
 GAP=324        0.46      15.2    17.4 16.1  0.1584E+03 -0.2407E+03 -0.2030E+03E
 ACTION:UPD 12-03-27 14:01 OP:chb  STATUS:               ID:20080601074204 L   I
 2008-06-01-0742-03S.VNRC__100_MSEED                                           6
 STAT SP IPHASW D HRMM SECON CODA AMPLIT PERI AZIMU VELO AIN AR TRES W  DIS CAZ7
 VSARABZ EPg  0    742 23.26                             144   -0.2510 79.6 230 
 VSARABZ ESg  1    742 38.79                             144    0.18 7 79.6 230 
 VSARABZ  IAML     742 40.01      115.60 0.08                          79.6 230 
 VIRHOBZ EPg  0    742 23.63                             142   -0.1710 84.3 207 
 VIRHOBZ  IAML     742 24.75       28.57 0.08                          84.3 207 
 VIRHOBZ ESg  1    742 39.27                             142    0.14 7 84.3 207 
 VBUTMBZ EPg  0    742 24.30                             141    0.1510 88.3 223 
 VBUTMBZ ESg  1    742 39.74                             141   -0.01 7 88.3 223 
 VBUTMBZ  IAML     742 40.68       70.09 0.14                          88.3 223 
 VANGOBZ EPg  1    742 24.88                             139    0.29 7 93.3 231 
 VANGOBZ ESg  2    742 40.75                             139    0.21 5 93.3 231 
 VANGOBZ  IAML     742 42.60       72.80 0.26                          93.3 231 
 VLEBEBZ EPg  0    742 24.78                             138   -0.0210 96.9 222 
 VLEBEBZ ESg  1    742 40.55                             138   -0.36 7 96.9 222 
 VLEBEBZ  IAML     742 42.50       68.03 0.20                          96.9 222 
 VASAVBZ EPg  2    742 26.30                             133    0.36 5  112 198 
 VASAVBZ ESg  3    742 42.63                             133   -0.30 2  112 198 
 VASAVBZ  IAML     742 46.29       15.71 0.12                           112 198 
 VPOTOBZ EPg  2    742 27.48                             129    0.10 5  128 195 
 VPOTOBZ  IAML     742 47.38       12.53 0.16                           128 195 
                                                                                
 2008  6 1  747  5.0 L                       VAN  1                            1
 ACTION:UPD 12-03-27 14:01 OP:chb  STATUS:               ID:20080601074705 L   I
 2008-06-01-0747-05S.VNRC__100_MSEED                                           6
 STAT SP IPHASW D HRMM SECON CODA AMPLIT PERI AZIMU VELO AIN AR TRES W  DIS CAZ7
 VKOLHBZ ESg  2    747 54.67                                                    
 VKOLHBZ  IAML     747 57.48       37.21 0.08                                   
                                                                                
 2008  6 1  747 35.0 L                       VAN  2                            1
 ACTION:UPD 12-03-27 14:01 OP:chb  STATUS:               ID:20080601074735 L   I
 2008-06-01-0747-35S.VNRC__100_MSEED                                           6
 STAT SP IPHASW D HRMM SECON CODA AMPLIT PERI AZIMU VELO AIN AR TRES W  DIS CAZ7
 VKOLHBZ EPg  2    747 54.67                                                    
 VSARABZ EPg  1    747 54.73                                                    
 VKOLHBZ  IAML     747 57.48       37.21 0.08                                   
 VSARABZ  IAML     748  0.10       24.10 0.14                                   
                                                                                
 2008  6 1 0754 39.0 L -15.917 167.205 19.9  VAN  4 2.9 0.5LVAN                1
 GAP=274        3.50     177.4   203.2999.9  0.3592E+05 -0.5665E+06 -0.4911E+06E
 ACTION:UPD 12-03-27 14:01 OP:chb  STATUS:               ID:20080601075443 L   I
 2008-06-01-0754-17S.VNRC__100_MSEED                                           6
 STAT SP IPHASW D HRMM SECON CODA AMPLIT PERI AZIMU VELO AIN AR TRES W  DIS CAZ7
 VPOTOBZ ESg  2    754 43.99                              90   -2.81 5 6.13  60 
 VPOTOBZ  IAML     754 45.27       15.33 0.14                          6.13  60 
 VAVUNBZ EPg  2    754 49.58                              90    3.33 5 31.3 345 
 VAVUNBZ  IAML     754 50.12        2.93 0.14                          31.3 345 
 VIRHOBZ EPg  2    754 51.64                              90    2.52 5 51.9 360 
 VIRHOBZ  IAML     754 52.61        2.91 0.10                          51.9 360 
 VLEBEBZ ESg  2    754 56.62                              91   -3.04 5 61.7 334 
 VLEBEBZ  IAML     754 58.72        4.43 0.18                          61.7 334 
                                                                                
 2008  6 1 0757 49.0 L -14.616 167.264101.3  VAN  6 0.3 1.7LVAN                1
 GAP=341        0.49      18.5    24.0 21.4  0.1530E+03 -0.3227E+03 -0.3296E+03E
 ACTION:UPD 12-03-27 14:01 OP:chb  STATUS:               ID:20080601075748 L   I
 2008-06-01-0757-45S.VNRC__100_MSEED                                           6
 STAT SP IPHASW D HRMM SECON CODA AMPLIT PERI AZIMU VELO AIN AR TRES W  DIS CAZ7
 VSARABZ EPg  1    758  5.43                             139   -0.38 7 73.8 203 
 VSARABZ ESg  2    758 19.35                             139    0.42 5 73.8 203 
 VSARABZ  IAML     758 21.50       30.61 0.12                          73.8 203 
 VTURTBZ ESg  3    758 20.20                             137    0.69 2 79.5 188 
 VTURTBZ  IAML     758 20.94       17.96 0.08                          79.5 188 
 VBUTMBZ EPg  2    758  6.98                             134    0.18 5 86.1 199 
 VBUTMBZ  IAML     758 23.43       17.09 0.16                          86.1 199 
 VIRHOBZ EPg  2    758  7.40                             132    0.17 5 92.2 184 
 VIRHOBZ ESg  2    758 21.15                             132   -0.32 5 92.2 184 
 VIRHOBZ  IAML     758 22.21        7.26 0.10                          92.2 184 
 VLEBEBZ EPg  2    758  7.87                             131    0.34 5 94.5 201 
 VLEBEBZ ESg  1    758 21.87                             131   -0.12 7 94.5 201 
 VLEBEBZ  IAML     758 23.70       28.81 0.14                          94.5 201 
 VAVUNBZ EPg  1    758  9.33                             125    0.07 7  114 187 
 VAVUNBZ  IAML     758  9.72        7.51 0.08                           114 187 
                                                                                
 2008  6 1 0806 45.3 L -15.395 167.763109.8  VAN 12 0.3 2.1LVAN                1
 GAP=288        0.59       6.3    12.0  9.0  0.5005E+02 -0.9293E+02 -0.3777E+02E
 ACTION:UPD 12-03-27 14:01 OP:chb  STATUS:               ID:20080601080645 L   I
 2008-06-01-0806-31S.VNRC__100_MSEED                                           6
 STAT SP IPHASW D HRMM SECON CODA AMPLIT PERI AZIMU VELO AIN AR TRES W  DIS CAZ7
 VBOKIBZ ESg  0    8 7 14.77                             147   -0.3210 59.9 249 
 VBOKIBZ  IAML     8 7 15.17       59.13 0.12                          59.9 249 
 VIRHOBZ EPg  0    8 7  1.85                             147   -0.1010 60.3 264 
 VIRHOBZ ESg  2    8 7 14.56                             147   -0.39 5 60.3 264 
 VIRHOBZ  IAML     8 7 15.95       20.96 0.12                          60.3 264 
 VTURTBZ EPg  0    8 7  2.31                             145    0.1810 64.4 276 
 VTURTBZ ESg  0    8 7 15.15                             145   -0.1110 64.4 276 
 VTURTBZ  IAML     8 7 16.05      115.89 0.08                          64.4 276 
 VASAVBZ EPg  2    8 7  2.65                             144    0.20 5 67.5 236 
 VASAVBZ ESg  1    8 7 15.55                             144   -0.29 7 67.5 236 
 VASAVBZ  IAML     8 7 17.67       23.06 0.10                          67.5 236 
 VKOLHBZ EPg  0    8 7  2.64                             144    0.1610 68.2 286 
 VKOLHBZ ESg  1    8 7 16.22                             144    0.33 7 68.2 286 
 VKOLHBZ  IAML     8 7 17.15      104.25 0.10                          68.2 286 
 VAVUNBZ EPg  0    8 7  2.82                             141   -0.0210 73.1 248 
 VAVUNBZ  IAML     8 7  3.58       21.43 0.14                          73.1 248 
 VAVUNBZ ESg  2    8 7 16.70                             141    0.17 5 73.1 248 
 VPOTOBZ EPg  2    8 7  2.25                             140   -0.97 5 77.2 225 
 VPOTOBZ ESg  2    8 7 17.77                             140    0.57 5 77.2 225 
 VPOTOBZ  IAML     8 7 19.07       35.74 0.16                          77.2 225 
 VNARWBZ  IAML     8 6 54.79       11.51 0.16                          78.9 215 
 VNARWBZ ESg  1    8 7 17.97                             139    0.59 7 78.9 215 
 VBUTMBZ EPg  0    8 7  3.47                             138   -0.0310 82.2 273 
 VBUTMBZ ESg  1    8 7 17.45                             138   -0.26 7 82.2 273 
 VBUTMBZ  IAML     8 7 19.76       52.70 0.16                          82.2 273 
 VSARABZ EPg  0    8 7  3.66                             137    0.0210 84.7 282 
 VSARABZ ESg  0    8 7 18.12                             137    0.1710 84.7 282 
 VSARABZ  IAML     8 7 18.64      113.71 0.18                          84.7 282 
 VLEBEBZ EPg  1    8 7  3.78                             136   -0.11 7 87.0 268 
 VLEBEBZ ESg  2    8 7 18.25                             136   -0.15 5 87.0 268 
 VLEBEBZ  IAML     8 7 20.80       35.61 0.16                          87.0 268 
 VANGOBZ EPg  1    8 7  4.50                             133   -0.07 7 94.9 276 
 VANGOBZ ESg  1    8 7 19.79                             133    0.18 7 94.9 276 
 VANGOBZ  IAML     8 7 21.30       44.85 0.20                          94.9 276 
                                                                                
 2008  6 1 0811 25.7 L -15.085 167.451 76.0  VAN 15 0.4 2.2LVAN                1
 GAP=290        0.79       4.7     8.2  6.8  0.2153E+02 -0.3413E+02 -0.1473E+02E
 ACTION:UPD 12-03-27 14:01 OP:chb  STATUS:               ID:20080601081125 L   I
 2008-06-01-0811-13S.VNRC__100_MSEED                                           6
 STAT SP IPHASW D HRMM SECON CODA AMPLIT PERI AZIMU VELO AIN AR TRES W  DIS CAZ7
 VKOLHBZ EPg  0    811 37.84                             152    0.1710 35.2 245 
 VKOLHBZ ESg  2    811 47.97                             152    0.96 5 35.2 245 
 VKOLHBZ  IAML     811 49.69      123.34 0.08                          35.2 245 
 VTURTBZ EPg  0    811 38.17                             148    0.2910 40.7 229 
 VTURTBZ ESg  0    811 47.67                             148    0.2810 40.7 229 
 VTURTBZ  IAML     811 47.98      203.93 0.10                          40.7 229 
 VIRHOBZ EPg  0    811 38.47                             142    0.0210 48.1 214 
 VIRHOBZ ESg  2    811 48.37                             142   -0.04 5 48.1 214 
 VIRHOBZ  IAML     811 49.44       42.92 0.08                          48.1 214 
 VSARABZ EPg  0    811 38.56                             140   -0.1810 51.8 252 
 VSARABZ ESg  1    811 49.20                             140    0.28 7 51.8 252 
 VSARABZ  IAML     811 50.03      271.28 0.08                          51.8 252 
 VBUTMBZ EPg  0    811 38.94                             137   -0.2310 56.8 239 
 VBUTMBZ ESg  0    811 49.50                             137   -0.1910 56.8 239 
 VBUTMBZ  IAML     811 50.60      162.92 0.10                          56.8 239 
 VBOKIBZ ESg  0    811 49.68                             135   -0.5810 60.4 202 
 VBOKIBZ  IAML     811 50.41       74.75 0.14                          60.4 202 
 VLEBEBZ EPg  0    811 39.47                             133   -0.3810 64.8 236 
 VLEBEBZ ESg  1    811 50.42                             133   -0.47 7 64.8 236 
 VLEBEBZ  IAML     811 53.05      100.47 0.20                          64.8 236 
 VANGOBZ EPg  0    811 39.82                             133   -0.1210 65.2 249 
 VANGOBZ ESg  2    811 51.36                             133    0.30 5 65.2 249 
 VANGOBZ  IAML     811 52.47      112.55 0.14                          65.2 249 
 VAVUNBZ EPg  0    811 40.38                             130    0.0710 70.6 209 
 VAVUNBZ ESg  1    811 51.65                             130   -0.07 7 70.6 209 
 VAVUNBZ  IAML     811 52.00       76.75 0.16                          70.6 209 
 VASAVBZ ESg  0    811 52.09                             127   -0.3410 75.2 198 
 VASAVBZ  IAML     811 52.56       76.13 0.16                          75.2 198 
 VWUSIBZ EPg  0    811 42.33                             121   -0.0010 90.6 250 
 VWUSIBZ ESg  2    811 56.32                             121    1.01 5 90.6 250 
 VWUSIBZ  IAML     811 57.21       25.48 0.22                          90.6 250 
 VPOTOBZ EPg  1    811 42.57                             121    0.24 7 91.4 193 
 VPOTOBZ ESg  1    811 55.52                             121    0.21 7 91.4 193 
 VPOTOBZ  IAML     811 56.92       76.42 0.16                          91.4 193 
 VNARWBZ EPg  2    811 43.39                             118    0.26 5 99.7 187 
 VNARWBZ ESg  2    811 56.66                             118   -0.07 5 99.7 187 
 VNARWBZ  IAML     811 57.79       30.75 0.12                          99.7 187 
 VESPIBZ EPg  0    811 43.42                             117    0.1510  102 196 
 VESPIBZ ESg  1    811 56.99                             117    0.01 7  102 196 
 VESPIBZ  IAML     811 57.89       20.65 0.12                           102 196 
 VLAKABZ ESg  2    812  0.65                             114    1.41 5  113 182 
 VLAKABZ  IAML     812  3.81       35.43 0.26                           113 182 
                                                                                
 2008  6 1 0818 12.5 L -15.221 167.752108.8  VAN  9 1.3 1.8LVAN                1
 GAP=298        1.95      40.9    86.0 92.4  0.3045E+04 -0.7370E+04 -0.3390E+04E
 ACTION:UPD 12-03-27 14:01 OP:chb  STATUS:               ID:20080601081812 L   I
 2008-06-01-0818-09S.VNRC__100_MSEED                                           6
 STAT SP IPHASW D HRMM SECON CODA AMPLIT PERI AZIMU VELO AIN AR TRES W  DIS CAZ7
 VIRHOBZ EPg  1    818 29.26                             142   -0.06 7 64.0 247 
 VIRHOBZ  IAML     818 34.03       11.11 0.08                          64.0 247 
 VAVUNBZ EPg  0    818 31.01                             135    0.4310 81.4 235 
 VAVUNBZ  IAML     818 31.53       15.78 0.14                          81.4 235 
 VSARABZ EPg  0    818 30.32                             135   -0.2410 81.6 269 
 VSARABZ ESg  2    818 42.71                             135   -1.91 5 81.6 269 
 VSARABZ  IAML     818 42.89       25.81 0.18                          81.6 269 
 VBUTMBZ EPg  0    818 30.48                             135   -0.1710 82.1 260 
 VBUTMBZ ESg  2    818 48.73                             135    3.95 5 82.1 260 
 VBUTMBZ  IAML     818 49.01       26.64 0.08                          82.1 260 
 VLEBEBZ EPg  1    818 31.04                             133   -0.12 7 88.5 256 
 VLEBEBZ ESg  3    818 49.67                             133    3.98 2 88.5 256 
 VLEBEBZ  IAML     818 50.70       13.45 0.12                          88.5 256 
 VPOTOBZ EPg  2    818 32.42                             132    0.99 5 91.2 216 
 VPOTOBZ ESg  2    818 46.47                             132    0.30 5 91.2 216 
 VPOTOBZ  IAML     818 47.21       20.94 0.18                          91.2 216 
 VANGOBZ EPg  1    818 31.47                             131   -0.15 7 93.5 265 
 VANGOBZ ESg  2    818 44.64                             131   -1.87 5 93.5 265 
 VANGOBZ  IAML     818 46.94       14.50 0.16                          93.5 265 
 VNARWBZ ESg  1    818 45.84                             131   -0.80 7 94.8 208 
 VNARWBZ  IAML     818 46.19       38.22 0.16                          94.8 208 
 VESPIBZ EPg  2    818 33.03                             128    0.79 5  103 216 
 VESPIBZ ESg  2    818 46.80                             128   -0.82 5  103 216 
 VESPIBZ  IAML     818 49.98        7.54 0.18                           103 216 
                                                                                
 2008  6 1 0822 29.4 L -14.622 167.711186.7  VAN  5 0.1 1.9LVAN                1
 GAP=342        0.33      34.8    26.7 23.7  0.1952E+03 -0.3194E+03 -0.7408E+03E
 ACTION:UPD 12-03-27 14:01 OP:chb  STATUS:               ID:20080601082229 L   I
 2008-06-01-0822-49S.VNRC__100_MSEED                                           6
 STAT SP IPHASW D HRMM SECON CODA AMPLIT PERI AZIMU VELO AIN AR TRES W  DIS CAZ7
 VTURTBZ ESg  1    823 15.67                             150   -0.09 7 97.6 217 
 VTURTBZ  IAML     823 16.29       23.71 0.10                          97.6 217 
 VSARABZ EPg  1    822 55.83                             149    0.01 7  102 229 
 VSARABZ  IAML     823 12.73        7.15 0.16                           102 229 
 VSARABZ ESg  2    823 16.46                             149    0.04 5  102 229 
 VIRHOBZ ESg  2    823 16.91                             148    0.13 5  106 211 
 VIRHOBZ  IAML     823 18.03        6.10 0.12                           106 211 
 VBUTMBZ ESg  2    823 17.61                             147    0.18 5  111 223 
 VBUTMBZ  IAML     823 18.85       16.05 0.14                           111 223 
 VLEBEBZ ESg  2    823 18.27                             145   -0.16 5  120 223 
 VLEBEBZ  IAML     823 19.49        9.04 0.08                           120 223 
                                                                                
 2008  6 1 0830 55.4 L -15.167 167.201  0.0  VAN  5 2.6 1.0LVAN                1
 GAP=301        3.71      45.4   126.8999.9  0.5209E+04 -0.1800E+07 -0.5441E+06E
 ACTION:UPD 12-03-27 14:01 OP:chb  STATUS:               ID:20080601083055 L   I
 2008-06-01-0830-40S.VNRC__100_MSEED                                           6
 STAT SP IPHASW D HRMM SECON CODA AMPLIT PERI AZIMU VELO AIN AR TRES W  DIS CAZ7
 VTURTBZ ESg  1    831  0.68                              90   -2.59 7 18.2 192 
 VTURTBZ  IAML     831  0.84      331.32 0.04                          18.2 192 
 VSARABZ ESg  2    831  3.26                              91   -2.37 0 23.4 253 
 VSARABZ  IAML     831  6.92        5.33 0.08                          23.4 253 
 VANGOBZ EPg  1    831  5.34                              90    0.65 7 36.9 247 
 VANGOBZ  IAML     831 24.13       17.12 0.20                          36.9 247 
 VLEBEBZ ESg  2    831 20.72                              91    8.39 0 38.3 224 
 VLEBEBZ  IAML     831 23.39       20.82 0.14                          38.3 224 
 VAVUNBZ EPg  2    831  8.30                              90   -0.40 5 53.2 188 
 VAVUNBZ ESg  2    831 23.84                              90    4.76 5 53.2 188 
 VAVUNBZ  IAML     831 27.16       11.00 0.16                          53.2 188 
                                                                                
 2008  6 1  842  1.0 L                       VAN  1                            1
 ACTION:UPD 12-03-27 14:01 OP:chb  STATUS:               ID:20080601084201 L   I
 2008-06-01-0842-01S.VNRC__100_MSEED                                           6
 STAT SP IPHASW D HRMM SECON CODA AMPLIT PERI AZIMU VELO AIN AR TRES W  DIS CAZ7
 VSARABZ ESg  2    842 20.41                                                    
 VSARABZ  IAML     842 21.22        5.58 0.16                                   
                                                                                
