 2008  6 1 0203 32.6 L -14.827 167.398131.3  VAN 14 0.3 2.2LVAN                1
 GAP=317        0.62       8.7    11.9  6.7  0.3126E+02 -0.4543E+02 -0.3793E+02E
 ACTION:UPD 12-03-27 14:01 OP:chb  STATUS:               ID:20080601020332 L   I
 2008-06-01-0203-29S.VNRC__100_MSEED                                           6
 STAT SP IPHASW D HRMM SECON CODA AMPLIT PERI AZIMU VELO AIN AR TRES W  DIS CAZ7
 VKOLHBZ EPg  0    2 3 50.77                             157   -0.1010 50.7 211 
 VKOLHBZ ESg  1    2 4  4.74                             157   -0.40 7 50.7 211 
 VKOLHBZ  IAML     2 4  5.20       99.19 0.08                          50.7 211 
 VTURTBZ EPg  1    2 3 51.40                             153    0.16 7 60.8 204 
 VTURTBZ  IAML     2 4  7.60       77.85 0.18                          60.8 204 
 VSARABZ EPg  0    2 3 51.37                             152   -0.0610 62.3 224 
 VSARABZ ESg  1    2 4  6.20                             152    0.08 7 62.3 224 
 VSARABZ  IAML     2 4  6.72       98.93 0.18                          62.3 224 
 VIRHOBZ EPg  0    2 3 51.80                             148   -0.1310 71.8 197 
 VIRHOBZ ESg  1    2 4  6.72                             148   -0.30 7 71.8 197 
 VIRHOBZ  IAML     2 4  7.62       34.78 0.14                          71.8 197 
 VBUTMBZ EPg  1    2 3 52.11                             148    0.09 7 72.1 216 
 VBUTMBZ ESg  1    2 4  7.11                             148   -0.08 7 72.1 216 
 VBUTMBZ  IAML     2 4  7.74       72.61 0.18                          72.1 216 
 VANGOBZ EPg  0    2 3 52.46                             147    0.1310 75.8 227 
 VANGOBZ ESg  2    2 4  8.33                             147    0.60 5 75.8 227 
 VANGOBZ  IAML     2 4  9.84       76.25 0.14                          75.8 227 
 VTAMBBZ EPg  0    2 3 52.58                             146    0.1710 79.1 206 
 VTAMBBZ ESg  1    2 4  7.68                             146   -0.20 7 79.1 206 
 VTAMBBZ  IAML     2 4  9.53       91.22 0.20                          79.1 206 
 VLEBEBZ EPg  0    2 3 52.64                             145    0.0510 80.8 216 
 VLEBEBZ ESg  1    2 4  8.31                             145    0.12 7 80.8 216 
 VLEBEBZ  IAML     2 4 10.32       65.68 0.20                          80.8 216 
 VBOKIBZ EPg  2    2 3 53.08                             143    0.13 5 86.3 191 
 VBOKIBZ ESg  2    2 4  8.75                             143   -0.10 5 86.3 191 
 VBOKIBZ  IAML     2 4 10.41       21.05 0.14                          86.3 191 
 VAVUNBZ EPg  0    2 3 53.70                             140    0.2110 94.7 198 
 VAVUNBZ  IAML     2 3 54.09       23.86 0.10                          94.7 198 
 VAVUNBZ ESg  1    2 4 10.27                             140    0.47 7 94.7 198 
 VWUSIBZ EPg  1    2 3 53.87                             139   -0.12 7 99.4 233 
 VWUSIBZ  IAML     2 3 54.76        8.34 0.12                          99.4 233 
 VASAVBZ EPg  0    2 3 54.35                             138    0.3610  102 190 
 VASAVBZ ESg  2    2 4 10.36                             138   -0.33 5  102 190 
 VASAVBZ  IAML     2 4 11.94       26.12 0.16                           102 190 
 VESPIBZ EPg  2    2 3 55.48                             131   -0.64 5  129 190 
 VESPIBZ  IAML     2 3 58.07        4.82 0.12                           129 190 
 OS04 SP EPg  1    2 3 55.52                             129   -0.79 7  137 214 
                                                                                
 2008  6 1 0208 48.0 L -14.611 167.071119.0  VAN  3 0.0 2.0LVAN                1
 GAP=338        0.31     115.9    21.9 76.3 -0.1730E+04  0.1146E+04 -0.8829E+04E
 ACTION:UPD 12-03-27 14:01 OP:chb  STATUS:               ID:20080601020848 L   I
 2008-06-01-0208-35S.VNRC__100_MSEED                                           6
 STAT SP IPHASW D HRMM SECON CODA AMPLIT PERI AZIMU VELO AIN AR TRES W  DIS CAZ7
 VKOLHBZ EPg  0    2 9  6.00                             146    0.0210 67.8 172 
 VKOLHBZ ESg  1    2 9 20.00                             146   -0.02 7 67.8 172 
 VKOLHBZ  IAML     2 9 20.49       49.35 0.08                          67.8 172 
 VSARABZ EPg  0    2 9  6.01                             146   -0.0210 68.9 187 
 VSARABZ ESg  1    2 9 20.14                             146    0.02 7 68.9 187 
 VSARABZ  IAML     2 9 21.66       27.85 0.08                          68.9 187 
 VANGOBZ EPg  2    2 9  6.79                             142    0.00 5 78.4 195 
 VANGOBZ  IAML     2 9 23.65       15.30 0.22                          78.4 195 
                                                                                
 2008  6 1 0243  6.5 L -14.748 167.006 15.7  VAN  5 0.4 1.4LVAN                1
 GAP=315        0.49      22.2    11.0999.9 -0.1897E+03  0.5570E+05 -0.1311E+06E
 ACTION:UPD 12-03-27 14:01 OP:chb  STATUS:               ID:20080601024306 L   I
 2008-06-01-0242-59S.VNRC__100_MSEED                                           6
 STAT SP IPHASW D HRMM SECON CODA AMPLIT PERI AZIMU VELO AIN AR TRES W  DIS CAZ7
 VSARABZ EPg  2    243 17.98                              90    0.23 5 53.3 182 
 VSARABZ ESg  2    243 26.52                              90   -0.02 5 53.3 182 
 VSARABZ  IAML     243 33.03       16.52 0.16                          53.3 182 
 VKOLHBZ ESg  2    243 27.17                              90    0.21 5 54.5 163 
 VKOLHBZ  IAML     243 29.70       24.32 0.14                          54.5 163 
 VBUTMBZ ESg  3    243 29.34                              90   -1.44 2 66.7 181 
 VBUTMBZ  IAML     243 31.76       15.54 0.24                          66.7 181 
 VWUSIBZ EPg  2    243 22.38                              90    0.09 5 78.0 208 
 VWUSIBZ ESg  1    243 34.73                              90    0.10 7 78.0 208 
 VWUSIBZ  IAML     243 35.51       20.33 0.22                          78.0 208 
 VSULEBZ EPg  1    243 24.27                              90   -0.17 7 90.1 199 
 VSULEBZ  IAML     243 42.09       16.76 0.24                          90.1 199 
                                                                                
 2008  6 1 0252 15.3 L -15.492 167.788 78.7  VAN  8 0.2 1.5LVAN                1
 GAP=299        0.39       5.9    13.5 17.2  0.5362E+02 -0.1936E+03 -0.5985E+02E
 ACTION:UPD 12-03-27 14:01 OP:chb  STATUS:               ID:20080601025215 L   I
 2008-06-01-0252-09S.VNRC__100_MSEED                                           6
 STAT SP IPHASW D HRMM SECON CODA AMPLIT PERI AZIMU VELO AIN AR TRES W  DIS CAZ7
 VASAVBZ ESg  2    252 40.27                             133   -0.50 5 64.7 245 
 VASAVBZ  IAML     252 41.24       11.35 0.18                          64.7 245 
 VTURTBZ ESg  2    252 41.32                             131    0.11 5 69.1 285 
 VTURTBZ  IAML     252 42.47       11.37 0.08                          69.1 285 
 VPOTOBZ EPg  2    252 30.40                             129    0.05 5 72.2 232 
 VPOTOBZ ESg  2    252 42.44                             129    0.36 5 72.2 232 
 VPOTOBZ  IAML     252 44.74       12.29 0.16                          72.2 232 
 VAVUNBZ EPg  2    252 30.31                             129    0.03 5 72.4 257 
 VAVUNBZ ESg  2    252 42.17                             129    0.21 5 72.4 257 
 VAVUNBZ  IAML     252 43.81        9.07 0.18                          72.4 257 
 VKOLHBZ EPg  2    252 30.28                             128   -0.15 5 74.5 294 
 VKOLHBZ ESg  2    252 42.41                             128    0.18 5 74.5 294 
 VKOLHBZ  IAML     252 44.37       21.80 0.08                          74.5 294 
 VTAMBBZ ESg  2    252 42.24                             127   -0.37 5 76.9 272 
 VTAMBBZ  IAML     252 42.97       22.96 0.16                          76.9 272 
 VLEBEBZ ESg  2    252 44.90                             122    0.01 5 90.1 275 
 VLEBEBZ  IAML     252 47.14       11.43 0.14                          90.1 275 
 VSARABZ ESg  1    252 44.82                             122    0.04 7 90.2 289 
 VSARABZ  IAML     252 46.10       18.36 0.16                          90.2 289 
                                                                                
 2008  6 1 0257 37.0 L -15.444 167.800106.9  VAN  7 0.1 2.0LVAN                1
 GAP=325        0.30       8.1     8.6  7.2  0.2710E+02 -0.5120E+02 -0.1568E+02E
 ACTION:UPD 12-03-27 14:01 OP:chb  STATUS:               ID:20080601025737 L   I
 2008-06-01-0257-19S.VNRC__100_MSEED                                           6
 STAT SP IPHASW D HRMM SECON CODA AMPLIT PERI AZIMU VELO AIN AR TRES W  DIS CAZ7
 VBOKIBZ ESg  2    258  6.70                             145    0.13 5 62.0 255 
 VBOKIBZ  IAML     258  7.36       22.65 0.16                          62.0 255 
 VIRHOBZ EPg  1    257 53.56                             145   -0.10 7 64.0 270 
 VIRHOBZ  IAML     257 54.64       10.85 0.12                          64.0 270 
 VIRHOBZ ESg  2    258  6.39                             145   -0.23 5 64.0 270 
 VTURTBZ EPg  2    257 54.01                             142    0.09 5 69.2 281 
 VTURTBZ ESg  1    258  7.24                             142    0.15 7 69.2 281 
 VTURTBZ  IAML     258  7.99       37.45 0.08                          69.2 281 
 VKOLHBZ ESg  1    258  7.81                             140   -0.03 7 73.7 290 
 VKOLHBZ  IAML     258  9.17       39.13 0.10                          73.7 290 
 VBUTMBZ EPg  2    257 55.48                             135    0.13 5 86.6 277 
 VBUTMBZ ESg  1    258  9.44                             135   -0.19 7 86.6 277 
 VBUTMBZ  IAML     258 10.38       29.34 0.18                          86.6 277 
 VSARABZ EPg  0    257 55.56                             134    0.0010 89.9 285 
 VSARABZ ESg  0    258 10.02                             134    0.0210 89.9 285 
 VSARABZ  IAML     258 10.88       50.23 0.18                          89.9 285 
 VLEBEBZ ESg  1    258 10.39                             134    0.09 7 91.0 272 
 VLEBEBZ  IAML     258 11.97       37.50 0.20                          91.0 272 
                                                                                
 2008  6 1 0319 32.1 L -14.757 167.377116.0  VAN  6 0.4 2.0LVAN                1
 GAP=335        0.71      17.0    26.1 16.5  0.1205E+03 -0.2123E+03 -0.1633E+03E
 ACTION:UPD 12-03-27 14:01 OP:chb  STATUS:               ID:20080601031931 L   I
 2008-06-01-0319-30S.VNRC__100_MSEED                                           6
 STAT SP IPHASW D HRMM SECON CODA AMPLIT PERI AZIMU VELO AIN AR TRES W  DIS CAZ7
 VKOLHBZ ESg  1    320  2.50                             151    0.01 7 56.5 205 
 VKOLHBZ  IAML     320  4.06       40.87 0.08                          56.5 205 
 VSARABZ EPg  1    319 50.29                             147    0.52 7 66.7 218 
 VSARABZ ESg  0    320  3.48                             147   -0.0510 66.7 218 
 VSARABZ  IAML     320  4.43       47.35 0.12                          66.7 218 
 VIRHOBZ ESg  1    320  4.81                             142   -0.08 7 78.6 194 
 VIRHOBZ  IAML     320  5.85       12.86 0.16                          78.6 194 
 VTAMBBZ EPg  2    319 50.00                             140   -1.03 5 85.3 203 
 VTAMBBZ ESg  2    320  5.87                             140    0.09 5 85.3 203 
 VTAMBBZ  IAML     320  7.10       76.62 0.24                          85.3 203 
 VLEBEBZ ESg  1    320  5.79                             139   -0.20 7 85.9 212 
 VLEBEBZ  IAML     320  6.58       31.91 0.14                          85.9 212 
 VAVUNBZ  IAML     319 53.48        7.78 0.10                           102 195 
 VAVUNBZ ESg  2    320  8.62                             134    0.55 5  102 195 
                                                                                
 2008  6 1  327 51.0 L                       VAN  2                            1
 ACTION:UPD 12-03-27 14:01 OP:chb  STATUS:               ID:20080601032751 L   I
 2008-06-01-0327-51S.VNRC__100_MSEED                                           6
 STAT SP IPHASW D HRMM SECON CODA AMPLIT PERI AZIMU VELO AIN AR TRES W  DIS CAZ7
 VIRHOBZ EPg  1    328 23.94                                                    
 VASAVBZ ESg  2    329  0.70                                                    
 VIRHOBZ  IAML     328 24.25        4.50 0.08                                   
 VIRHOBZ ESg  1    328 55.06                                                    
 VASAVBZ  IAML     329  2.02        7.72 0.18                                   
                                                                                
 2008  6 1  328 33.0 L                       VAN  2                            1
 ACTION:UPD 12-03-27 14:01 OP:chb  STATUS:               ID:20080601032833 L   I
 2008-06-01-0328-33S.VNRC__100_MSEED                                           6
 STAT SP IPHASW D HRMM SECON CODA AMPLIT PERI AZIMU VELO AIN AR TRES W  DIS CAZ7
 VLEBEBZ EPg  2    329 26.34                                                    
 VLEBEBZ ESg  3    329 53.83                                                    
 VSARABZ ESg  2    329 24.58                                                    
 VLEBEBZ  IAML     329 34.57        7.19 0.14                                   
 VSARABZ  IAML     329 27.47        8.13 0.10                                   
                                                                                
 2008  6 1 0344 14.6 L -15.285 166.917 32.7  VAN  7 0.9 1.5LVAN                1
 GAP=163        1.34      10.2     8.6 13.3  0.1671E+02  0.7982E+01  0.2008E+01E
 ACTION:UPD 12-03-27 14:01 OP:chb  STATUS:               ID:20080601034415 L   I
 2008-06-01-0343-56S.VNRC__100_MSEED                                           6
 STAT SP IPHASW D HRMM SECON CODA AMPLIT PERI AZIMU VELO AIN AR TRES W  DIS CAZ7
 VANGOBZ EPg  0    344 20.98                             172    0.3110 3.64 250 
 VANGOBZ  IAML     344 21.13       54.94 0.14                          3.64 250 
 VSARABZ EPg  0    344 20.67                             158   -0.0910 10.2  53 
 VSARABZ ESg  1    344 24.42                             158   -1.13 7 10.2  53 
 VSARABZ  IAML     344 24.72      172.89 0.14                          10.2  53 
 VBUTMBZ EPg  0    344 21.34                             156    0.4710 11.4 129 
 VBUTMBZ ESg  1    344 25.65                             156   -0.09 7 11.4 129 
 VBUTMBZ  IAML     344 26.15       61.60 0.08                          11.4 129 
 VLEBEBZ EPg  1    344 21.72                             149    0.60 7 14.8 165 
 VLEBEBZ ESg  1    344 26.46                             149    0.29 7 14.8 165 
 VLEBEBZ  IAML     344 26.71       83.88 0.14                          14.8 165 
 VTURTBZ ESg  1    344 27.38                             129   -0.43 7 27.2 100 
 VTURTBZ  IAML     344 27.70       60.35 0.12                          27.2 100 
 VSULEBZ ESg  3    344 25.16                             122   -4.28 2 32.5 218 
 VSULEBZ  IAML     344 34.72       15.69 0.16                          32.5 218 
 VIRHOBZ ESg  1    344 29.63                             119    0.03 7 35.6 120 
 VIRHOBZ  IAML     344 29.99       33.76 0.10                          35.6 120 
                                                                                
 2008  6 1  347 53.0 L                       VAN  2                            1
 ACTION:UPD 12-03-27 14:01 OP:chb  STATUS:               ID:20080601034753 L   I
 2008-06-01-0347-53S.VNRC__100_MSEED                                           6
 STAT SP IPHASW D HRMM SECON CODA AMPLIT PERI AZIMU VELO AIN AR TRES W  DIS CAZ7
 OS04 SP EPg  1    348 17.82                                                    
 VLEBEBZ ESg  3    348 33.86                                                    
 VLEBEBZ  IAML     348 34.18        5.84 0.12                                   
                                                                                
 2008  6 1 0358 27.7 L                       VAN  5                            1
 ACTION:UPD 12-03-27 14:01 OP:chb  STATUS:               ID:20080601035827 L   I
 2008-06-01-0358-39S.VNRC__100_MSEED                                           6
 STAT SP IPHASW D HRMM SECON CODA AMPLIT PERI AZIMU VELO AIN AR TRES W  DIS CAZ7
 VBUTMBZ EPg  1    358 59.72                                                    
 VSARABZ EPg  1    358 58.53                                                    
 OS01 SP EPg  0    359  1.65                                                    
 OS02 SP EPg  1    359  3.19                                                    
 OS04 SP EPg  0    359  5.89                                                    
 VBUTMBZ  IAML     359 14.79       24.90 0.18                                   
 VSARABZ  IAML     359 18.48       18.42 0.12                                   
                                                                                
