 2008  5 1  614 56.1 R -15.754 168.333138.3  VAN  8 .30 2.4LVAN                1
 GAP=322       0.510      13.4    25.5 23.9  0.2530E+03 -0.5819E+03 -0.2324E+03E
 2008-05-01-0614-56S.VNRC__051_MSEED                                           6
 ACTION:UPD 12-03-27 13:59 OP:chb  STATUS:               ID:20080501061456 L   I
 STAT SP IPHASW D HRMM SECON CODA AMPLIT PERI AZIMU VELO AIN AR TRES W  DIS CAZ7
 VNARWBZ EPg  2    615 19.22                            13.8   0.560 5109.0 257 
 VNARWBZ ESg  2    615 36.22                            13.8   -.080 5109.0 257 
 VNARWBZ  IAML     615 38.52        53.6 0.14                         109.0 257 
 VASAVBZ EPg  0    615 18.93                            13.6   -.29010117.0 271 
 VASAVBZ ESg  2    615 36.79                            13.6   -.490 5117.0 271 
 VASAVBZ  IAML     615 38.39        39.2 0.28                         117.0 271 
 VIRHOBZ EPg  0    615 20.12                            13.4   0.27010126.0 286 
 VIRHOBZ  IAML     615 21.44        23.5 0.18                         126.0 286 
 VIRHOBZ ESg  3    615 38.34                            13.4   -.070 2126.0 286 
 VAVUNBZ EPg  0    615 20.20                            13.3   -.00010129.0 275 
 VAVUNBZ ESg  2    615 39.65                            13.3   0.610 5129.0 275 
 VAVUNBZ  IAML     615 40.15        35.0 0.16                         129.0 275 
 VKOLHBZ EPg  0    615 20.99                            13.0   -.04010140.0 295 
 VKOLHBZ  IAML     615 29.93        48.3 0.10                         140.0 295 
 VKOLHBZ ESg  2    615 40.74                            13.0   0.230 5140.0 295 
 VBUTMBZ EPg  0    615 21.95                            12.8   -.01010150.0 287 
 VBUTMBZ  IAML     615 24.02        31.6 0.08                         150.0 287 
 VBUTMBZ ESg  2    615 41.99                            12.8   -.170 5150.0 287 
 VSARABZ EPg  0    615 22.28                            12.7   -.09010155.0 292 
 VSARABZ  IAML     615 23.54        49.9 0.12                         155.0 292 
 VSARABZ ESg  2    615 42.49                            12.7   -.390 5155.0 292 
 VANGOBZ EPg  0    615 23.30                            12.5   0.05010163.0 288 
 VANGOBZ  IAML     615 26.64        32.9 0.14                         163.0 288 
 VANGOBZ ESg  3    615 45.18                            12.5   0.720 2163.0 288 
 VAVUNBZ EP    A   615 20.25   34                                               
 VIRHOBZ EP    A   615 20.27   33                                               
 VKOLHBZ EP    A   615 21.05   53                                               
 VLAKABZ EP    A   615 23.17    3                                               
 VSALEBZ EP    A   615 22.78    4                                               
 VSARABZ EP    A   615 22.38   64                                               
                                                                                
 2008  5 1  617 27.5 R -15.936 167.514168.0  VAN  3 .00 1.7LVAN                1
 GAP=344       0.310      50.8   146.7 31.9  0.7068E+04 -0.4592E+04 -0.1455E+04E
 2008-05-01-0617-29S.VNRC__051_MSEED                                           6
 ACTION:UPD 12-03-27 13:59 OP:chb  STATUS:               ID:20080501061727 L   I
 STAT SP IPHASW D HRMM SECON CODA AMPLIT PERI AZIMU VELO AIN AR TRES W  DIS CAZ7
 VAVUNBZ  IAML     617 50.52         6.5 0.06                         52.30 308 
 VAVUNBZ ESg  2    618  7.02                            16.1   -.010 552.30 308 
 VBUTMBZ EPg  1    617 51.25                            15.0   0.030 785.10 319 
 VBUTMBZ  IAML     617 53.06         6.8 0.12                         85.10 319 
 VBUTMBZ ESg  2    618  9.68                            15.0   -.020 585.10 319 
 VSARABZ EPg  0    617 51.78                            14.7   -.0201096.10 324 
 VSARABZ  IAML     617 53.47        12.4 0.06                         96.10 324 
 VSARABZ ESg  2    618 10.75                            14.7   0.030 596.10 324 
 VANGOBZ EP    A   617 52.78    6                                               
 VAVUNBZ EP    A   617 49.99    3                                               
 VBUTMBZ EP    A   617 51.72    9                                               
 VIRHOBZ EP    A   617 49.60    3                                               
 VNARWBZ EP    A   617 40.00   20                                               
 VSARABZ EP    A   617 51.92   39                                               
                                                                                
 2008  5 1  641 44.9 R -16.764 165.017209.3  VAN  7 2.0 2.8LVAN                1
 GAP=340        2.66     134.9   423.2555.9  0.3890E+05  0.2321E+06  0.5419E+05E
 2008-05-01-0642-15S.VNRC__051_MSEED                                           6
 ACTION:UPD 12-03-27 13:59 OP:chb  STATUS:               ID:20080501064145 L   I
 STAT SP IPHASW D HRMM SECON CODA AMPLIT PERI AZIMU VELO AIN AR TRES W  DIS CAZ7
 VANGOBZ EPg  2    642 22.20                            12.8   -2.94 5257.0  51 
 VANGOBZ  IAML     642 40.38        33.4 0.24                         257.0  51 
 VPOTOBZ ESg  2    642 57.72                            12.8    1.11 5258.0  68 
 VPOTOBZ  IAML     642 59.32        29.6 0.14                         258.0  68 
 VASAVBZ ESg  2    642 55.91                            12.8   -1.42 5263.0  65 
 VASAVBZ  IAML     642 57.79        22.1 0.22                         263.0  65 
 VNARWBZ ESg  2    642 57.96                            12.8   0.540 5263.0  71 
 VNARWBZ  IAML     643  0.23        35.5 0.14                         263.0  71 
 VSARABZ ESg  2    643  1.64                            12.7    3.12 5271.0  52 
 VSARABZ  IAML     643  3.81        27.7 0.10                         271.0  52 
 VIRHOBZ  IAML     642 38.79        12.1 0.12                         276.0  58 
 VIRHOBZ ESg  2    642 57.68                            12.6   -1.52 5276.0  58 
 VKOLHBZ EPg  2    642 30.48                            12.5    2.90 5286.0  54 
 VKOLHBZ  IAML     642 31.63        48.0 0.10                         286.0  54 
 VKOLHBZ ESg  1    643  0.11                            12.5   -.800 7286.0  54 
 VANGOBZ EP    A   642 21.08   38                                               
 VAVUNBZ EP    A   642 23.88    7                                               
 VBUTMBZ EP    A   642 36.96    7                                               
 VIRHOBZ EP    A   642 21.15    3                                               
 VKOLHBZ EP    A   642 17.09   56                                               
 VLEBEBZ EP    A   642 24.31    8                                               
 VNARWBZ EP    A   642 43.03   23                                               
 VSARABZ EP    A   642 19.53    7                                               
                                                                                
 2008  5 1  655 23.9 L -14.797 167.362104.4  VAN 13 .40 3.3LVAN                1
 GAP=318       0.910       8.4    13.7  9.7  0.5130E+02 -0.9657E+02 -0.5211E+02E
 2008-05-01-0655-19S.VNRC__051_MSEED                                           6
 ACTION:UPD 12-03-27 13:59 OP:chb  STATUS:               ID:20080501065524 L   I
 STAT SP IPHASW D HRMM SECON CODA AMPLIT PERI AZIMU VELO AIN AR TRES W  DIS CAZ7
 VKOLHBZ EPg  0    655 40.02                            15.0   0.4001051.70 206 
 VKOLHBZ ESg  1    655 51.93                            15.0   0.090 751.70 206 
 VKOLHBZ  IAML     655 53.59       711.9 0.16                         51.70 206 
 VSARABZ EPg  0    655 40.45                            14.5   0.2101062.10 220 
 VSARABZ ESg  1    655 53.27                            14.5   0.330 762.10 220 
 VSARABZ  IAML     655 54.54       794.5 0.14                         62.10 220 
 VTURTBZ EPg  1    655 40.46                            14.5   0.310 762.40 200 
 VTURTBZ ESg  1    655 52.76                            14.5   -.030 762.40 200 
 VTURTBZ  IAML     655 53.64      1179.7 0.10                         62.40 200 
 VBUTMBZ EPg  0    655 40.86                            14.1   -.1401072.60 213 
 VBUTMBZ ESg  0    655 54.30                            14.1   0.0001072.60 213 
 VBUTMBZ  IAML     655 55.87       928.6 0.20                         72.60 213 
 VIRHOBZ EPg  0    655 40.79                            14.0   -.2301073.90 193 
 VIRHOBZ ESg  0    655 54.00                            14.0   -.3301073.90 193 
 VIRHOBZ  IAML     655 54.83       502.9 0.12                         73.90 193 
 VANGOBZ EPg  0    655 40.13                            14.0   -1.161075.40 223 
 VANGOBZ ESg  1    655 55.32                            14.0   0.510 775.40 223 
 VANGOBZ  IAML     655 59.35       671.6 0.22                         75.40 223 
 VTAMBBZ EPg  0    655 41.70                            13.8   0.1601080.50 203 
 VTAMBBZ ESg  0    655 54.89                            13.8   -.3701080.50 203 
 VTAMBBZ  IAML     655 59.06      3263.6 0.20                         80.50 203 
 VLEBEBZ EPg  0    655 41.95                            13.7   0.2801081.30 213 
 VLEBEBZ ESg  0    655 55.60                            13.7   0.1101081.30 213 
 VLEBEBZ  IAML     655 56.80      1213.1 0.10                         81.30 213 
 VAVUNBZ EPg  0    655 43.12                            13.2   0.2401096.80 195 
 VAVUNBZ ESg  1    655 57.58                            13.2   -.060 796.80 195 
 VAVUNBZ  IAML     655 58.83       283.6 0.16                         96.80 195 
 VASAVBZ EPg  0    655 43.46                            12.9   -.06010104.0 187 
 VASAVBZ ESg  1    655 58.16                            12.9   -.630 7104.0 187 
 VASAVBZ  IAML     656  0.45       331.9 0.22                         104.0 187 
 VSALEBZ EPg  1    655 44.03                            12.8   0.090 7110.0 211 
 VSALEBZ ESg  2    655 59.51                            12.8   -.030 5110.0 211 
 VSALEBZ  IAML     656  0.89        78.2 0.26                         110.0 211 
 VPOTOBZ EPg  0    655 45.28                            12.5   0.14010121.0 185 
 VPOTOBZ ESg  1    656  2.31                            12.5   0.630 7121.0 185 
 VPOTOBZ  IAML     656  3.27       238.8 0.14                         121.0 185 
 VNARWBZ EPg  0    655 45.96                            12.2   -.06010131.0 181 
 VNARWBZ ESg  2    656  3.63                            12.2   0.400 5131.0 181 
 VNARWBZ  IAML     656  4.63       166.3 0.16                         131.0 181 
 VAVUNBZ EP    A   655 43.24   63                                               
 VBUTMBZ EP    A   655 41.26   82                                               
 VEBENBZ EP    A   655 44.06   34                                               
 VIRHOBZ EP    A   655 41.11   77                                               
 VKOLHBZ EP    A   655 39.94   76                                               
 VLAKABZ EP    A   655 49.46    7                                               
 VLEVIBZ EP    A   655 48.83   37                                               
 VNARWBZ EP    A   655 46.34   77                                               
 VSARABZ EP    A   655 21.40    3                                               
                                                                                
 2008  5 1  7 7 11.0 R                       VAN                               1
 2008-05-01-0707-11S.VNRC__051_MSEED                                           6
 ACTION:UPD 12-03-27 13:59 OP:chb  STATUS:               ID:20080501070711 L   I
 STAT SP IPHASW D HRMM SECON CODA AMPLIT PERI AZIMU VELO AIN AR TRES W  DIS CAZ7
                                                                                
 2008  5 1  711 40.5 R -15.542 166.963 5.00  VAN  3 .00 1.0LVAN                1
 GAP=300       0.300       4.1     3.60.000 -0.4349E+01 -0.9657E+02 -0.5211E+02E
 2008-05-01-0711-24S.VNRC__051_MSEED                                           6
 ACTION:UPD 12-03-27 13:59 OP:chb  STATUS:               ID:20080501071144 L   I
 STAT SP IPHASW D HRMM SECON CODA AMPLIT PERI AZIMU VELO AIN AR TRES W  DIS CAZ7
 VLEBEBZ ESg  2    711 47.13                            11.1   -.010 514.10 355 
 VLEBEBZ  IAML     711 56.70        13.9 0.20                         14.10 355 
 VANGOBZ EPg  1    711 47.81                            10.0   0.000 728.40 343 
 VANGOBZ  IAML     712  6.19        58.3 0.26                         28.40 343 
 VTURTBZ ESg  3    711 54.76                             9.9   -.000 232.10  43 
 VTURTBZ  IAML     711 56.90        56.3 0.14                         32.10  43 
 VAVUNBZ EP    A   711 48.82   31                                               
 VBUTMBZ EP    A   711 47.38   36                                               
 VESPIBZ EP    A   712  6.73    8                                               
 VIRHOBZ EP    A   711 45.97   32                                               
 VKOLHBZ EP    A   711 44.02   41                                               
 VLEBEBZ EP    A   712  1.66   17                                               
 VNARWBZ EP    A   711 48.92   31                                               
 VPOTOBZ EP    A   711 49.75   33                                               
 VTAMBBZ EP    A   711 26.38    3                                               
 VTURTBZ EP    A   711 47.87   26                                               
                                                                                
 2008  5 1  732 37.2 R -15.396 167.705116.6  VAN 10 .30 2.0LVAN                1
 GAP=283       0.710       8.7    19.3 12.3  0.1145E+03 -0.2087E+03 -0.6488E+02E
 2008-05-01-0732-25S.VNRC__051_MSEED                                           6
 ACTION:UPD 12-03-27 13:59 OP:chb  STATUS:               ID:20080501073237 L   I
 STAT SP IPHASW D HRMM SECON CODA AMPLIT PERI AZIMU VELO AIN AR TRES W  DIS CAZ7
 VIRHOBZ EPg  1    732 54.11                            15.2   -.080 754.10 264 
 VIRHOBZ ESg  2    733  6.98                            15.2   -.440 554.10 264 
 VIRHOBZ  IAML     733  7.37        17.4 0.14                         54.10 264 
 VTURTBZ EPg  1    732 54.51                            15.0   0.170 758.30 277 
 VTURTBZ ESg  0    733  7.52                            15.0   -.1601058.30 277 
 VTURTBZ  IAML     733  8.05        70.8 0.20                         58.30 277 
 VKOLHBZ EPg  1    732 54.85                            14.8   0.170 762.30 288 
 VKOLHBZ ESg  1    733  8.52                            14.8   0.230 762.30 288 
 VKOLHBZ  IAML     733  9.41        65.2 0.08                         62.30 288 
 VAVUNBZ EPg  0    732 55.08                            14.6   0.0701067.40 246 
 VAVUNBZ  IAML     732 55.79        10.8 0.12                         67.40 246 
 VAVUNBZ ESg  2    733  8.86                            14.6   -.020 567.40 246 
 VTAMBBZ EPg  0    732 54.28                            14.6   -.7701068.50 263 
 VTAMBBZ  IAML     732 55.39        59.5 0.16                         68.50 263 
 VTAMBBZ ESg  1    733  8.51                            14.6   -.430 768.50 263 
 VPOTOBZ EPg  1    732 55.91                            14.4   0.450 772.90 221 
 VPOTOBZ ESg  2    733 10.08                            14.4   0.410 572.90 221 
 VPOTOBZ  IAML     733 10.97        15.2 0.14                         72.90 221 
 VNARWBZ ESg  1    733 10.00                            14.3   0.070 775.40 211 
 VNARWBZ  IAML     733 11.61        19.4 0.16                         75.40 211 
 VBUTMBZ EPg  0    732 55.70                            14.3   0.1101076.00 274 
 VBUTMBZ ESg  1    733  9.82                            14.3   -.080 776.00 274 
 VBUTMBZ  IAML     733 11.38        31.1 0.16                         76.00 274 
 VSARABZ EPg  0    732 55.82                            14.2   0.1001078.70 283 
 VSARABZ ESg  0    733 10.47                            14.2   0.3401078.70 283 
 VSARABZ  IAML     733 11.04        81.2 0.14                         78.70 283 
 VANGOBZ ESg  2    733 11.83                            13.8   0.170 588.70 277 
 VANGOBZ  IAML     733 14.71        24.3 0.20                         88.70 277 
 VAVUNBZ EP    A   732 55.20   23                                               
 VIRHOBZ EP    A   732 54.22   25                                               
 VKOLHBZ EP    A   732 55.03   34                                               
 VLEBEBZ EP    A   732 35.43    3                                               
 VSARABZ EP    A   732 56.27   33                                               
 VTURTBZ EP    A   732 54.60   27                                               
                                                                                
 2008  5 1  739 21.0 R                       VAN  2                            1
 2008-05-01-0739-21S.VNRC__051_MSEED                                           6
 ACTION:UPD 12-03-27 13:59 OP:chb  STATUS:               ID:20080501073921 L   I
 STAT SP IPHASW D HRMM SECON CODA AMPLIT PERI AZIMU VELO AIN AR TRES W  DIS CAZ7
 VKOLHBZ ESg  2    739 57.75                                                    
 VKOLHBZ  IAML     740  0.13         9.3 0.14                                   
 VSARABZ ESg  3    740  1.00                                                    
 VSARABZ  IAML     740  1.98        13.5 0.14                                   
 VKOLHBZ EP    A   739 40.93    4                                               
 VNARWBZ EP    A   740 15.58    4                                               
 VSARABZ EP    A   739 41.72   30                                               
 VTURTBZ EP    A   739 41.47   14                                               
                                                                                
 2008  5 1  748 26.7 R -15.758 167.053 5.00  VAN  3 .00 0.9LVAN                1
 GAP=235       0.300       1.2     2.30.000  0.1059E+01 -0.2087E+03 -0.6488E+02E
 2008-05-01-0747-43S.VNRC__051_MSEED                                           6
 ACTION:UPD 12-03-27 13:59 OP:chb  STATUS:               ID:20080501074831 L   I
 STAT SP IPHASW D HRMM SECON CODA AMPLIT PERI AZIMU VELO AIN AR TRES W  DIS CAZ7
 VASAVBZ ESg  2    748 35.96                            10.4   -.000 520.10  82 
 VASAVBZ  IAML     748 36.83         8.8 0.10                         20.10  82 
 VTAMBBZ ESg  2    748 41.10                             9.9   -.000 532.10   3 
 VTAMBBZ  IAML     748 41.64        22.9 0.06                         32.10   3 
 VNARWBZ EPg  0    748 36.78                             9.7   0.0001039.60 128 
 VNARWBZ  IAML     748 37.36        28.1 0.12                         39.60 128 
 VIRHOBZ EP    A   747 45.08    3                                               
 VLAKABZ EP    A   748  1.06    7                                               
 VPOTOBZ EP    A   748 30.63    5                                               
 VSARABZ EP    A   747 55.63    3                                               
 VTAMBBZ EP    A   747 49.55    4                                               
                                                                                
