 2008  6 1 0003 59.2 L -15.249 167.542 98.1  VAN 12 0.3 1.8LVAN                1
 GAP=280        0.65       6.5    15.5  9.0  0.6256E+02 -0.1148E+03 -0.2981E+02E
 ACTION:UPD 12-03-27 14:01 OP:chb  STATUS:               ID:20080601000359 L   I
 2008-06-01-0003-53S.VNRC__100_MSEED                                           6
 STAT SP IPHASW D HRMM SECON CODA AMPLIT PERI AZIMU VELO AIN AR TRES W  DIS CAZ7
 VTURTBZ EPg  2    0 4 13.46                             154   -0.17 5 41.2 258 
 VTURTBZ ESg  1    0 4 24.72                             154   -0.12 7 41.2 258 
 VTURTBZ  IAML     0 4 25.32       35.86 0.08                          41.2 258 
 VKOLHBZ EPg  1    0 4 13.82                             154    0.06 7 41.8 275 
 VKOLHBZ ESg  1    0 4 25.72                             154    0.63 7 41.8 275 
 VKOLHBZ  IAML     0 4 26.67       52.21 0.08                          41.8 275 
 VIRHOBZ EPg  1    0 4 13.51                             153   -0.25 7 42.4 239 
 VIRHOBZ ESg  2    0 4 24.81                             153   -0.28 5 42.4 239 
 VIRHOBZ  IAML     0 4 25.93       10.05 0.12                          42.4 239 
 VBOKIBZ ESg  1    0 4 25.86                             149   -0.12 7 49.7 220 
 VBOKIBZ  IAML     0 4 26.22       67.72 0.14                          49.7 220 
 VTAMBBZ EPg  0    0 4 14.34                             146   -0.2310 56.0 244 
 VTAMBBZ ESg  1    0 4 26.17                             146   -0.35 7 56.0 244 
 VTAMBBZ  IAML     0 4 27.42       71.81 0.12                          56.0 244 
 VSARABZ EPg  0    0 4 14.70                             144   -0.0510 59.0 272 
 VSARABZ ESg  0    0 4 27.04                             144    0.1910 59.0 272 
 VSARABZ  IAML     0 4 27.54       63.10 0.10                          59.0 272 
 VBUTMBZ EPg  0    0 4 14.59                             144   -0.2410 59.4 259 
 VBUTMBZ ESg  1    0 4 26.83                             144   -0.15 7 59.4 259 
 VBUTMBZ  IAML     0 4 28.78       25.41 0.20                          59.4 259 
 VAVUNBZ EPg  1    0 4 14.95                             143   -0.04 7 62.0 225 
 VAVUNBZ  IAML     0 4 15.27       11.35 0.10                          62.0 225 
 VAVUNBZ ESg  3    0 4 28.30                             143    1.03 2 62.0 225 
 VPOTOBZ EPg  1    0 4 16.32                             136    0.13 7 77.2 204 
 VPOTOBZ ESg  2    0 4 29.49                             136    0.08 5 77.2 204 
 VPOTOBZ  IAML     0 4 30.95       25.90 0.16                          77.2 204 
 OS08 SP EPg  1    0 4 16.85                             135    0.90 7 81.3 220 
 VNARWBZ ESg  2    0 4 30.45                             134    0.17 5 83.6 195 
 VNARWBZ  IAML     0 4 31.87       23.76 0.14                          83.6 195 
 VESPIBZ EPg  2    0 4 17.09                             132    0.12 5 88.5 205 
 VESPIBZ ESg  2    0 4 30.39                             132   -0.41 5 88.5 205 
 VESPIBZ  IAML     0 4 33.61        4.85 0.10                          88.5 205 
                                                                                
 2008  6 1 0013 50.8 L -15.556 167.575113.0  VAN  4 0.1 1.5LVAN                1
 GAP=337        0.31      17.5    19.5  9.0  0.1737E+03 -0.1007E+03  0.2267E+01E
 ACTION:UPD 12-03-27 14:01 OP:chb  STATUS:               ID:20080601001350 L   I
 2008-06-01-0013-41S.VNRC__100_MSEED                                           6
 STAT SP IPHASW D HRMM SECON CODA AMPLIT PERI AZIMU VELO AIN AR TRES W  DIS CAZ7
 VIRHOBZ ESg  2    014 19.30                             157    0.03 5 41.7 287 
 VIRHOBZ  IAML     014 19.94        2.98 0.22                          41.7 287 
 VKOLHBZ ESg  2    014 20.81                             149   -0.04 5 58.6 309 
 VKOLHBZ  IAML     014 21.95       19.79 0.10                          58.6 309 
 VBUTMBZ EPg  2    014  8.27                             146    0.10 5 65.9 290 
 VBUTMBZ  IAML     014  8.39       10.05 0.12                          65.9 290 
 VBUTMBZ ESg  2    014 21.58                             146   -0.13 5 65.9 290 
 VSARABZ EPg  2    014  8.42                             143   -0.11 5 72.2 300 
 VSARABZ ESg  1    014 22.41                             143    0.06 7 72.2 300 
 VSARABZ  IAML     014 23.17       18.81 0.14                          72.2 300 
                                                                                
 2008  6 1 0029 49.8 L -15.251 167.114  0.1  VAN  3 1.1 0.6LVAN                1
 GAP=182        1.15      25.3    24.2505.6 -0.5985E+03 -0.1079E+05  0.1157E+05E
 ACTION:UPD 12-03-27 14:01 OP:chb  STATUS:               ID:20080601002951 L   I
 2008-06-01-0029-19S.VNRC__100_MSEED                                           6
 STAT SP IPHASW D HRMM SECON CODA AMPLIT PERI AZIMU VELO AIN AR TRES W  DIS CAZ7
 VKOLHBZ ESg  2    029 51.71                              92   -0.49 5 5.60  50 
 VKOLHBZ  IAML     029 55.48       28.09 0.14                          5.60  50 
 VBUTMBZ ESg  2    029 56.48                              92   -0.48 5 16.5 229 
 VBUTMBZ  IAML     029 59.85       20.39 0.22                          16.5 229 
 VTAMBBZ EPg  2    029 57.25                              91    1.44 5 24.4 191 
 VTAMBBZ ESg  3    029 58.63                              91   -1.87 2 24.4 191 
 VTAMBBZ  IAML     030  1.08       34.64 0.16                          24.4 191 
                                                                                
 2008  6 1  033 12.0 L                       VAN  2                            1
 ACTION:UPD 12-03-27 14:01 OP:chb  STATUS:               ID:20080601003312 L   I
 2008-06-01-0033-12S.VNRC__100_MSEED                                           6
 STAT SP IPHASW D HRMM SECON CODA AMPLIT PERI AZIMU VELO AIN AR TRES W  DIS CAZ7
 VLEBEBZ ESg  3    033 32.66                                                    
 VTAMBBZ ESg  2    033 33.14                                                    
 VLEBEBZ  IAML     033 37.46        7.79 0.14                                   
 VTAMBBZ  IAML     033 33.91       13.61 0.10                                   
                                                                                
 2008  6 1 0041 51.8 L -15.335 167.812103.9  VAN  8 0.2 1.5LVAN                1
 GAP=304        0.44      10.8    22.9 18.8  0.1713E+03 -0.3903E+03 -0.1345E+03E
 ACTION:UPD 12-03-27 14:01 OP:chb  STATUS:               ID:20080601004151 L   I
 2008-06-01-0041-48S.VNRC__100_MSEED                                           6
 STAT SP IPHASW D HRMM SECON CODA AMPLIT PERI AZIMU VELO AIN AR TRES W  DIS CAZ7
 VIRHOBZ ESg  2    042 20.77                             143   -0.43 5 66.5 259 
 VIRHOBZ  IAML     042 21.35        3.89 0.14                          66.5 259 
 VBOKIBZ ESg  3    042 21.39                             143   -0.10 2 67.3 245 
 VBOKIBZ  IAML     042 22.10       11.59 0.12                          67.3 245 
 VKOLHBZ ESg  2    042 22.14                             141    0.22 5 71.8 280 
 VKOLHBZ  IAML     042 22.87       17.97 0.16                          71.8 280 
 VAVUNBZ EPg  2    042  9.63                             137    0.23 5 80.6 245 
 VAVUNBZ  IAML     042 25.40        4.42 0.12                          80.6 245 
 VTAMBBZ ESg  2    042 22.96                             137   -0.14 5 80.8 259 
 VTAMBBZ  IAML     042 23.14       15.25 0.10                          80.8 259 
 VPOTOBZ ESg  2    042 24.26                             135    0.28 5 85.6 224 
 VPOTOBZ  IAML     042 25.35       10.47 0.14                          85.6 224 
 VBUTMBZ EPg  1    042  9.77                             135   -0.17 7 87.3 269 
 VBUTMBZ ESg  1    042 23.84                             135   -0.24 7 87.3 269 
 VBUTMBZ  IAML     042 25.78       14.91 0.12                          87.3 269 
 VSARABZ EPg  2    042 10.07                             134    0.06 5 88.8 277 
 VSARABZ ESg  1    042 24.52                             134    0.32 7 88.8 277 
 VSARABZ  IAML     042 24.97       19.80 0.10                          88.8 277 
                                                                                
 2008  6 1 0044 37.9 L -15.692 167.388140.4  VAN  3 0.1 1.9LVAN                1
 GAP=346        0.32      59.7   143.0 38.1  0.7251E+04 -0.5346E+04 -0.1793E+04E
 ACTION:UPD 12-03-27 14:01 OP:chb  STATUS:               ID:20080601004437 L   I
 2008-06-01-0044-37S.VNRC__100_MSEED                                           6
 STAT SP IPHASW D HRMM SECON CODA AMPLIT PERI AZIMU VELO AIN AR TRES W  DIS CAZ7
 VTAMBBZ ESg  2    045 11.54                             160   -0.02 5 42.0 306 
 VTAMBBZ  IAML     045 12.04       17.80 0.18                          42.0 306 
 VBUTMBZ EPg  2    044 57.53                             154    0.08 5 56.3 312 
 VBUTMBZ ESg  2    045 12.64                             154   -0.03 5 56.3 312 
 VBUTMBZ  IAML     045 13.64       13.80 0.14                          56.3 312 
 VSARABZ EPg  1    044 57.86                             151   -0.03 7 66.5 320 
 VSARABZ ESg  3    045 13.59                             151    0.13 2 66.5 320 
 VSARABZ  IAML     045 14.41       22.40 0.12                          66.5 320 
                                                                                
 2008  6 1 0100 43.3 L -15.366 167.015 31.2  VAN  5 0.2 1.1LVAN                1
 GAP= 89        0.34       3.3     4.3  4.5 -0.1308E+01 -0.9453E+01 -0.6701E+00E
 ACTION:UPD 12-03-27 14:01 OP:chb  STATUS:               ID:20080601010043 L   I
 2008-06-01-0100-29S.VNRC__100_MSEED                                           6
 STAT SP IPHASW D HRMM SECON CODA AMPLIT PERI AZIMU VELO AIN AR TRES W  DIS CAZ7
 VBUTMBZ ESg  2    1 0 53.65                             175    0.12 5 2.43 314 
 VBUTMBZ  IAML     1 0 58.63       25.06 0.24                          2.43 314 
 VLEBEBZ ESg  2    1 0 53.86                             161   -0.05 5 8.63 231 
 VLEBEBZ  IAML     1 0 55.30       60.72 0.16                          8.63 231 
 VTAMBBZ EPg  2    1 0 49.06                             152   -0.37 5 12.8 152 
 VTAMBBZ ESg  2    1 0 54.25                             152    0.06 5 12.8 152 
 VTAMBBZ  IAML     1 0 55.83       24.94 0.26                          12.8 152 
 VKOLHBZ EPg  2    1 0 50.25                             136    0.06 5 22.0  43 
 VKOLHBZ ESg  2    1 0 55.43                             136   -0.11 5 22.0  43 
 VKOLHBZ  IAML     1 0 55.62       22.44 0.18                          22.0  43 
 VIRHOBZ EPg  1    1 0 50.33                             136    0.16 7 22.1 114 
 VIRHOBZ ESg  2    1 0 55.42                             136   -0.08 5 22.1 114 
 VIRHOBZ  IAML     1 0 55.63       11.48 0.14                          22.1 114 
                                                                                
 2008  6 1 0105  8.8 L -14.688 167.334 71.0  VAN 23 0.4 2.7LVAN                1
 GAP=320        0.98       7.3     9.2  9.2  0.1667E+02 -0.3968E+02 -0.3706E+02E
 ACTION:UPD 12-03-27 14:01 OP:chb  STATUS:               ID:20080601010508 L   I
 2008-06-01-0105-02S.VNRC__100_MSEED                                           6
 STAT SP IPHASW D HRMM SECON CODA AMPLIT PERI AZIMU VELO AIN AR TRES W  DIS CAZ7
 VKOLHBZ EPg  0    1 5 22.43                             131    0.1510 61.9 198 
 VKOLHBZ ESg  1    1 5 32.75                             131   -0.04 7 61.9 198 
 VKOLHBZ  IAML     1 5 33.07      960.48 0.12                          61.9 198 
 VSARABZ EPg  0    1 5 23.05                             126    0.0410 70.3 211 
 VSARABZ ESg  1    1 5 34.13                             126    0.04 7 70.3 211 
 VSARABZ  IAML     1 5 35.17      311.32 0.10                          70.3 211 
 VTURTBZ EPg  1    1 5 23.36                             125    0.19 7 73.1 194 
 VTURTBZ ESg  2    1 5 34.48                             125    0.09 5 73.1 194 
 VTURTBZ  IAML     1 5 38.14      223.64 0.12                          73.1 194 
 VBUTMBZ EPg  0    1 5 24.05                             121   -0.0810 81.7 206 
 VBUTMBZ ESg  1    1 5 35.56                             121   -0.54 7 81.7 206 
 VBUTMBZ  IAML     1 5 37.05      299.06 0.12                          81.7 206 
 VANGOBZ EPg  0    1 5 24.53                             121    0.1910 82.9 216 
 VANGOBZ ESg  1    1 5 36.85                             121    0.39 7 82.9 216 
 VANGOBZ  IAML     1 5 38.79       426.7 0.16                          82.9 216 
 VIRHOBZ EPg  0    1 5 24.36                             120   -0.0510 85.2 189 
 VIRHOBZ ESg  1    1 5 36.14                             120   -0.44 7 85.2 189 
 VIRHOBZ  IAML     1 5 39.76      331.19 0.12                          85.2 189 
 VLEBEBZ EPg  0    1 5 24.88                             118   -0.1310 90.3 207 
 VLEBEBZ ESg  1    1 5 37.02                             118   -0.63 7 90.3 207 
 VLEBEBZ  IAML     1 5 39.24      629.11 0.14                          90.3 207 
 VWUSIBZ EPg  0    1 5 26.61                             114    0.0310  104 224 
 VWUSIBZ ESg  2    1 5 41.10                             114    0.66 5  104 224 
 VWUSIBZ  IAML     1 5 44.75       59.02 0.26                           104 224 
 VEBENBZ EPg  1    1 5 27.11                             113    0.59 7  105 203 
 VEBENBZ ESg  2    1 5 40.86                             113    0.51 5  105 203 
 VEBENBZ  IAML     1 5 43.88      136.11 0.14                           105 203 
 VAVUNBZ EPg  0    1 5 26.56                             112   -0.2110  108 192 
 VAVUNBZ ESg  2    1 5 40.35                             112   -0.44 5  108 192 
 VAVUNBZ  IAML     1 5 43.89        91.4 0.14                           108 192 
 VSULEBZ EPg  0    1 5 27.63                             111    0.1910  112 215 
 VSULEBZ  IAML     1 5 28.99      162.65 0.22                           112 215 
 VASAVBZ EPg  1    1 5 27.52                             110   -0.11 7  116 185 
 VASAVBZ ESg  1    1 5 41.71                             110   -0.61 7  116 185 
 VASAVBZ  IAML     1 5 42.36      150.04 0.20                           116 185 
 VSALEBZ EPg  0    1 5 28.49                             110    0.6210  119 207 
 VSALEBZ  IAML     1 5 29.49       59.11 0.18                           119 207 
 VSALEBZ ESg  2    1 5 44.27                             110    1.52 5  119 207 
 OS08 SP EPg  0    1 5 28.45                             108    0.0510  128 194 
 OS05 SP EPg  0    1 5 29.22                             107    0.3510  132 200 
 VPOTOBZ EPg  0    1 5 29.71                             107    0.1710  133 184 
 VPOTOBZ ESg  1    1 5 45.98                             107    0.25 7  133 184 
 VPOTOBZ  IAML     1 5 48.75      104.45 0.18                           133 184 
 OS02 SP EPg  0    1 5 28.17                             106   -1.0510  138 216 
 VESPIBZ EPg  0    1 5 30.98                             105    0.4910  143 186 
 VESPIBZ ESg  2    1 5 47.90                             105    0.49 5  143 186 
 VESPIBZ  IAML     1 5 48.30       42.40 0.14                           143 186 
 OS04 SP EPg  0    1 5 29.69                             105   -0.6910  147 209 
 OS07 SP EPg  0    1 5 30.96                             105   -0.0410  148 195 
 OS06 SP EPg  0    1 5 31.40                             104   -0.3310  156 201 
 OS10 SP EPg  0    1 5 32.88                             102    0.2910  169 191 
 OS09 SP EPg  0    1 5 32.75                             102   -0.2010  173 198 
                                                                                
 2008  6 1 0115 23.5 L -15.161 167.813 95.3  VAN 12 0.3 2.1LVAN                1
 GAP=311        0.56       6.4    13.3 14.7  0.5719E+02 -0.1816E+03 -0.6130E+02E
 ACTION:UPD 12-03-27 14:01 OP:chb  STATUS:               ID:20080601011523 L   I
 2008-06-01-0115-19S.VNRC__100_MSEED                                           6
 STAT SP IPHASW D HRMM SECON CODA AMPLIT PERI AZIMU VELO AIN AR TRES W  DIS CAZ7
 VTURTBZ EPg  2    115 39.53                             137   -0.02 5 71.9 255 
 VTURTBZ ESg  1    115 52.39                             137    0.30 7 71.9 255 
 VTURTBZ  IAML     115 53.35       80.59 0.08                          71.9 255 
 VIRHOBZ EPg  1    115 39.61                             137   -0.08 7 72.7 244 
 VIRHOBZ ESg  2    115 52.31                             137   -0.03 5 72.7 244 
 VIRHOBZ  IAML     115 53.06       20.73 0.10                          72.7 244 
 VBOKIBZ ESg  3    115 52.13                             135   -1.07 2 77.6 232 
 VBOKIBZ  IAML     115 54.75       43.73 0.20                          77.6 232 
 VASAVBZ EPg  1    115 40.81                             131   -0.19 7 88.3 224 
 VASAVBZ ESg  1    115 54.21                             131   -0.47 7 88.3 224 
 VASAVBZ  IAML     115 55.58       33.88 0.14                          88.3 224 
 VSARABZ EPg  0    115 41.01                             131    0.0210 88.5 265 
 VSARABZ ESg  0    115 54.94                             131    0.2910 88.5 265 
 VSARABZ  IAML     115 55.84      129.61 0.18                          88.5 265 
 VBUTMBZ EPg  2    115 41.12                             130   -0.04 5 90.0 256 
 VBUTMBZ ESg  0    115 54.78                             130   -0.1810 90.0 256 
 VBUTMBZ  IAML     115 56.18       68.49 0.12                          90.0 256 
 VAVUNBZ EPg  0    115 41.16                             130   -0.0410 90.5 234 
 VAVUNBZ ESg  1    115 55.00                             130   -0.03 7 90.5 234 
 VAVUNBZ  IAML     115 55.98       24.50 0.26                          90.5 234 
 VLEBEBZ ESg  1    115 55.80                             128   -0.24 7 96.6 253 
 VLEBEBZ  IAML     115 57.67       35.98 0.16                          96.6 253 
 VPOTOBZ EPg  0    115 42.03                             127   -0.1310  100 217 
 VPOTOBZ ESg  1    115 57.26                             127    0.52 7  100 217 
 VPOTOBZ  IAML     115 58.64       29.88 0.18                           100 217 
 VANGOBZ EPg  2    115 42.36                             127    0.15 5  101 261 
 VANGOBZ ESg  2    115 56.34                             127   -0.48 5  101 261 
 VANGOBZ  IAML     115 58.17       62.46 0.22                           101 261 
 OS08 SP EPg  0    115 42.69                             124    0.3210  109 229 
 VESPIBZ EPg  2    115 42.77                             123   -0.32 5  112 216 
 VESPIBZ ESg  2    115 58.69                             123    0.30 5  112 216 
 VESPIBZ  IAML     116  0.59        9.87 0.18                           112 216 
                                                                                
 2008  6 1 0124 30.7 L -15.074 166.892 29.8  VAN  3 0.1 1.3LVAN                1
 GAP=326        0.33       4.0     8.0  8.3 -0.8343E+01  0.2735E+02 -0.1269E+02E
 ACTION:UPD 12-03-27 14:01 OP:chb  STATUS:               ID:20080601012430 L   I
 2008-06-01-0124-17S.VNRC__100_MSEED                                           6
 STAT SP IPHASW D HRMM SECON CODA AMPLIT PERI AZIMU VELO AIN AR TRES W  DIS CAZ7
 VSARABZ EPg  0    124 37.15                             137   -0.0510 20.2 148 
 VSARABZ ESg  2    124 42.38                             137    0.09 5 20.2 148 
 VSARABZ  IAML     124 43.78       40.34 0.06                          20.2 148 
 VANGOBZ EPg  1    124 37.86                             130    0.09 7 24.6 182 
 VANGOBZ ESg  2    124 43.21                             130   -0.11 5 24.6 182 
 VANGOBZ  IAML     124 45.60       23.81 0.22                          24.6 182 
 VLEBEBZ ESg  1    124 46.06                             115    0.01 7 38.2 170 
 VLEBEBZ  IAML     124 47.07       43.35 0.16                          38.2 170 
                                                                                
