 2008  6 1 0630 46.9 L -15.333 167.907129.4  VAN 19 0.4 3.1LVAN                1
 GAP=301        0.87       8.1    12.7  9.5  0.4987E+02 -0.1010E+03 -0.3583E+02E
 ACTION:UPD 12-03-27 14:01 OP:chb  STATUS:               ID:20080601063046 L   I
 2008-06-01-0630-45S.VNRC__100_MSEED                                           6
 STAT SP IPHASW D HRMM SECON CODA AMPLIT PERI AZIMU VELO AIN AR TRES W  DIS CAZ7
 VIRHOBZ EPg  0    631  6.06                             147   -0.3310 76.5 260 
 VIRHOBZ ESg  2    631 21.41                             147   -0.16 5 76.5 260 
 VIRHOBZ  IAML     631 22.22      195.42 0.10                          76.5 260 
 VBOKIBZ EPg  2    631  6.99                             146    0.48 5 76.8 248 
 VBOKIBZ ESg  1    631 21.19                             146   -0.59 7 76.8 248 
 VBOKIBZ  IAML     631 21.92      324.45 0.16                          76.8 248 
 VTURTBZ EPg  0    631  6.49                             145   -0.0010 79.5 270 
 VTURTBZ ESg  1    631 21.93                             145    0.17 7 79.5 270 
 VTURTBZ  IAML     631 22.41      967.83 0.14                          79.5 270 
 VKOLHBZ EPg  0    631  6.80                             145    0.0410 81.8 279 
 VKOLHBZ ESg  1    631 22.67                             145    0.44 7 81.8 279 
 VKOLHBZ  IAML     631 23.67      783.29 0.08                          81.8 279 
 VASAVBZ EPg  0    631  6.80                             144   -0.1310 84.2 238 
 VASAVBZ ESg  1    631 22.19                             144   -0.35 7 84.2 238 
 VASAVBZ  IAML     631 22.84      203.12 0.10                          84.2 238 
 VAVUNBZ EPg  0    631  7.48                             142    0.1410 90.0 248 
 VAVUNBZ ESg  1    631 22.96                             142   -0.30 7 90.0 248 
 VAVUNBZ  IAML     631 25.88      132.67 0.26                          90.0 248 
 VTAMBBZ EPg  0    631  7.11                             141   -0.2610 90.9 260 
 VTAMBBZ ESg  0    631 22.81                             141   -0.5110 90.9 260 
 VTAMBBZ  IAML     631 26.15      782.31 0.22                          90.9 260 
 VPOTOBZ EPg  0    631  7.72                             141    0.0710 93.1 229 
 VPOTOBZ ESg  2    631 24.18                             141    0.36 5 93.1 229 
 VPOTOBZ  IAML     631 24.64      211.87 0.18                          93.1 229 
 VNARWBZ EPg  0    631  7.90                             140    0.2410 93.7 220 
 VNARWBZ ESg  2    631 24.26                             140    0.41 5 93.7 220 
 VNARWBZ  IAML     631 26.71      266.42 0.16                          93.7 220 
 VBUTMBZ EPg  0    631  7.82                             139   -0.0710 97.5 269 
 VBUTMBZ ESg  0    631 24.02                             139   -0.2210 97.5 269 
 VBUTMBZ  IAML     631 24.72      609.91 0.10                          97.5 269 
 VSARABZ EPg  0    631  8.00                             139    0.0710 98.9 277 
 VSARABZ ESg  1    631 24.49                             139    0.16 7 98.9 277 
 VSARABZ  IAML     631 25.51      784.26 0.14                          98.9 277 
 VLEBEBZ EPg  0    631  8.22                             138   -0.0910  103 265 
 VLEBEBZ ESg  1    631 25.15                             138    0.15 7  103 265 
 VLEBEBZ  IAML     631 26.31      341.37 0.20                           103 265 
 VESPIBZ EPg  0    631  8.60                             137    0.2510  104 227 
 VESPIBZ ESg  2    631 25.00                             137   -0.07 5  104 227 
 VESPIBZ  IAML     631 26.02       74.43 0.16                           104 227 
 VEBENBZ EPg  1    631  9.46                             137    1.00 7  105 256 
 VEBENBZ  IAML     631 10.00      149.38 0.10                           105 256 
 VEBENBZ ESg  2    631 25.87                             137    0.60 5  105 256 
 VANGOBZ EPg  0    631  9.30                             136    0.3910  110 272 
 VANGOBZ ESg  2    631 26.31                             136    0.25 5  110 272 
 VANGOBZ  IAML     631 27.87      267.16 0.22                           110 272 
 OS05 SP EPg  1    631  8.88                             133   -0.20 7  119 244 
 VSALEBZ EPg  2    631  9.69                             133    0.08 5  121 253 
 VSALEBZ ESg  2    631 28.17                             133    0.87 5  121 253 
 VSALEBZ  IAML     631 28.78       47.87 0.18                           121 253 
 VWUSIBZ EPg  0    631 11.36                             129    0.3910  134 268 
 VWUSIBZ  IAML     631 15.02       28.16 0.12                           134 268 
 OS01 SP EPg  0    631 10.51                             126   -0.9810  149 261 
                                                                                
 2008  6 1 0658 25.5 L -14.740 167.381116.1  VAN  9 0.3 2.0LVAN                1
 GAP=325        0.43       8.5    12.2  9.4  0.4060E+02 -0.7238E+02 -0.6029E+02E
 ACTION:UPD 12-03-27 14:01 OP:chb  STATUS:               ID:20080601065825 L   I
 2008-06-01-0658-22S.VNRC__100_MSEED                                           6
 STAT SP IPHASW D HRMM SECON CODA AMPLIT PERI AZIMU VELO AIN AR TRES W  DIS CAZ7
 VKOLHBZ EPg  2    658 42.82                             149    0.16 5 58.3 205 
 VKOLHBZ ESg  2    658 56.30                             149    0.25 5 58.3 205 
 VKOLHBZ  IAML     658 57.40       66.15 0.14                          58.3 205 
 VTURTBZ EPg  2    658 43.37                             144    0.18 5 69.0 200 
 VTURTBZ  IAML     658 43.60       34.03 0.04                          69.0 200 
 VTURTBZ ESg  2    658 56.90                             144   -0.09 5 69.0 200 
 VBUTMBZ EPg  0    658 43.90                             140   -0.1110 79.1 211 
 VBUTMBZ ESg  2    658 58.46                             140    0.01 5 79.1 211 
 VBUTMBZ  IAML     659  1.08       44.65 0.18                          79.1 211 
 VIRHOBZ EPg  0    658 43.87                             140   -0.1710 80.5 194 
 VIRHOBZ  IAML     658 44.20       19.78 0.10                          80.5 194 
 VIRHOBZ ESg  2    658 58.27                             140   -0.23 5 80.5 194 
 VANGOBZ EPg  0    658 44.44                             140    0.1810 81.5 221 
 VANGOBZ ESg  2    658 59.17                             140    0.26 5 81.5 221 
 VANGOBZ  IAML     659  3.07       23.89 0.24                          81.5 221 
 VLEBEBZ EPg  0    658 44.61                             137   -0.0510 87.7 212 
 VLEBEBZ ESg  1    658 59.36                             137   -0.25 7 87.7 212 
 VLEBEBZ  IAML     659  0.83       39.39 0.12                          87.7 212 
 VAVUNBZ EPg  0    658 45.90                             132    0.0610  103 195 
 VAVUNBZ  IAML     658 46.37       14.71 0.10                           103 195 
 VAVUNBZ ESg  2    659  1.65                             132   -0.07 5  103 195 
 VASAVBZ ESg  3    659  1.87                             130   -0.94 2  111 188 
 VASAVBZ  IAML     659  2.85       12.21 0.18                           111 188 
 VPOTOBZ  IAML     658 48.68       12.14 0.10                           128 186 
 VPOTOBZ ESg  2    659  6.26                             126    0.65 5  128 186 
                                                                                
 2008  6 1 0707  3.4 L -18.621 168.626 45.0  VAN  9 0.4 2.5LVAN                1
 GAP=348        0.74      27.4    38.8999.9 -0.2171E+03 -0.2630E+05  0.2612E+05E
 ACTION:UPD 12-03-27 14:01 OP:chb  STATUS:               ID:20080601070703 L   I
 2008-06-01-0707-13S.VNRC__100_MSEED                                           6
 STAT SP IPHASW D HRMM SECON CODA AMPLIT PERI AZIMU VELO AIN AR TRES W  DIS CAZ7
 OS10 SP EPg  0    7 7 45.77                              91   -0.2210  318 328 
 VESPIBZ EPg  1    7 7 48.89                              91    0.79 7  330 332 
 VESPIBZ  IAML     7 7 50.60       14.82 0.24                           330 332 
 VESPIBZ ESg  2    7 8 23.53                              91    0.58 5  330 332 
 OS09 SP EPg  0    7 7 47.21                              91   -0.1910  331 325 
 VPOTOBZ EPg  2    7 7 49.11                              91    0.21 5  336 334 
 VPOTOBZ  IAML     7 7 54.57       14.00 0.18                           336 334 
 VPOTOBZ ESg  2    7 8 23.79                              91   -0.57 5  336 334 
 OS08 SP EPg  0    7 7 50.31                              91   -0.2010  354 331 
 VAVUNBZ EPg  1    7 7 52.72                              91    0.23 7  366 334 
 VAVUNBZ  IAML     7 7 54.42        7.23 0.16                           366 334 
 OS03 SP EPg  0    7 7 54.39                              91    0.2310  388 323 
 VLEBEBZ EPg  0    7 7 56.09                              91   -0.2210  397 333 
 VLEBEBZ  IAML     7 8  1.03       12.79 0.20                           397 333 
 VBUTMBZ EPg  1    7 7 56.75                              91   -0.05 7  401 334 
 VBUTMBZ  IAML     7 8  3.39       12.04 0.16                           401 334 
                                                                                
 2008  6 1 0710  4.5 L -15.263 167.676125.0  VAN  8 0.3 2.0LVAN                1
 GAP=298        0.63      12.5    24.3 14.9  0.1749E+03 -0.3227E+03 -0.1059E+03E
 ACTION:UPD 12-03-27 14:01 OP:chb  STATUS:               ID:20080601071004 L   I
 2008-06-01-0710-02S.VNRC__100_MSEED                                           6
 STAT SP IPHASW D HRMM SECON CODA AMPLIT PERI AZIMU VELO AIN AR TRES W  DIS CAZ7
 VIRHOBZ EPg  1    710 22.29                             154   -0.01 7 54.7 248 
 VIRHOBZ  IAML     710 22.45       10.34 0.12                          54.7 248 
 VIRHOBZ ESg  2    710 35.59                             154   -0.60 5 54.7 248 
 VTURTBZ EPg  2    710 22.42                             153    0.17 5 55.2 262 
 VTURTBZ ESg  2    710 36.03                             153   -0.06 5 55.2 262 
 VTURTBZ  IAML     710 36.68       52.27 0.20                          55.2 262 
 VKOLHBZ  IAML     710 19.99       23.02 0.06                          56.3 275 
 VKOLHBZ ESg  2    710 36.60                             153    0.21 5 56.3 275 
 VAVUNBZ EPg  1    710 23.45                             146    0.13 7 72.0 234 
 VAVUNBZ ESg  2    710 37.85                             146   -0.17 5 72.0 234 
 VAVUNBZ  IAML     710 40.17       10.13 0.14                          72.0 234 
 VBUTMBZ EPg  0    710 23.35                             146   -0.0710 73.4 262 
 VBUTMBZ ESg  1    710 37.51                             146   -0.68 7 73.4 262 
 VBUTMBZ  IAML     710 39.84       47.14 0.14                          73.4 262 
 VSARABZ EPg  0    710 23.37                             146   -0.0110 73.5 273 
 VSARABZ ESg  1    710 38.75                             146    0.64 7 73.5 273 
 VSARABZ  IAML     710 39.33       86.43 0.22                          73.5 273 
 VLEBEBZ EPg  1    710 23.61                             144   -0.23 7 79.5 258 
 VLEBEBZ ESg  2    710 39.44                             144    0.51 5 79.5 258 
 VLEBEBZ  IAML     710 41.15       22.38 0.24                          79.5 258 
 VPOTOBZ EPg  2    710 24.38                             142    0.27 5 82.7 213 
 VPOTOBZ ESg  2    710 39.74                             142    0.33 5 82.7 213 
 VPOTOBZ  IAML     710 41.07       20.44 0.12                          82.7 213 
                                                                                
 2008  6 1 0731  2.0 L -14.465 167.043 19.9  VAN 22 0.7 2.7LVAN                1
 GAP=323        1.46      10.0     9.8398.7  0.2352E+02 -0.5875E+03 -0.2775E+04E
 ACTION:UPD 12-03-27 14:01 OP:chb  STATUS:               ID:20080601073101 L   I
 2008-06-01-0730-57S.VNRC__100_MSEED                                           6
 STAT SP IPHASW D HRMM SECON CODA AMPLIT PERI AZIMU VELO AIN AR TRES W  DIS CAZ7
 VKOLHBZ EPg  0    731 17.44                              91    0.7010 84.2 172 
 VKOLHBZ ESg  2    731 27.66                              91   -0.60 5 84.2 172 
 VKOLHBZ  IAML     731 29.00      542.08 0.06                          84.2 172 
 VSARABZ EPg  0    731 16.41                              91   -0.3810 84.7 184 
 VSARABZ ESg  2    731 28.34                              91   -0.01 5 84.7 184 
 VSARABZ  IAML     731 29.35      502.57 0.12                          84.7 184 
 VANGOBZ EPg  0    731 17.41                              91   -0.7810 93.5 190 
 VANGOBZ ESg  2    731 32.34                              91    1.49 5 93.5 190 
 VANGOBZ  IAML     731 32.75      400.17 0.22                          93.5 190 
 VTURTBZ EPg  0    731 18.91                              91    0.5410 96.4 172 
 VTURTBZ ESg  2    731 30.31                              91   -0.85 5 96.4 172 
 VTURTBZ  IAML     731 33.70      182.27 0.08                          96.4 172 
 VBUTMBZ EPg  0    731 18.21                              91   -0.5310 98.0 183 
 VBUTMBZ ESg  2    731 31.36                              91   -0.46 5 98.0 183 
 VBUTMBZ  IAML     731 32.39      453.25 0.14                          98.0 183 
 VLEBEBZ EPg  0    731 19.04                              91   -0.7910  106 185 
 VLEBEBZ ESg  2    731 33.66                              91   -0.11 5  106 185 
 VLEBEBZ  IAML     731 35.41      339.79 0.10                           106 185 
 VWUSIBZ EPg  1    731 19.34                              91   -0.98 7  108 202 
 VWUSIBZ ESg  1    731 35.73                              91    1.09 7  108 202 
 VWUSIBZ  IAML     731 36.44      119.21 0.24                           108 202 
 VIRHOBZ EPg  0    731 20.67                              91    0.2810  110 171 
 VIRHOBZ  IAML     731 36.68      165.70 0.16                           110 171 
 VTAMBBZ EPg  1    731 20.85                              91    0.30 7  111 178 
 VTAMBBZ ESg  2    731 35.16                              91    0.12 5  111 178 
 VTAMBBZ  IAML     731 38.28      294.10 0.20                           111 178 
 VSULEBZ EPg  0    731 23.30                              91    1.0710  121 196 
 VSULEBZ  IAML     731 24.63      143.88 0.28                           121 196 
 VSULEBZ ESg  3    731 40.34                              91    2.31 2  121 196 
 VAVUNBZ EPg  0    731 23.23                              91   -0.1710  131 176 
 VAVUNBZ ESg  1    731 39.58                              91   -0.53 7  131 176 
 VAVUNBZ  IAML     731 41.22      252.71 0.20                           131 176 
 OS01 SP EPg  0    731 22.54                              91   -0.3210  131 205 
 VASAVBZ EPg  1    731 25.68                              91    0.68 7  142 171 
 VASAVBZ ESg  2    731 42.18                              91   -0.78 5  142 171 
 VASAVBZ  IAML     731 44.44      182.57 0.18                           142 171 
 OS02 SP EPg  0    731 24.55                              91   -0.2510  145 200 
 OS08 SP EPg  0    731 25.61                              91    0.0910  149 180 
 OS04 SP EPg  0    731 26.57                              91   -0.2710  158 194 
 VPOTOBZ EPg  0    731 28.36                              91    0.8010  159 172 
 VPOTOBZ ESg  2    731 46.97                              91   -0.55 5  159 172 
 VPOTOBZ  IAML     731 48.36       39.43 0.10                           159 172 
 OS03 SP EPg  0    731 26.15                              91   -1.0910  164 203 
 VESPIBZ EPg  0    731 29.02                              91    0.3710  168 175 
 VESPIBZ  IAML     731 32.86       12.40 0.20                           168 175 
 VESPIBZ ESg  2    731 48.54                              91   -0.92 5  168 175 
 VNARWBZ EPg  1    731 29.95                              91    0.76 7  171 169 
 VNARWBZ  IAML     731 32.59       22.92 0.14                           171 169 
 VNARWBZ ESg  2    731 49.96                              91   -0.45 5  171 169 
 VLAKABZ ESg  2    731 54.32                              90   -0.11 5  186 167 
 VLAKABZ  IAML     732  0.69      100.98 0.22                           186 167 
 OS10 SP EPg  0    731 31.89                              90    0.6510  190 180 
                                                                                
 2008  6 1 0736 20.7 L -14.561 167.413135.8  VAN  8 0.3 2.5LVAN                1
 GAP=332        0.52      11.0    16.9 10.7  0.7734E+02 -0.1154E+03 -0.9150E+02E
 ACTION:UPD 12-03-27 14:01 OP:chb  STATUS:               ID:20080601073620 L   I
 2008-06-01-0736-18S.VNRC__100_MSEED                                           6
 STAT SP IPHASW D HRMM SECON CODA AMPLIT PERI AZIMU VELO AIN AR TRES W  DIS CAZ7
 VKOLHBZ ESg  0    736 56.72                             147    0.1310 77.9 201 
 VKOLHBZ  IAML     736 57.44      149.13 0.18                          77.9 201 
 VSARABZ EPg  0    736 41.47                             144    0.0810 86.6 211 
 VSARABZ ESg  0    736 57.63                             144    0.0810 86.6 211 
 VSARABZ  IAML     736 59.46      104.51 0.14                          86.6 211 
 VBUTMBZ EPg  2    736 42.35                             141    0.13 5 98.0 207 
 VBUTMBZ ESg  1    736 58.92                             141   -0.10 7 98.0 207 
 VBUTMBZ  IAML     737  0.41       52.73 0.12                          98.0 207 
 VANGOBZ EPg  1    736 42.70                             140    0.31 7 99.2 215 
 VANGOBZ ESg  2    736 59.40                             140    0.07 5 99.2 215 
 VANGOBZ  IAML     737  1.88       66.21 0.26                          99.2 215 
 VIRHOBZ EPg  1    736 41.93                             140   -0.40 7  101 193 
 VIRHOBZ ESg  1    736 58.99                             140   -0.23 7  101 193 
 VIRHOBZ  IAML     736 59.92       40.67 0.14                           101 193 
 VLEBEBZ EPg  1    736 42.78                             138   -0.10 7  107 208 
 VLEBEBZ ESg  1    736 59.81                             138   -0.38 7  107 208 
 VLEBEBZ  IAML     737  1.63       86.55 0.18                           107 208 
 VASAVBZ ESg  2    737  3.52                             131   -0.03 5  131 188 
 VASAVBZ  IAML     737  3.94       21.73 0.18                           131 188 
 VPOTOBZ ESg  2    737  7.01                             128    0.71 5  148 187 
 VPOTOBZ  IAML     737  7.74       21.19 0.16                           148 187 
                                                                                
