 2008  6 1 1046 28.6 L -15.316 167.654111.6  VAN  8 0.3 1.9LVAN                1
 GAP=283        0.55       7.7    21.9 12.8  0.1352E+03 -0.2368E+03 -0.6783E+02E
 ACTION:UPD 12-03-27 14:01 OP:chb  STATUS:               ID:20080601104628 L   I
 2008-06-01-1046-01S.VNRC__100_MSEED                                           6
 STAT SP IPHASW D HRMM SECON CODA AMPLIT PERI AZIMU VELO AIN AR TRES W  DIS CAZ7
 VIRHOBZ EPg  2   1046 44.52                             152   -0.38 5 50.5 253 
 VIRHOBZ ESg  2   1046 56.96                             152   -0.63 5 50.5 253 
 VIRHOBZ  IAML    1046 59.81       10.37 0.10                          50.5 253 
 VTURTBZ EPg  2   1046 44.92                             151    0.00 5 52.4 268 
 VTURTBZ ESg  0   1046 57.66                             151    0.0410 52.4 268 
 VTURTBZ  IAML    1046 57.94       57.20 0.08                          52.4 268 
 VKOLHBZ ESg  1   1046 58.41                             150    0.36 7 54.8 281 
 VKOLHBZ  IAML    1046 58.81       57.51 0.10                          54.8 281 
 VASAVBZ ESg  1   1046 58.55                             146   -0.52 7 64.2 224 
 VASAVBZ  IAML    1046 59.41       17.88 0.12                          64.2 224 
 VAVUNBZ EPg  2   1046 46.01                             145    0.11 5 66.8 237 
 VAVUNBZ ESg  2   1046 59.32                             145   -0.06 5 66.8 237 
 VAVUNBZ  IAML    1047  0.50       11.71 0.20                          66.8 237 
 VSARABZ EPg  1   1046 46.28                             143    0.10 7 71.7 278 
 VSARABZ ESg  0   1046 59.84                             143   -0.0410 71.7 278 
 VSARABZ  IAML    1047  1.03       63.80 0.16                          71.7 278 
 VPOTOBZ EPg  2   1046 46.51                             141   -0.14 5 76.6 214 
 VPOTOBZ ESg  1   1047  1.12                             141    0.41 7 76.6 214 
 VPOTOBZ  IAML    1047  2.46       32.21 0.16                          76.6 214 
 VNARWBZ ESg  1   1047  1.36                             139    0.16 7 80.7 204 
 VNARWBZ  IAML    1047  2.07       23.46 0.14                          80.7 204 
                                                                                
 2008  6 1 1046 28.6 L -15.321 167.618113.7  VAN  9 0.3 2.0LVAN                1
 GAP=279        0.53       6.8    16.5  9.7  0.8567E+02 -0.1256E+03 -0.4025E+02E
 ACTION:UPD 12-03-27 14:01 OP:chb  STATUS:               ID:20080601104629dL   I
 2008-06-01-1046-37S.VNRC__100_MSEED                                           6
 STAT SP IPHASW D HRMM SECON CODA AMPLIT PERI AZIMU VELO AIN AR TRES W  DIS CAZ7
 VIRHOBZ EPg  2   1046 44.52                             155   -0.36 5 46.7 253 
 VIRHOBZ ESg  2   1046 56.96                             155   -0.64 5 46.7 253 
 VIRHOBZ  IAML    1046 59.81       10.37 0.10                          46.7 253 
 VTURTBZ EPg  2   1046 44.92                             154    0.03 5 48.5 269 
 VTURTBZ ESg  0   1046 57.66                             154    0.0410 48.5 269 
 VTURTBZ  IAML    1046 57.94       57.20 0.08                          48.5 269 
 VKOLHBZ ESg  1   1046 58.41                             153    0.36 7 51.1 283 
 VKOLHBZ  IAML    1046 58.81       57.51 0.10                          51.1 283 
 VASAVBZ ESg  1   1046 58.55                             149   -0.51 7 61.2 222 
 VASAVBZ  IAML    1046 59.41       17.88 0.12                          61.2 222 
 VAVUNBZ EPg  2   1046 46.01                             148    0.16 5 63.3 236 
 VAVUNBZ ESg  2   1046 59.32                             148    0.01 5 63.3 236 
 VAVUNBZ  IAML    1047  0.50       11.71 0.20                          63.3 236 
 VBUTMBZ EPg  2   1046 45.94                             146   -0.12 5 66.6 267 
 VBUTMBZ ESg  0   1046 59.60                             146   -0.1010 66.6 267 
 VBUTMBZ  IAML    1047  2.03       47.72 0.20                          66.6 267 
 VSARABZ EPg  1   1046 46.28                             146    0.18 7 68.0 278 
 VSARABZ ESg  0   1046 59.75                             146   -0.0110 68.0 278 
 VSARABZ  IAML    1047  1.03       63.80 0.16                          68.0 278 
 VPOTOBZ EPg  2   1046 46.51                             143   -0.12 5 74.0 212 
 VPOTOBZ ESg  1   1047  1.12                             143    0.42 7 74.0 212 
 VPOTOBZ  IAML    1047  2.46       32.21 0.16                          74.0 212 
 VNARWBZ ESg  1   1047  1.36                             141    0.12 7 78.7 202 
 VNARWBZ  IAML    1047  2.07       23.46 0.14                          78.7 202 
                                                                                
 2008  6 1 1058 44.8 L -14.785 167.454113.1  VAN  8 0.2 1.9LVAN                1
 GAP=333        0.42      11.8    11.8  9.4  0.9742E+01 -0.4837E+02 -0.8708E+02E
 ACTION:UPD 12-03-27 14:01 OP:chb  STATUS:               ID:20080601105844 L   I
 2008-06-01-1058-42S.VNRC__100_MSEED                                           6
 STAT SP IPHASW D HRMM SECON CODA AMPLIT PERI AZIMU VELO AIN AR TRES W  DIS CAZ7
 VKOLHBZ EPg  2   1059  1.43                             150   -0.19 5 57.8 214 
 VKOLHBZ ESg  1   1059 14.85                             150    0.09 7 57.8 214 
 VKOLHBZ  IAML    1059 15.71       44.09 0.16                          57.8 214 
 VTURTBZ ESg  2   1059 15.95                             146    0.34 5 67.6 207 
 VTURTBZ  IAML    1059 16.72       16.50 0.06                          67.6 207 
 VSARABZ EPg  0   1059  2.29                             145   -0.0510 69.8 225 
 VSARABZ ESg  1   1059 15.99                             145   -0.06 7 69.8 225 
 VSARABZ  IAML    1059 17.26       57.56 0.12                          69.8 225 
 VIRHOBZ EPg  2   1059  2.28                             141   -0.60 5 78.0 200 
 VIRHOBZ ESg  1   1059 17.04                             141    0.03 7 78.0 200 
 VIRHOBZ  IAML    1059 17.97       14.25 0.14                          78.0 200 
 VBUTMBZ EPg  0   1059  3.15                             141    0.1010 79.4 218 
 VBUTMBZ ESg  1   1059 17.04                             141   -0.27 7 79.4 218 
 VBUTMBZ  IAML    1059 20.06       15.77 0.20                          79.4 218 
 VANGOBZ EPg  1   1059  3.68                             139    0.26 7 83.4 227 
 VANGOBZ ESg  2   1059 18.06                             139    0.09 5 83.4 227 
 VANGOBZ  IAML    1059 19.76       19.08 0.20                          83.4 227 
 VTAMBBZ ESg  2   1059 18.24                             138    0.15 5 86.0 209 
 VTAMBBZ  IAML    1059 22.16       41.18 0.22                          86.0 209 
 VLEBEBZ EPg  2   1059  3.99                             138    0.27 5 88.1 218 
 VLEBEBZ ESg  1   1059 18.34                             138   -0.15 7 88.1 218 
 VLEBEBZ  IAML    1059 19.80       17.80 0.12                          88.1 218 
                                                                                
 2008  6 1 1105  2.3 L -15.196 167.532107.2  VAN  8 0.2 1.6LVAN                1
 GAP=315        0.43      10.0    11.0  7.2  0.1989E+02 -0.5912E+02 -0.2410E+02E
 ACTION:UPD 12-03-27 14:01 OP:chb  STATUS:               ID:20080601110502 L   I
 2008-06-01-1104-57S.VNRC__100_MSEED                                           6
 STAT SP IPHASW D HRMM SECON CODA AMPLIT PERI AZIMU VELO AIN AR TRES W  DIS CAZ7
 VKOLHBZ ESg  2   11 5 30.10                             156    0.39 5 40.7 266 
 VKOLHBZ  IAML    11 5 31.54       24.69 0.10                          40.7 266 
 VTURTBZ EPg  2   11 5 17.68                             156    0.04 5 41.9 250 
 VTURTBZ ESg  1   11 5 29.62                             156    0.01 7 41.9 250 
 VTURTBZ  IAML    11 5 30.06       18.48 0.08                          41.9 250 
 VIRHOBZ EPg  2   11 5 17.94                             154    0.08 5 44.9 232 
 VIRHOBZ ESg  2   11 5 29.73                             154   -0.27 5 44.9 232 
 VIRHOBZ  IAML    11 5 30.67        3.92 0.08                          44.9 232 
 VTAMBBZ ESg  1   11 5 30.97                             148   -0.34 7 57.9 239 
 VTAMBBZ  IAML    11 5 33.07       24.80 0.22                          57.9 239 
 VBUTMBZ EPg  0   11 5 18.63                             147   -0.1310 59.8 253 
 VBUTMBZ ESg  0   11 5 31.53                             147   -0.0610 59.8 253 
 VBUTMBZ  IAML    11 5 34.82       16.60 0.24                          59.8 253 
 VAVUNBZ EPg  1   11 5 19.40                             144    0.29 7 65.6 221 
 VAVUNBZ ESg  2   11 5 32.50                             144    0.28 5 65.6 221 
 VAVUNBZ  IAML    11 5 33.96        7.56 0.20                          65.6 221 
 VLEBEBZ EPg  2   11 5 18.93                             144   -0.30 5 66.8 249 
 VLEBEBZ ESg  1   11 5 32.55                             144    0.11 7 66.8 249 
 VLEBEBZ  IAML    11 5 34.63       13.62 0.18                          66.8 249 
 VANGOBZ EPg  2   11 5 19.57                             142    0.04 5 70.4 261 
 VANGOBZ ESg  2   11 5 33.34                             142    0.36 5 70.4 261 
 VANGOBZ  IAML    11 5 35.31       11.73 0.22                          70.4 261 
                                                                                
 2008  6 1 1107 32.1 L -15.247 167.035  0.1  VAN  4 1.8 0.7LVAN                1
 GAP=231        1.87      19.6    18.9866.5 -0.2811E+03 -0.8038E+04  0.8448E+04E
 ACTION:UPD 12-03-27 14:01 OP:chb  STATUS:               ID:20080601110734 L   I
 2008-06-01-1106-42S.VNRC__100_MSEED                                           6
 STAT SP IPHASW D HRMM SECON CODA AMPLIT PERI AZIMU VELO AIN AR TRES W  DIS CAZ7
 VKOLHBZ ESg  2   11 7 36.56                              91   -1.31 5 13.2  76 
 VKOLHBZ  IAML    11 7 42.83       34.95 0.18                          13.2  76 
 VTURTBZ ESg  2   11 7 38.99                              90   -0.29 5 16.7 122 
 VTURTBZ  IAML    11 7 40.79       32.35 0.20                          16.7 122 
 VLEBEBZ ESg  3   11 7 38.07                              91   -3.04 2 20.5 206 
 VLEBEBZ  IAML    11 7 40.99       19.93 0.20                          20.5 206 
 VIRHOBZ EPg  2   11 7 41.51                              90    2.35 5 28.5 141 
 VIRHOBZ  IAML    11 7 44.19       10.73 0.14                          28.5 141 
                                                                                
 2008  6 1 1119 26.6 L -15.482 166.872 35.0  VAN  3 0.0 0.6LVAN                1
 GAP=213        0.30       6.3     3.5  0.0 -0.9358E+01 -0.8038E+04  0.8448E+04E
 ACTION:UPD 12-03-27 14:01 OP:chb  STATUS:               ID:20080601111927 L   I
 2008-06-01-1119-08S.VNRC__100_MSEED                                           6
 STAT SP IPHASW D HRMM SECON CODA AMPLIT PERI AZIMU VELO AIN AR TRES W  DIS CAZ7
 VIRHOBZ EPg  2   1119 35.19                             122   -0.00 5 35.7  84 
 VIRHOBZ  IAML    1119 35.71        2.94 0.14                          35.7  84 
 OS03 SP EPg  1   1119 37.32                             104    0.00 7 60.4 231 
 VESPIBZ  IAML    1119 28.57        5.04 0.14                          64.3 148 
 VESPIBZ ESg  3   1119 48.20                             103   -0.00 2 64.3 148 
                                                                                
 2008  6 1 1126 42.9 L -15.996 167.391  7.0  VAN  5 0.2 0.7LVAN                1
 GAP=183        0.40       3.4     3.1  8.2  0.7935E+01 -0.1811E+02 -0.2471E+02E
 ACTION:UPD 12-03-27 14:01 OP:chb  STATUS:               ID:20080601112649 L   I
 2008-06-01-1126-33S.VNRC__100_MSEED                                           6
 STAT SP IPHASW D HRMM SECON CODA AMPLIT PERI AZIMU VELO AIN AR TRES W  DIS CAZ7
 VLAKABZ ESg  2   1126 49.62                             119    0.08 5 12.5 165 
 VLAKABZ  IAML    1126 50.03       14.33 0.12                          12.5 165 
 VPOTOBZ ESg  2   1126 52.39                             110    0.37 5 18.9 309 
 VPOTOBZ  IAML    1126 54.28       26.49 0.16                          18.9 309 
 VESPIBZ ESg  2   1126 52.67                             108   -0.22 5 21.5 277 
 VESPIBZ  IAML    1126 54.28        5.61 0.20                          21.5 277 
 VIRHOBZ EPg  1   1126 58.83                              96   -0.09 7 64.0 342 
 VIRHOBZ  IAML    1126 59.21        3.14 0.10                          64.0 342 
 VSARABZ EPg  0   1127  6.60                              94   -0.0110 95.0 333 
 VSARABZ  IAML    1127  7.91       19.60 0.12                          95.0 333 
                                                                                
 2008  6 1 1140  2.6 L -14.675 167.261 72.4  VAN 11 0.2 2.1LVAN                1
 GAP=330        0.50       5.8    10.0 12.1  0.2789E+02 -0.8927E+02 -0.5048E+02E
 ACTION:UPD 12-03-27 14:01 OP:chb  STATUS:               ID:20080601114002 L   I
 2008-06-01-1140-01S.VNRC__100_MSEED                                           6
 STAT SP IPHASW D HRMM SECON CODA AMPLIT PERI AZIMU VELO AIN AR TRES W  DIS CAZ7
 VSARABZ EPg  0   1140 16.96                             128    0.3210 67.7 205 
 VSARABZ ESg  1   1140 27.89                             128    0.27 7 67.7 205 
 VSARABZ  IAML    1140 29.30       99.34 0.08                          67.7 205 
 VTURTBZ EPg  2   1140 17.24                             125    0.23 5 72.9 188 
 VTURTBZ ESg  2   1140 28.07                             125   -0.21 5 72.9 188 
 VTURTBZ  IAML    1140 29.67       60.01 0.08                          72.9 188 
 VANGOBZ EPg  0   1140 17.49                             122   -0.3910 79.7 210 
 VANGOBZ ESg  1   1140 30.09                             122    0.26 7 79.7 210 
 VANGOBZ  IAML    1140 32.91       81.81 0.18                          79.7 210 
 VBUTMBZ EPg  1   1140 17.82                             122    0.02 7 79.8 201 
 VBUTMBZ ESg  1   1140 29.58                             122   -0.11 7 79.8 201 
 VBUTMBZ  IAML    1140 31.59       81.76 0.16                          79.8 201 
 VIRHOBZ EPg  0   1140 18.23                             120   -0.0610 85.6 184 
 VIRHOBZ ESg  1   1140 30.43                             120   -0.13 7 85.6 184 
 VIRHOBZ  IAML    1140 31.31       46.78 0.10                          85.6 184 
 VLEBEBZ EPg  1   1140 18.75                             119    0.10 7 88.2 202 
 VLEBEBZ ESg  0   1140 31.09                             119   -0.1010 88.2 202 
 VLEBEBZ  IAML    1140 32.59       94.29 0.14                          88.2 202 
 VTAMBBZ EPg  2   1140 18.62                             119   -0.13 5 90.0 193 
 VTAMBBZ ESg  1   1140 31.06                             119   -0.32 7 90.0 193 
 VTAMBBZ  IAML    1140 32.20       71.85 0.22                          90.0 193 
 VAVUNBZ EPg  0   1140 20.63                             113    0.0310  108 187 
 VAVUNBZ ESg  2   1140 34.70                             113    0.03 5  108 187 
 VAVUNBZ  IAML    1140 36.87       18.65 0.14                           108 187 
 VASAVBZ ESg  2   1140 36.18                             111   -0.18 5  117 181 
 VASAVBZ  IAML    1140 37.45       34.12 0.12                           117 181 
 VPOTOBZ ESg  2   1140 40.41                             107    0.63 5  134 180 
 VPOTOBZ  IAML    1140 42.53       28.57 0.18                           134 180 
 VESPIBZ ESg  2   1140 41.65                             106    0.26 5  144 183 
 VESPIBZ  IAML    1140 43.99       10.03 0.22                           144 183 
                                                                                
 2008  6 1 1149 15.4 L -16.289 166.979 41.9  VAN 18 1.7 2.4LVAN                1
 GAP=242        3.06      15.8    10.9 25.1 -0.4255E+02  0.4945E+02 -0.1858E+03E
 ACTION:UPD 12-03-27 14:01 OP:chb  STATUS:               ID:20080601114917 L   I
 2008-06-01-1149-03S.VNRC__100_MSEED                                           6
 STAT SP IPHASW D HRMM SECON CODA AMPLIT PERI AZIMU VELO AIN AR TRES W  DIS CAZ7
 OS10 SP EPg  0   1149 20.68                             157   -1.3110 13.1  27 
 OS09 SP EPg  0   1149 22.02                             141   -0.2510 20.0 309 
 VLEVIBZ EPg  0   1149 23.49                             126   -1.1010 32.8  63 
 VLEVIBZ  IAML    1149 23.89      272.32 0.10                          32.8  63 
 OS07 SP EPg  0   1149 24.04                             126   -0.2210 33.9   1 
 OS06 SP EPg  0   1149 24.57                             121    0.1110 37.3 329 
 VESPIBZ EPg  0   1149 25.43                             118    0.3210 41.7  33 
 VESPIBZ ESg  2   1149 33.59                             118    0.91 5 41.7  33 
 VESPIBZ  IAML    1149 35.70      271.24 0.24                          41.7  33 
 VLAKABZ EPg  0   1149 25.37                             109   -1.0010 51.6  67 
 VLAKABZ ESg  2   1149 33.55                             109   -1.38 5 51.6  67 
 VLAKABZ  IAML    1149 33.83      452.13 0.18                          51.6  67 
 VNARWBZ EPg  0   1149 26.16                             110   -0.1710 51.8  49 
 VNARWBZ ESg  1   1149 35.35                             110    0.49 7 51.8  49 
 VNARWBZ  IAML    1149 37.14      462.14 0.12                          51.8  49 
 VPOTOBZ EPg  0   1149 26.93                             109    0.4210 53.2  34 
 VPOTOBZ ESg  1   1149 36.18                             109    1.00 7 53.2  34 
 VPOTOBZ  IAML    1149 36.94      659.91 0.14                          53.2  34 
 OS08 SP EPg  0   1149 26.38                             109    0.3610 53.7   8 
 OS04 SP EPg  2   1149 27.25                             105    0.77 5 58.4 326 
 VASAVBZ EPg  0   1149 28.78                             102    0.6810 67.5  24 
 VASAVBZ ESg  1   1149 38.85                             102    0.85 7 67.5  24 
 VASAVBZ  IAML    1149 38.95      234.12 0.24                          67.5  24 
 VAVUNBZ EPg  0   1149 29.30                             100    0.4910 73.4  13 
 VAVUNBZ  IAML    1149 42.83       64.31 0.16                          73.4  13 
 OS03 SP EPg  0   1149 29.21                              97    0.8310 77.9 311 
 VBOKIBZ EPg  2   1149 31.37                              97    1.46 5 82.1  20 
 VBOKIBZ ESg  1   1149 41.92                              97    0.68 7 82.1  20 
 VBOKIBZ  IAML    1149 42.34      106.72 0.16                          82.1  20 
 VIRHOBZ EPg  0   1149 32.47                              95    0.9510 96.2  15 
 VIRHOBZ ESg  2   1149 45.52                              95    1.42 5 96.2  15 
 VIRHOBZ  IAML    1149 47.74       47.10 0.12                          96.2  15 
 VBUTMBZ EPg  1   1149 33.40                              94    0.89 7  104   1 
 VBUTMBZ ESg  2   1149 38.72                              94   -7.15 5  104   1 
 VBUTMBZ  IAML    1149 53.34       49.49 0.20                           104   1 
 VTURTBZ EPg  2   1149 34.03                              94    1.13 5  108  11 
 VTURTBZ ESg  2   1149 40.13                              94   -6.43 5  108  11 
 VTURTBZ  IAML    1149 51.94       69.15 0.22                           108  11 
                                                                                
