 2008  5 1  136 29.0 R -14.544 167.821 47.2  VAN  3 .20 2.4LVAN                1
 GAP=332       0.440       9.9    42.3999.9  0.2098E+03 -0.3950E+06 -0.5723E+05E
 2008-05-01-0136-26S.VNRC__051_MSEED                                           6
 ACTION:UPD 12-03-27 13:59 OP:chb  STATUS:               ID:20080501013628 L   I
 STAT SP IPHASW D HRMM SECON CODA AMPLIT PERI AZIMU VELO AIN AR TRES W  DIS CAZ7
 VSARABZ EPg  0    136 47.20                             9.0   -.14010117.0 230 
 VSARABZ ESg  1    137  1.68                             9.0   -.000 7117.0 230 
 VSARABZ  IAML     137  3.51       136.4 0.22                         117.0 230 
 VANGOBZ EPg  1    136 49.27                             9.0   0.250 7131.0 230 
 VANGOBZ  IAML     137  6.71        94.4 0.20                         131.0 230 
 VPOTOBZ ESg  2    137 10.68                             9.0   0.010 5161.0 202 
 VPOTOBZ  IAML     137 13.41        24.6 0.14                         161.0 202 
 VANGOBZ EP    A   136 51.60   27                                               
 VASAVBZ EP    A   136 50.32   45                                               
 VBUTMBZ EP    A   136 48.18   29                                               
 VKOLHBZ EP    A   136 46.47   53                                               
 VPOTOBZ EP    A   137 11.98    6                                               
 VSALEBZ EP    A   136 51.73    3                                               
 VSARABZ EP    A   136 47.48   58                                               
 VTURTBZ EP    A   136 47.53   32                                               
                                                                                
 2008  5 1  143 29.8 R -15.497 166.770 20.7  VAN  3 .60 1.0LVAN                1
 GAP=281       0.810      15.3    17.2202.5  0.2088E+03  0.2515E+04  0.2662E+04E
 2008-05-01-0143-16S.VNRC__051_MSEED                                           6
 ACTION:UPD 12-03-27 13:59 OP:chb  STATUS:               ID:20080501014330 L   I
 STAT SP IPHASW D HRMM SECON CODA AMPLIT PERI AZIMU VELO AIN AR TRES W  DIS CAZ7
 VSARABZ EPg  0    143 38.08                             9.8   0.1401038.10  39 
 VSARABZ ESg  2    143 43.43                             9.8   -.900 538.10  39 
 VSARABZ  IAML     143 43.55        15.8 0.08                         38.10  39 
 VTURTBZ ESg  2    143 47.02                             9.5   0.730 546.50  66 
 VTURTBZ  IAML     143 47.29        26.1 0.08                         46.50  66 
 VASAVBZ ESg  2    143 48.72                             9.4   -.380 556.70 117 
 VASAVBZ  IAML     143 48.97         6.6 0.14                         56.70 117 
 VBUTMBZ EP    A   143 19.90   10                                               
 VKOLHBZ EP    A   143 38.32   22                                               
                                                                                
 2008  5 1  152 18.6 R                       VAN  2                            1
 2008-05-01-0152-05S.VNRC__051_MSEED                                           6
 ACTION:UPD 12-03-27 13:59 OP:chb  STATUS:               ID:20080501015218 L   I
 STAT SP IPHASW D HRMM SECON CODA AMPLIT PERI AZIMU VELO AIN AR TRES W  DIS CAZ7
 VAVUNBZ EPg  1    152 36.41                                                    
 VAVUNBZ  IAML     152 36.84         5.5 0.06                                   
 VKOLHBZ ESg  3    152 36.06                                                    
 VKOLHBZ  IAML     152 38.87         6.8 0.10                                   
 VIRHOBZ EP    A   152 35.07    9                                               
 VKOLHBZ EP    A   152 36.46   30                                               
 VNARWBZ EP    A   152 34.95    4                                               
 VSARABZ EP    A   152 38.88   33                                               
                                                                                
 2008  5 1  2 0 17.0 R -15.172 166.947 26.6  VAN 10 .10 1.9LVAN                1
 GAP=257       0.370       2.0     1.7  2.7 -0.1817E+00 -0.6876E+00 -0.6191E+00E
 2008-05-01-0159-59S.VNRC__051_MSEED                                           6
 ACTION:UPD 12-03-27 13:59 OP:chb  STATUS:               ID:20080501020014 L   I
 STAT SP IPHASW D HRMM SECON CODA AMPLIT PERI AZIMU VELO AIN AR TRES W  DIS CAZ7
 VSARABZ EPg  0    2 0 22.21                            15.9   -.070108.020 143 
 VSARABZ ESg  2    2 0 26.56                            15.9   0.200 58.020 143 
 VSARABZ  IAML     2 0 26.61       232.8 0.10                         8.020 143 
 VANGOBZ EPg  0    2 0 22.78                            14.1   -.1501015.40 206 
 VANGOBZ ESg  2    2 0 27.51                            14.1   -.020 515.40 206 
 VANGOBZ  IAML     2 0 29.89       141.2 0.30                         15.40 206 
 VBUTMBZ EPg  0    2 0 23.48                            13.2   0.1401020.50 164 
 VBUTMBZ ESg  0    2 0 28.36                            13.2   0.1101020.50 164 
 VBUTMBZ  IAML     2 0 29.55       222.8 0.18                         20.50 164 
 VKOLHBZ EPg  0    2 0 23.49                            12.8   -.0601022.80 103 
 VKOLHBZ ESg  1    2 0 28.42                            12.8   -.210 722.80 103 
 VKOLHBZ  IAML     2 0 28.59       613.5 0.18                         22.80 103 
 VLEBEBZ EPg  1    2 0 24.07                            12.2   -.020 726.90 179 
 VLEBEBZ ESg  1    2 0 29.54                            12.2   -.040 726.90 179 
 VLEBEBZ  IAML     2 0 30.48       128.3 0.20                         26.90 179 
 VTURTBZ EPg  0    2 0 24.33                            11.9   0.1301029.20 126 
 VTURTBZ ESg  0    2 0 29.81                            11.9   0.0301029.20 126 
 VTURTBZ  IAML     2 0 30.19       470.2 0.08                         29.20 126 
 VIRHOBZ EPg  0    2 0 25.95                            10.9   0.1501041.00 138 
 VIRHOBZ ESg  1    2 0 32.55                            10.9   -.080 741.00 138 
 VIRHOBZ  IAML     2 0 33.03        67.3 0.20                         41.00 138 
 VAVUNBZ ESg  2    2 0 35.81                            10.2   -.480 555.70 159 
 VAVUNBZ  IAML     2 0 36.08        35.8 0.16                         55.70 159 
 VASAVBZ ESg  2    2 0 39.39                             9.8   -.310 069.60 153 
 VASAVBZ  IAML     2 0 42.09        13.6 0.12                         69.60 153 
 VNARWBZ ESg  2    2 0 19.44                             9.5   -27.7 099.00 155 
 VNARWBZ  IAML     2 0 19.87        15.9 0.08                         99.00 155 
 VANGOBZ EP    A   2 0 22.95   28                                               
 VASAVBZ EP    A   2 0 30.23   27                                               
 VAVUNBZ EP    A   2 0 27.70   32                                               
 VBUTMBZ EP    A   2 0 23.50   22                                               
 VLAKABZ EP    A   2 0 53.01    5                                               
 VSARABZ EP    A   2 0 22.39   39                                               
                                                                                
 2008  5 1  2 0 45.1 R -15.087 167.619128.4  VAN  8 .30 2.3LVAN                1
 GAP=300       0.500       8.3    17.9 10.8  0.1091E+03 -0.1659E+03 -0.5550E+02E
 2008-05-01-0200-27S.VNRC__051_MSEED                                           6
 ACTION:UPD 12-03-27 13:59 OP:chb  STATUS:               ID:20080501020045 L   I
 STAT SP IPHASW D HRMM SECON CODA AMPLIT PERI AZIMU VELO AIN AR TRES W  DIS CAZ7
 VKOLHBZ ESg  1    2 1 17.59                            15.5   0.310 752.10 254 
 VKOLHBZ  IAML     2 1 19.05        71.3 0.10                         52.10 254 
 VTURTBZ EPg  2    2 1  3.43                            15.4   0.180 555.50 241 
 VTURTBZ ESg  1    2 1 16.91                            15.4   -.460 755.50 241 
 VTURTBZ  IAML     2 1 18.21        67.6 0.08                         55.50 241 
 VSARABZ EPg  1    2 1  4.10                            14.8   0.020 769.10 257 
 VSARABZ ESg  1    2 1 19.07                            14.8   0.210 769.10 257 
 VSARABZ  IAML     2 1 20.11        93.2 0.14                         69.10 257 
 VBUTMBZ ESg  1    2 1 19.04                            14.7   -.290 772.80 246 
 VBUTMBZ  IAML     2 1 20.13        40.3 0.10                         72.80 246 
 VAVUNBZ EPg  2    2 1  4.18                            14.4   -.660 580.80 220 
 VAVUNBZ ESg  2    2 1 20.32                            14.4   0.110 580.80 220 
 VAVUNBZ  IAML     2 1 21.64        20.2 0.16                         80.80 220 
 VANGOBZ EPg  2    2 1  5.04                            14.4   0.010 582.20 254 
 VANGOBZ ESg  2    2 1 20.84                            14.4   0.290 582.20 254 
 VANGOBZ  IAML     2 1 22.63        41.4 0.26                         82.20 254 
 VPOTOBZ EPg  2    2 1  6.15                            13.9   0.090 597.00 204 
 VPOTOBZ ESg  2    2 1 22.29                            13.9   -.080 597.00 204 
 VPOTOBZ  IAML     2 1 24.75        31.6 0.18                         97.00 204 
 VNARWBZ EPg  1    2 1  6.61                            13.7   0.110 7103.0 197 
 VNARWBZ ESg  1    2 1 23.29                            13.7   0.130 7103.0 197 
 VNARWBZ  IAML     2 1 24.60        35.2 0.12                         103.0 197 
 VASAVBZ EP    A   2 0 30.23   24                                               
 VBUTMBZ EP    A   2 0 29.02    5                                               
 VIRHOBZ EP    A   2 0 32.94    3                                               
 VLAKABZ EP    A   2 0 52.82    6                                               
 VLEBEBZ EP    A   2 0 29.85    4                                               
 VNARWBZ EP    A   2 0 37.55    4                                               
 VTURTBZ EP    A   2 0 29.87    4                                               
                                                                                
 2008  5 1  2 8 10.9 R -15.279 167.002 27.4  VAN  4 .20 0.9LVAN                1
 GAP=188       0.420       4.5     4.2 10.2  0.7687E+01  0.1111E+02  0.3551E+02E
 2008-05-01-0207-54S.VNRC__051_MSEED                                           6
 ACTION:UPD 12-03-27 13:59 OP:chb  STATUS:               ID:20080501020811 L   I
 STAT SP IPHASW D HRMM SECON CODA AMPLIT PERI AZIMU VELO AIN AR TRES W  DIS CAZ7
 VSARABZ EPg  1    2 8 16.26                            16.6   0.090 75.560 349 
 VSARABZ ESg  2    2 8 20.24                            16.6   -.010 55.560 349 
 VSARABZ  IAML     2 8 20.52        11.1 0.10                         5.560 349 
 VKOLHBZ ESg  1    2 8 21.57                            13.8   -.140 717.60  68 
 VKOLHBZ  IAML     2 8 22.31        42.8 0.08                         17.60  68 
 VIRHOBZ ESg  1    2 8 23.97                            12.1   0.210 728.50 131 
 VIRHOBZ  IAML     2 8 24.17        31.3 0.14                         28.50 131 
 VAVUNBZ ESg  2    2 8 26.73                            10.9   -.340 542.60 161 
 VAVUNBZ  IAML     2 8 27.36         4.7 0.18                         42.60 161 
 VANGOBZ EP    A   2 9 18.62   35                                               
 VBUTMBZ EP    A   2 9 17.35   34                                               
 VTURTBZ EP    A   2 8 14.63   11                                               
                                                                                
 2008  5 1  2 8 58.6 L -15.350 167.770113.2  VAN 14 .40 2.7LVAN                1
 GAP=282       0.820       8.1    18.8 15.4  0.1126E+03 -0.2645E+03 -0.8795E+02E
 2008-05-01-0208-55S.VNRC__051_MSEED                                           6
 ACTION:UPD 12-03-27 13:59 OP:chb  STATUS:               ID:20080501020858 L   I
 STAT SP IPHASW D HRMM SECON CODA AMPLIT PERI AZIMU VELO AIN AR TRES W  DIS CAZ7
 VIRHOBZ EPg  0    2 9 15.37                            14.7   -.2401061.70 260 
 VIRHOBZ ESg  2    2 9 28.59                            14.7   -.320 561.70 260 
 VIRHOBZ  IAML     2 9 29.35        73.1 0.16                         61.70 260 
 VTURTBZ EPg  0    2 9 15.71                            14.5   -.0101064.80 272 
 VTURTBZ ESg  1    2 9 28.68                            14.5   -.420 764.80 272 
 VTURTBZ  IAML     2 9 30.04       391.0 0.16                         64.80 272 
 VKOLHBZ EPg  0    2 9 15.95                            14.4   -.0601067.70 282 
 VKOLHBZ ESg  1    2 9 30.10                            14.4   0.480 767.70 282 
 VKOLHBZ  IAML     2 9 32.12       248.6 0.16                         67.70 282 
 VASAVBZ EPg  1    2 9 16.27                            14.3   0.030 771.00 233 
 VASAVBZ ESg  1    2 9 29.29                            14.3   -.740 771.00 233 
 VASAVBZ  IAML     2 9 31.23        85.5 0.14                         71.00 233 
 VAVUNBZ EPg  0    2 9 16.55                            14.1   -.0301075.80 245 
 VAVUNBZ ESg  1    2 9 30.96                            14.1   0.330 775.80 245 
 VAVUNBZ  IAML     2 9 32.75        42.2 0.12                         75.80 245 
 VTAMBBZ EPg  2    2 9 16.47                            14.1   -.090 576.10 260 
 VTAMBBZ ESg  1    2 9 30.08                            14.1   -.530 776.10 260 
 VTAMBBZ  IAML     2 9 31.80       215.8 0.10                         76.10 260 
 VPOTOBZ EPg  0    2 9 17.14                            13.9   0.0901081.30 223 
 VPOTOBZ ESg  1    2 9 31.60                            13.9   0.120 781.30 223 
 VPOTOBZ  IAML     2 9 33.60       120.9 0.24                         81.30 223 
 VBUTMBZ EPg  2    2 9 17.29                            13.8   0.210 582.80 270 
 VBUTMBZ ESg  1    2 9 31.42                            13.8   -.120 782.80 270 
 VBUTMBZ  IAML     2 9 33.49       200.6 0.10                         82.80 270 
 VNARWBZ EPg  0    2 9 17.16                            13.8   -.0201083.40 213 
 VNARWBZ ESg  1    2 9 31.44                            13.8   -.280 783.40 213 
 VNARWBZ  IAML     2 9 32.81       152.9 0.14                         83.40 213 
 VSARABZ EPg  0    2 9 17.26                            13.7   0.1001084.50 279 
 VSARABZ ESg  0    2 9 32.09                            13.7   0.4101084.50 279 
 VSARABZ  IAML     2 9 33.34       328.9 0.16                         84.50 279 
 VLEBEBZ ESg  2    2 9 32.33                            13.6   0.050 588.00 265 
 VLEBEBZ  IAML     2 9 35.36       127.6 0.14                         88.00 265 
 VLAKABZ ESg  2    2 9 34.99                            13.5    2.06 591.50 204 
 VLAKABZ  IAML     2 9 35.21       108.3 0.18                         91.50 204 
 VESPIBZ EPg  1    2 9 17.58                            13.5   -.210 792.70 222 
 VESPIBZ ESg  3    2 9 31.99                            13.5   -.800 292.70 222 
 VESPIBZ  IAML     2 9 35.02        29.3 0.16                         92.70 222 
 VANGOBZ EPg  1    2 9 18.33                            13.4   0.210 795.20 273 
 VANGOBZ ESg  2    2 9 33.25                            13.4   -.130 595.20 273 
 VANGOBZ  IAML     2 9 36.33       143.9 0.16                         95.20 273 
 VANGOBZ EP    A   2 9 18.52   44                                               
 VAVUNBZ EP    A   2 9 16.73   55                                               
 VESPIBZ EP    A   2 9 17.76   31                                               
 VKOLHBZ EP    A   2 9 16.11   64                                               
 VNARWBZ EP    A   2 9 17.23   41                                               
 VPOTOBZ EP    A   2 9 17.22   43                                               
 VSARABZ EP    A   2 9 17.60   72                                               
 VTAMBBZ EP    A   2 9  4.83    3                                               
 VTURTBZ EP    A   2 9 15.79   48                                               
                                                                                
 2008  5 1  210 37.1 R -15.186 166.924 33.8  VAN  5 .30 1.2LVAN                1
 GAP=284       0.500       6.6     8.6  5.7  0.2487E+02 -0.2070E+02 -0.6517E+01E
 2008-05-01-0210-23S.VNRC__051_MSEED                                           6
 ACTION:UPD 12-03-27 13:59 OP:chb  STATUS:               ID:20080501021037 L   I
 STAT SP IPHASW D HRMM SECON CODA AMPLIT PERI AZIMU VELO AIN AR TRES W  DIS CAZ7
 VSARABZ EPg  0    210 43.50                            16.2   0.200108.830 123 
 VSARABZ ESg  2    210 47.63                            16.2   -.510 58.830 123 
 VSARABZ  IAML     210 47.74        70.2 0.12                         8.830 123 
 VANGOBZ ESg  2    210 48.72                            15.3   -.030 513.00 199 
 VANGOBZ  IAML     210 50.96        26.2 0.20                         13.00 199 
 VBUTMBZ ESg  1    210 49.56                            14.2   0.070 719.90 156 
 VBUTMBZ  IAML     210 51.19        62.3 0.18                         19.90 156 
 VIRHOBZ EPg  2    210 45.80                            11.5   -.500 541.70 134 
 VIRHOBZ ESg  2    210 53.71                            11.5   0.230 541.70 134 
 VIRHOBZ  IAML     210 53.92        12.5 0.24                         41.70 134 
 VAVUNBZ EPg  2    210 47.91                            10.5   -.150 555.20 156 
 VAVUNBZ  IAML     210 57.21         5.7 0.16                         55.20 156 
 VIRHOBZ EP    A   210 54.05    4                                               
 VKOLHBZ EP    A   210 43.76   19                                               
 VTURTBZ EP    A   210 44.53   14                                               
                                                                                
 2008  5 1  219 44.9 R                       VAN  2                            1
 2008-05-01-0219-06S.VNRC__051_MSEED                                           6
 ACTION:UPD 12-03-27 13:59 OP:chb  STATUS:               ID:20080501021944 L   I
 STAT SP IPHASW D HRMM SECON CODA AMPLIT PERI AZIMU VELO AIN AR TRES W  DIS CAZ7
 VSARABZ EPg  0    219 34.91                                                    
 VSARABZ ESg  1    219 48.58                                                    
 VSARABZ  IAML     219 49.32        22.1 0.08                                   
 VKOLHBZ ESg  2    219 46.81                                                    
 VKOLHBZ  IAML     219 49.52        14.7 0.08                                   
 VANGOBZ EP    A   219 52.12    3                                               
 VAVUNBZ EP    A   219 37.49    3                                               
 VEBENBZ EP    A   219 26.70   23                                               
 VKOLHBZ EP    A   219 34.58   23                                               
 VSARABZ EP    A   219 34.99   30                                               
 VTURTBZ EP    A   219 34.42    5                                               
                                                                                
