 2008  6 1 0847 18.9 L -14.246 167.618176.9  VAN  8 0.1 2.0LVAN                1
 GAP=344        0.29      11.3    15.6 12.6  0.6081E+02 -0.1429E+03 -0.1200E+03E
 ACTION:UPD 12-03-27 14:01 OP:chb  STATUS:               ID:20080601084718 L   I
 2008-06-01-0847-16S.VNRC__100_MSEED                                           6
 STAT SP IPHASW D HRMM SECON CODA AMPLIT PERI AZIMU VELO AIN AR TRES W  DIS CAZ7
 VKOLHBZ EPg  2    847 45.26                             143   -0.13 5  119 205 
 VKOLHBZ  IAML     847 47.70       25.28 0.06                           119 205 
 VKOLHBZ ESg  2    848  6.30                             143    0.23 5  119 205 
 VSARABZ EPg  0    847 45.99                             141   -0.0210  128 212 
 VSARABZ  IAML     847 47.56       13.00 0.06                           128 212 
 VSARABZ ESg  1    848  7.06                             141   -0.11 7  128 212 
 VBUTMBZ EPg  1    847 47.04                             139    0.18 7  139 209 
 VBUTMBZ  IAML     847 47.37        6.96 0.10                           139 209 
 VBUTMBZ ESg  1    848  8.76                             139    0.07 7  139 209 
 VIRHOBZ EPg  0    847 46.75                             138   -0.1110  140 199 
 VIRHOBZ  IAML     847 47.25       11.49 0.16                           140 199 
 VIRHOBZ ESg  2    848  8.70                             138    0.00 5  140 199 
 VANGOBZ EPg  1    847 47.10                             138    0.05 7  141 214 
 VANGOBZ  IAML     847 48.15       10.59 0.20                           141 214 
 VANGOBZ ESg  2    848  8.87                             138   -0.15 5  141 214 
 VTAMBBZ ESg  1    848  9.81                             137    0.10 7  147 203 
 VTAMBBZ  IAML     848 11.86       56.49 0.26                           147 203 
 VLEBEBZ EPg  1    847 47.46                             137   -0.08 7  148 209 
 VLEBEBZ  IAML     847 54.84       10.53 0.20                           148 209 
 VLEBEBZ ESg  1    848  9.90                             137    0.01 7  148 209 
 VAVUNBZ EPg  1    847 48.84                             134    0.15 7  163 199 
 VAVUNBZ  IAML     847 51.10        3.12 0.12                           163 199 
 VAVUNBZ ESg  2    848 11.72                             134   -0.23 5  163 199 
                                                                                
 2008  6 1 0847 18.8 L -14.271 167.584181.6  VAN  7 0.1 2.1LVAN                1
 GAP=344        0.31      18.5    18.1 17.8  0.1431E+03 -0.2226E+03 -0.3029E+03E
 ACTION:UPD 12-03-27 14:01 OP:chb  STATUS:               ID:20080601084719dL   I
 2008-06-01-0846-45S.VNRC__100_MSEED                                           6
 STAT SP IPHASW D HRMM SECON CODA AMPLIT PERI AZIMU VELO AIN AR TRES W  DIS CAZ7
 VSARABZ EPg  0    847 45.99                             143   -0.0210  124 211 
 VSARABZ  IAML     847 47.56       13.00 0.06                           124 211 
 VSARABZ ESg  1    848  7.19                             143   -0.08 7  124 211 
 VTURTBZ ESg  2    848  7.61                             143    0.32 5  125 201 
 VTURTBZ  IAML     848 13.72       20.38 0.16                           125 201 
 VBUTMBZ EPg  1    847 47.04                             141    0.20 7  135 208 
 VBUTMBZ  IAML     847 47.37        6.96 0.10                           135 208 
 VBUTMBZ ESg  1    848  8.76                             141    0.01 7  135 208 
 VANGOBZ EPg  1    847 47.10                             140    0.09 7  136 213 
 VANGOBZ  IAML     847 48.15       10.59 0.20                           136 213 
 VANGOBZ ESg  2    848  8.87                             140   -0.18 5  136 213 
 VIRHOBZ EPg  0    847 46.75                             140   -0.1210  136 197 
 VIRHOBZ  IAML     847 47.25       11.49 0.16                           136 197 
 VIRHOBZ ESg  2    848  8.70                             140   -0.10 5  136 197 
 VTAMBBZ ESg  1    848  9.81                             139    0.06 7  143 203 
 VTAMBBZ  IAML     848 11.86       56.49 0.26                           143 203 
 VLEBEBZ EPg  1    847 47.46                             139   -0.03 7  144 208 
 VLEBEBZ  IAML     847 54.84       10.53 0.20                           144 208 
 VLEBEBZ ESg  1    848  9.90                             139   -0.01 7  144 208 
                                                                                
 2008  6 1 0859 22.8 L -14.810 167.289105.2  VAN  8 0.2 2.1LVAN                1
 GAP=319        0.44       6.8     9.9  7.3  0.3510E+02 -0.4422E+02 -0.3321E+02E
 ACTION:UPD 12-03-27 14:01 OP:chb  STATUS:               ID:20080601085922 L   I
 2008-06-01-0859-11S.VNRC__100_MSEED                                           6
 STAT SP IPHASW D HRMM SECON CODA AMPLIT PERI AZIMU VELO AIN AR TRES W  DIS CAZ7
 VTURTBZ ESg  0    859 51.53                             147    0.1710 58.8 193 
 VTURTBZ  IAML     859 51.95       57.89 0.08                          58.8 193 
 VBUTMBZ EPg  1    859 39.50                             143   -0.04 7 67.5 208 
 VBUTMBZ ESg  0    859 52.58                             143   -0.0410 67.5 208 
 VBUTMBZ  IAML     859 54.40       79.78 0.20                          67.5 208 
 VANGOBZ EPg  1    859 39.97                             142    0.23 7 69.2 219 
 VANGOBZ ESg  2    859 53.36                             142    0.38 5 69.2 219 
 VANGOBZ  IAML     859 55.49       42.36 0.16                          69.2 219 
 VIRHOBZ EPg  0    859 39.62                             142   -0.1010 71.1 187 
 VIRHOBZ ESg  1    859 52.75                             142   -0.19 7 71.1 187 
 VIRHOBZ  IAML     859 53.04       45.67 0.14                          71.1 187 
 VLEBEBZ EPg  2    859 40.11                             140   -0.06 5 76.1 208 
 VLEBEBZ ESg  0    859 53.59                             140   -0.1610 76.1 208 
 VLEBEBZ  IAML     859 55.76       61.81 0.14                          76.1 208 
 VASAVBZ ESg  1    859 57.21                             130   -0.19 7  102 183 
 VASAVBZ  IAML     859 57.94       42.96 0.16                           102 183 
 VESPIBZ ESg  2    9 0  1.72                             123    0.04 5  129 185 
 VESPIBZ  IAML     9 0  3.37       12.74 0.18                           129 185 
 VNARWBZ ESg  2    9 0  2.50                             123    0.56 5  130 177 
 VNARWBZ  IAML     9 0  3.90       12.54 0.14                           130 177 
                                                                                
 2008  6 1 0919  5.1 L                       VAN  2                            1
 ACTION:UPD 12-03-27 14:01 OP:chb  STATUS:               ID:20080601091905 L   I
 2008-06-01-0918-53S.VNRC__100_MSEED                                           6
 STAT SP IPHASW D HRMM SECON CODA AMPLIT PERI AZIMU VELO AIN AR TRES W  DIS CAZ7
 VNARWBZ ESg  3    919 12.86                                                    
 VSULEBZ ESg  2    919 21.04                                                    
 VNARWBZ  IAML     919 21.80       16.05 0.06                                   
 VSULEBZ  IAML     919 21.33       11.11 0.08                                   
                                                                                
 2008  6 1 0921 24.6 L -14.691 167.262123.2  VAN 20 0.6 3.0LVAN                1
 GAP=321        1.25      13.7    16.6 10.3  0.3197E+02 -0.3613E+01 -0.6313E+02E
 ACTION:UPD 12-03-27 14:01 OP:chb  STATUS:               ID:20080601092124 L   I
 2008-06-01-0921-22S.VNRC__100_MSEED                                           6
 STAT SP IPHASW D HRMM SECON CODA AMPLIT PERI AZIMU VELO AIN AR TRES W  DIS CAZ7
 VKOLHBZ EPg  0    921 42.32                             151   -0.2410 59.5 191 
 VKOLHBZ ESg  2    921 55.72                             151   -0.82 5 59.5 191 
 VKOLHBZ  IAML     921 57.41      437.37 0.08                          59.5 191 
 VSARABZ EPg  0    921 42.94                             149    0.0110 66.2 206 
 VSARABZ  IAML     921 43.69      628.38 0.14                          66.2 206 
 VSARABZ ESg  2    921 57.47                             149    0.28 5 66.2 206 
 VTURTBZ EPg  0    921 42.72                             146   -0.4110 71.2 188 
 VTURTBZ ESg  2    921 57.13                             146   -0.42 5 71.2 188 
 VTURTBZ  IAML     921 58.17      259.54 0.06                          71.2 188 
 VANGOBZ EPg  0    921 44.28                             144    0.4610 78.3 211 
 VANGOBZ  IAML     921 45.01      336.71 0.14                          78.3 211 
 VANGOBZ ESg  2    922  0.24                             144    1.46 5 78.3 211 
 VBUTMBZ EPg  0    921 43.83                             144    0.1010 78.3 201 
 VBUTMBZ ESg  2    921 58.85                             144    0.23 5 78.3 201 
 VBUTMBZ  IAML     922  1.00      286.59 0.14                          78.3 201 
 VIRHOBZ EPg  0    921 43.64                             142   -0.4010 83.9 184 
 VIRHOBZ ESg  2    921 58.48                             142   -0.69 5 83.9 184 
 VIRHOBZ  IAML     921 59.02      170.69 0.10                          83.9 184 
 VLEBEBZ EPg  0    921 44.40                             141    0.0710 86.7 203 
 VLEBEBZ ESg  2    922  0.12                             141    0.43 5 86.7 203 
 VLEBEBZ  IAML     922  1.93      283.63 0.12                          86.7 203 
 VTAMBBZ EPg  0    921 44.36                             140   -0.0210 88.4 193 
 VTAMBBZ ESg  1    921 59.40                             140   -0.38 7 88.4 193 
 VTAMBBZ  IAML     922  0.81      409.05 0.20                          88.4 193 
 VEBENBZ EPg  1    921 46.49                             136    1.02 7  102 199 
 VEBENBZ ESg  3    922  3.32                             136    1.61 2  102 199 
 VEBENBZ  IAML     922  6.41       92.99 0.12                           102 199 
 VASAVBZ EPg  0    921 46.63                             132    0.1310  115 181 
 VASAVBZ ESg  1    922  2.99                             132   -0.55 7  115 181 
 VASAVBZ  IAML     922  4.06      188.48 0.20                           115 181 
 VSALEBZ EPg  1    921 46.96                             132    0.52 7  115 204 
 VSALEBZ  IAML     921 49.49       48.05 0.14                           115 204 
 OS01 SP EPg  0    921 46.00                             130   -0.4310  122 220 
 OS08 SP EPg  0    921 48.58                             129    1.6710  126 190 
 OS05 SP EPg  0    921 47.03                             128   -0.1810  129 197 
 OS02 SP EPg  0    921 46.86                             127   -0.4110  133 213 
 VPOTOBZ EPg  0    921 48.29                             127    0.2210  133 180 
 VPOTOBZ ESg  2    922  6.30                             127   -0.05 5  133 180 
 VPOTOBZ  IAML     922  7.82      144.02 0.22                           133 180 
 OS04 SP EPg  0    921 48.06                             125   -0.2810  143 206 
 OS07 SP EPg  0    921 48.62                             124   -0.4910  146 192 
 OS03 SP EPg  0    921 48.55                             122   -0.3410  154 215 
 OS10 SP EPg  1    921 50.34                             120   -0.07 7  167 188 
                                                                                
 2008  6 1 0933 17.7 L -14.710 167.403113.3  VAN 10 0.4 2.1LVAN                1
 GAP=329        0.65      11.8    15.4 12.3  0.3100E+02 -0.9207E+02 -0.1151E+03E
 ACTION:UPD 12-03-27 14:01 OP:chb  STATUS:               ID:20080601093317 L   I
 2008-06-01-0933-06S.VNRC__100_MSEED                                           6
 STAT SP IPHASW D HRMM SECON CODA AMPLIT PERI AZIMU VELO AIN AR TRES W  DIS CAZ7
 VKOLHBZ EPg  0    933 34.89                             147    0.0510 62.4 205 
 VKOLHBZ  IAML     933 35.21       56.72 0.16                          62.4 205 
 VKOLHBZ ESg  2    933 48.88                             147    0.67 5 62.4 205 
 VTURTBZ EPg  1    933 35.57                             143    0.16 7 73.0 200 
 VTURTBZ ESg  1    933 49.29                             143    0.08 7 73.0 200 
 VTURTBZ  IAML     933 50.27       32.69 0.08                          73.0 200 
 VBUTMBZ EPg  0    933 36.09                             139   -0.1810 83.2 212 
 VBUTMBZ ESg  1    933 50.89                             139    0.13 7 83.2 212 
 VBUTMBZ  IAML     933 52.64       49.59 0.16                          83.2 212 
 VIRHOBZ EPg  0    933 36.22                             138   -0.0710 84.3 195 
 VIRHOBZ ESg  1    933 50.48                             138   -0.30 7 84.3 195 
 VIRHOBZ  IAML     933 51.32       24.03 0.12                          84.3 195 
 VANGOBZ EPg  0    933 36.48                             138   -0.0610 85.6 221 
 VANGOBZ ESg  2    933 51.62                             138    0.39 5 85.6 221 
 VANGOBZ  IAML     933 54.12       27.29 0.14                          85.6 221 
 VTAMBBZ EPg  0    933 36.89                             136    0.0610 91.1 203 
 VTAMBBZ ESg  1    933 51.53                             136   -0.22 7 91.1 203 
 VTAMBBZ  IAML     933 51.99       82.13 0.24                          91.1 203 
 VLEBEBZ EPg  0    933 36.69                             136   -0.2610 91.8 212 
 VLEBEBZ ESg  1    933 51.83                             136   -0.14 7 91.8 212 
 VLEBEBZ  IAML     933 52.86       44.15 0.12                          91.8 212 
 VBOKIBZ ESg  2    933 52.62                             133   -0.39 5 99.1 190 
 VBOKIBZ  IAML     933 54.10       25.50 0.14                          99.1 190 
 VAVUNBZ EPg  1    933 38.13                             131   -0.03 7  107 196 
 VAVUNBZ ESg  1    933 54.30                             131    0.17 7  107 196 
 VAVUNBZ  IAML     933 54.80       22.37 0.16                           107 196 
 OS08 SP EPg  2    933 40.91                             125    1.46 5  127 197 
                                                                                
 2008  6 1 0944 22.4 L -15.218 167.237  0.0  VAN  4 3.5 0.5LVAN                1
 GAP=286        3.28      31.1    79.2999.9  0.1794E+04 -0.2254E+06 -0.4217E+05E
 ACTION:UPD 12-03-27 14:01 OP:chb  STATUS:               ID:20080601094424 L   I
 2008-06-01-0944-01S.VNRC__100_MSEED                                           6
 STAT SP IPHASW D HRMM SECON CODA AMPLIT PERI AZIMU VELO AIN AR TRES W  DIS CAZ7
 VTURTBZ ESg  2    944 26.29                              90   -2.22 5 14.3 212 
 VTURTBZ  IAML     944 34.76        6.48 0.20                          14.3 212 
 VSARABZ ESg  2    944 31.25                              91   -2.64 5 26.3 267 
 VSARABZ  IAML     944 32.37        4.48 0.12                          26.3 267 
 VANGOBZ EPg  2    944 33.22                              90    1.06 5 38.8 257 
 VANGOBZ ESg  3    944 48.78                              90    8.99 2 38.8 257 
 VANGOBZ  IAML     944 50.93       18.93 0.18                          38.8 257 
 VAVUNBZ ESg  2    944 45.46                              90    1.56 5 48.3 194 
 VAVUNBZ  IAML     944 47.89        7.86 0.16                          48.3 194 
                                                                                
 2008  6 1 0949 54.2 L -15.063 167.818145.3  VAN  7 1.0 2.1LVAN                1
 GAP=302        2.16      65.3   100.6 87.2  0.5130E+04 -0.8454E+04 -0.4344E+04E
 ACTION:UPD 12-03-27 14:01 OP:chb  STATUS:               ID:20080601094954 L   I
 2008-06-01-0949-48S.VNRC__100_MSEED                                           6
 STAT SP IPHASW D HRMM SECON CODA AMPLIT PERI AZIMU VELO AIN AR TRES W  DIS CAZ7
 VIRHOBZ EPg  1    950 15.44                             147    0.14 7 78.5 237 
 VIRHOBZ ESg  2    950 32.83                             147    1.09 5 78.5 237 
 VIRHOBZ  IAML     950 33.29       10.91 0.10                          78.5 237 
 VSARABZ EPg  1    950 15.19                             143   -0.87 7 90.6 258 
 VSARABZ ESg  1    950 32.08                             143   -1.00 7 90.6 258 
 VSARABZ  IAML     950 33.35       32.46 0.14                          90.6 258 
 VBUTMBZ EPg  2    950 16.23                             142   -0.07 5 93.6 250 
 VBUTMBZ ESg  1    950 33.38                             142   -0.14 7 93.6 250 
 VBUTMBZ  IAML     950 35.12       22.41 0.16                          93.6 250 
 VAVUNBZ EPg  0    950 18.35                             141    1.7810 97.7 229 
 VAVUNBZ  IAML     950 18.82        9.10 0.14                          97.7 229 
 VAVUNBZ ESg  2    950 36.09                             141    2.10 5 97.7 229 
 VLEBEBZ EPg  0    950 17.30                             140    0.4910  101 247 
 VLEBEBZ ESg  1    950 34.16                             140   -0.27 7  101 247 
 VLEBEBZ  IAML     950 35.35       21.41 0.16                           101 247 
 VANGOBZ EPg  1    950 17.26                             139    0.20 7  104 255 
 VANGOBZ ESg  1    950 34.02                             139   -0.85 7  104 255 
 VANGOBZ  IAML     950 34.93       27.92 0.22                           104 255 
 VLAKABZ EPg  0    950 17.06                             134   -1.4810  123 200 
 VLAKABZ  IAML     950 17.98       72.91 0.02                           123 200 
                                                                                
 2008  6 1 0949 54.2 L -15.063 167.818145.3  VAN  7 1.0 2.1LVAN                1
 GAP=302        2.16      65.3   100.6 87.2  0.5130E+04 -0.8454E+04 -0.4344E+04E
 ACTION:UPD 12-03-27 14:01 OP:chb  STATUS:               ID:20080601094955dL   I
 2008-06-01-0949-32S.VNRC__100_MSEED                                           6
 STAT SP IPHASW D HRMM SECON CODA AMPLIT PERI AZIMU VELO AIN AR TRES W  DIS CAZ7
 VIRHOBZ EPg  1    950 15.44                             147    0.14 7 78.5 237 
 VIRHOBZ ESg  2    950 32.83                             147    1.09 5 78.5 237 
 VIRHOBZ  IAML     950 33.29       10.91 0.10                          78.5 237 
 VSARABZ EPg  1    950 15.19                             143   -0.87 7 90.6 258 
 VSARABZ ESg  1    950 32.08                             143   -1.00 7 90.6 258 
 VSARABZ  IAML     950 33.35       32.46 0.14                          90.6 258 
 VBUTMBZ EPg  2    950 16.23                             142   -0.07 5 93.6 250 
 VBUTMBZ ESg  1    950 33.38                             142   -0.14 7 93.6 250 
 VBUTMBZ  IAML     950 35.12       22.41 0.16                          93.6 250 
 VAVUNBZ EPg  0    950 18.35                             141    1.7810 97.7 229 
 VAVUNBZ  IAML     950 18.82        9.10 0.14                          97.7 229 
 VAVUNBZ ESg  2    950 36.09                             141    2.10 5 97.7 229 
 VLEBEBZ EPg  0    950 17.30                             140    0.4910  101 247 
 VLEBEBZ ESg  1    950 34.16                             140   -0.27 7  101 247 
 VLEBEBZ  IAML     950 35.35       21.41 0.16                           101 247 
 VANGOBZ EPg  1    950 17.26                             139    0.20 7  104 255 
 VANGOBZ ESg  1    950 34.02                             139   -0.85 7  104 255 
 VANGOBZ  IAML     950 34.93       27.92 0.22                           104 255 
 VLAKABZ EPg  0    950 17.06                             134   -1.4810  123 200 
 VLAKABZ  IAML     950 17.98       72.91 0.02                           123 200 
                                                                                
