 2008  5 1  458 43.2 L -15.852 167.194 31.7  VAN 12 3.2 2.4LVAN                1
 GAP=140        6.35      35.4    90.8 76.0  0.1288E+04  0.3518E+04 -0.9086E+03E
 2008-05-01-0458-26S.VNRC__051_MSEED                                           6
 ACTION:UPD 12-03-27 13:59 OP:chb  STATUS:               ID:20080501045844 L   I
 STAT SP IPHASW D HRMM SECON CODA AMPLIT PERI AZIMU VELO AIN AR TRES W  DIS CAZ7
 VPOTOBZ EPg  0    458 49.80                            16.8   0.630107.630 123 
 VPOTOBZ  IAML     459  3.10       406.4 0.20                         7.630 123 
 VESPIBZ EPg  0    458 48.81                            16.7   -.5501013.50 181 
 VESPIBZ  IAML     459  3.11       477.7 0.26                         13.50 181 
 VASAVBZ EPg  0    458 51.04                            13.9    1.631013.90  20 
 VASAVBZ ESg  3    458 54.97                            13.9   0.680 213.90  20 
 VASAVBZ  IAML     459  6.05       249.4 0.22                         13.90  20 
 VNARWBZ EPg  0    458 48.86                            15.1   -1.231021.30 132 
 VNARWBZ  IAML     458 55.34       431.3 0.18                         21.30 132 
 VAVUNBZ EPg  0    458 52.81                            12.4    2.521024.10 344 
 VAVUNBZ  IAML     459  8.91       217.6 0.28                         24.10 344 
 VLEVIBZ EPg  0    458 46.87                            13.3   -4.861034.00 170 
 VLEVIBZ  IAML     458 54.39       589.3 0.20                         34.00 170 
 VEBENBZ EPg  2    458 55.82                            10.9    3.65 540.50 321 
 VEBENBZ  IAML     459 11.28       260.8 0.32                         40.50 321 
 VLEBEBZ ESg  2    458 56.60                            10.1   -5.92 554.80 332 
 VLEBEBZ  IAML     459  5.58       185.9 0.26                         54.80 332 
 VBUTMBZ EPg  0    458 57.01                             9.9    2.421059.30 339 
 VBUTMBZ  IAML     459 13.16       420.5 0.24                         59.30 339 
 VANGOBZ EPg  1    458 58.89                             9.6    2.80 769.80 332 
 VANGOBZ  IAML     459 12.86       341.0 0.22                         69.80 332 
 VKOLHBZ ESg  2    458 58.62                             9.6   -7.41 570.10 356 
 VKOLHBZ  IAML     459  8.02       138.6 0.20                         70.10 356 
 VSARABZ EPg  1    458 58.70                             9.6    2.44 772.20 343 
 VSARABZ ESg  2    459  1.96                             9.6   -4.52 572.20 343 
 VSARABZ  IAML     459 10.04       241.4 0.22                         72.20 343 
 VANGOBZ EP    A   458 59.86   86                                               
 VASAVBZ EP    A   458 51.48   94                                               
 VBUTMBZ EP    A   458 57.36   88                                               
 VESPIBZ EP    A   458 49.17   96                                               
 VIRHOBZ EP    A   458 55.57   90                                               
 VLAKABZ EP    A   458 48.32   97                                               
 VLEVIBZ EP    A   458 46.03  100                                               
 VNARWBZ EP    A   458 49.03   97                                               
 VSARABZ EP    A   459  0.83   85                                               
 VTAMBBZ EP    A   458 56.14   89                                               
                                                                                
 2008  5 1  459 10.0 D                       VAN  2                            1
 2008-05-01-0459-10S.VNRC__051_MSEED                                           6
 ACTION:UPD 12-03-27 13:59 OP:chb  STATUS:               ID:20080501045910 L   I
 STAT SP IPHASW D HRMM SECON CODA AMPLIT PERI AZIMU VELO AIN AR TRES W  DIS CAZ7
 VNARWBZ EPg  2    459 32.50                                                    
 VNARWBZ ESg  3    459 34.17                                                    
 VNARWBZ  IAML     459 35.66      1389.9 0.20                                   
 VLAKABZ ESg  2    459 28.93                                                    
 VLAKABZ  IAML     459 35.15      3857.4 0.20                                   
 VAVUNBZ EP    A   459 44.42    5                                               
 VESPIBZ EP    A   459 37.55   10                                               
 VLAKABZ EP    A   459 31.03   17                                               
 VLEBEBZ EP    A   459 53.24    3                                               
 VNARWBZ EP    A   459 35.18    6                                               
 VTAMBBZ EP    A   459 48.87    4                                               
 VTURTBZ EP    A   459 50.12    7                                               
                                                                                
 2008  5 1  459 11.0 D                       VAN  2                            1
 2008-05-01-0459-11S.VNRC__051_MSEED                                           6
 ACTION:UPD 12-03-27 13:59 OP:chb  STATUS:               ID:20080501045911 L   I
 STAT SP IPHASW D HRMM SECON CODA AMPLIT PERI AZIMU VELO AIN AR TRES W  DIS CAZ7
 VNARWBZ EPg  2    459 32.50                                                    
 VNARWBZ ESg  3    459 34.17                                                    
 VNARWBZ  IAML     459 35.66      1389.9 0.20                                   
 VLAKABZ ESg  2    459 28.93                                                    
 VLAKABZ  IAML     459 35.15      3857.4 0.20                                   
 VESPIBZ EP    A   459 37.60    9                                               
 VLAKABZ EP    A   459 30.13   18                                               
 VLEBEBZ EP    A   459 52.78    3                                               
 VLEVIBZ EP    A   459 42.81    3                                               
 VNARWBZ EP    A   459 35.90    5                                               
 VSALEBZ EP    A   459 50.50    4                                               
                                                                                
 2008  5 1  459 27.0 R                       VAN  2                            1
 2008-05-01-0459-27S.VNRC__051_MSEED                                           6
 ACTION:UPD 12-03-27 13:59 OP:chb  STATUS:               ID:20080501045927 L   I
 STAT SP IPHASW D HRMM SECON CODA AMPLIT PERI AZIMU VELO AIN AR TRES W  DIS CAZ7
 VKOLHBZ ESg  3    459 51.18                                                    
 VKOLHBZ  IAML     459 57.40       537.6 0.28                                   
 VNARWBZ ESg  3    459 34.17                                                    
 VNARWBZ  IAML     459 36.79      1168.9 0.20                                   
 VAVUNBZ EP    A   459 44.41    5                                               
 VEBENBZ EP    A   459 51.81    8                                               
 VKOLHBZ EP    A   459 57.27    3                                               
 VNARWBZ EP    A   459 34.47   15                                               
 VTAMBBZ EP    A   459 48.77    7                                               
                                                                                
 2008  5 1  5 9 59.0 R -15.167 167.046 11.5  VAN  5 1.1 1.1LVAN                1
 GAP=276        1.32     168.2    17.9 55.0 -0.1614E+04  0.1405E+02  0.5834E+04E
 2008-05-01-0509-35S.VNRC__051_MSEED                                           6
 ACTION:UPD 12-03-27 13:59 OP:chb  STATUS:               ID:20080501051002 L   I
 STAT SP IPHASW D HRMM SECON CODA AMPLIT PERI AZIMU VELO AIN AR TRES W  DIS CAZ7
 VKOLHBZ ESg  3    510  3.73                            11.7   -2.48 212.90 116 
 VKOLHBZ  IAML     510  6.43        27.3 0.14                         12.90 116 
 VLEBEBZ EPg  1    510  6.18                             9.2   0.010 729.10 200 
 VLEBEBZ  IAML     510 12.51        51.6 0.20                         29.10 200 
 VIRHOBZ EPg  1    510  8.30                             9.1    1.03 735.20 151 
 VIRHOBZ  IAML     510 13.80        17.1 0.16                         35.20 151 
 VAVUNBZ EPg  2    510  9.97                             9.1   -.840 553.40 170 
 VAVUNBZ  IAML     510 14.75        15.2 0.20                         53.40 170 
 VASAVBZ EPg  2    510 12.33                             9.1   -.900 566.00 162 
 VASAVBZ  IAML     510 26.76        14.0 0.22                         66.00 162 
 VANGOBZ EP    A   510  4.75   28                                               
 VAVUNBZ EP    A   510 10.24    8                                               
 VBUTMBZ EP    A   510  6.30   28                                               
 VKOLHBZ EP    A   510  4.22   88                                               
 VLAKABZ EP    A   510 42.69    3                                               
 VSALEBZ EP    A   510  9.36    3                                               
                                                                                
 2008  5 1  511 19.1 L -14.806 167.500111.9  VAN  5 .10 2.0LVAN                1
 GAP=325       0.310       6.7    13.4 10.3  0.2227E+02 -0.8469E+02 -0.3296E+02E
 2008-05-01-0510-34S.VNRC__051_MSEED                                           6
 ACTION:UPD 12-03-27 13:59 OP:chb  STATUS:               ID:20080501051119 L   I
 STAT SP IPHASW D HRMM SECON CODA AMPLIT PERI AZIMU VELO AIN AR TRES W  DIS CAZ7
 VKOLHBZ EPg  1    511 35.86                            14.8   -.000 759.00 219 
 VKOLHBZ ESg  1    511 49.03                            14.8   0.060 759.00 219 
 VKOLHBZ  IAML     511 50.59        86.9 0.10                         59.00 219 
 VIRHOBZ ESg  1    511 50.99                            14.0   -.100 777.80 204 
 VIRHOBZ  IAML     511 51.60        27.7 0.12                         77.80 204 
 VANGOBZ ESg  2    511 52.34                            13.7   -.040 585.60 231 
 VANGOBZ  IAML     511 54.68        45.0 0.16                         85.60 231 
 VAVUNBZ ESg  2    511 54.43                            13.2   0.100 5101.0 203 
 VAVUNBZ  IAML     511 55.87        12.4 0.18                         101.0 203 
 VASAVBZ ESg  2    511 55.19                            13.1   0.030 5106.0 195 
 VASAVBZ  IAML     511 56.02        13.3 0.16                         106.0 195 
 VESPIBZ EP    A   510 37.96    5                                               
 VIRHOBZ EP    A   510 42.02    8                                               
 VKOLHBZ EP    A   510 46.37    3                                               
 VLAKABZ EP    A   511 25.16    4                                               
 VNARWBZ EP    A   510 36.02   16                                               
 VPOTOBZ EP    A   510 37.80   18                                               
                                                                                
 2008  5 1  540 22.6 R -15.985 167.465 26.3  VAN  4 .30 1.5LVAN                1
 GAP=272       0.580       3.8    12.5  6.3  0.2073E+02 -0.3697E+02 -0.5962E+01E
 2008-05-01-0540-02S.VNRC__051_MSEED                                           6
 ACTION:UPD 12-03-27 13:59 OP:chb  STATUS:               ID:20080501054022 L   I
 STAT SP IPHASW D HRMM SECON CODA AMPLIT PERI AZIMU VELO AIN AR TRES W  DIS CAZ7
 VNARWBZ ESg  0    540 32.57                            14.6   -.0601013.00 272 
 VNARWBZ  IAML     540 32.88       274.8 0.10                         13.00 272 
 VPOTOBZ EPg  1    540 29.90                            12.4   0.460 724.90 295 
 VPOTOBZ ESg  1    540 34.98                            12.4   0.200 724.90 295 
 VPOTOBZ  IAML     540 35.26       105.8 0.16                         24.90 295 
 VLEVIBZ EPg  1    540 30.01                            11.8   -.240 729.50 231 
 VLEVIBZ ESg  2    540 36.23                            11.8   0.010 529.50 231 
 VLEVIBZ  IAML     540 37.74        20.1 0.26                         29.50 231 
 VASAVBZ ESg  1    540 36.92                            11.1   -.330 736.80 319 
 VASAVBZ  IAML     540 39.10        20.6 0.10                         36.80 319 
 VAVUNBZ EP    A   540 34.42   16                                               
 VBUTMBZ EP    A   540 49.74    6                                               
 VLAKABZ EP    A   540 13.38    6                                               
 VSARABZ EP    A   540 40.32   27                                               
                                                                                
 2008  5 1  543 21.0 R                       VAN  2                            1
 2008-05-01-0543-21S.VNRC__051_MSEED                                           6
 ACTION:UPD 12-03-27 13:59 OP:chb  STATUS:               ID:20080501054321 L   I
 STAT SP IPHASW D HRMM SECON CODA AMPLIT PERI AZIMU VELO AIN AR TRES W  DIS CAZ7
 VKOLHBZ ESg  2    543 53.37                                                    
 VKOLHBZ  IAML     543 54.17        20.0 0.20                                   
 VTURTBZ ESg  2    543 54.54                                                    
 VTURTBZ  IAML     543 56.00        18.8 0.14                                   
 VKOLHBZ EP    A   543 41.39   60                                               
 VLEBEBZ EP    A   543 41.12   14                                               
 VSARABZ EP    A   543 41.23   40                                               
                                                                                
 2008  5 1  6 4 24.1 R -14.277 166.990 25.0  VAN  6 .30 2.6LVAN                1
 GAP=344       0.660      12.9    15.8258.2  0.7448E+02 -0.1428E+04 -0.3090E+04E
 2008-05-01-0604-22S.VNRC__051_MSEED                                           6
 ACTION:UPD 12-03-27 13:59 OP:chb  STATUS:               ID:20080501060424 L   I
 STAT SP IPHASW D HRMM SECON CODA AMPLIT PERI AZIMU VELO AIN AR TRES W  DIS CAZ7
 VSARABZ EPg  0    6 4 41.57                             9.3   -.18010105.0 180 
 VSARABZ ESg  1    6 4 55.84                             9.3   0.290 7105.0 180 
 VSARABZ  IAML     6 4 56.23       209.1 0.12                         105.0 180 
 VKOLHBZ EPg  0    6 4 42.14                             9.3   0.32010106.0 170 
 VKOLHBZ ESg  2    6 4 55.69                             9.3   0.020 5106.0 170 
 VKOLHBZ  IAML     6 4 56.08       189.1 0.10                         106.0 170 
 VANGOBZ EPg  2    6 4 42.82                             9.3   -.200 5113.0 186 
 VANGOBZ ESg  2    6 4 58.72                             9.3   0.910 5113.0 186 
 VANGOBZ  IAML     6 5  0.33        80.8 0.20                         113.0 186 
 VTURTBZ EPg  2    6 4 43.74                             9.3   0.320 5118.0 171 
 VTURTBZ ESg  2    6 4 58.32                             9.3   -.200 5118.0 171 
 VTURTBZ  IAML     6 5  1.03        82.2 0.10                         118.0 171 
 VBUTMBZ EPg  0    6 4 43.35                             9.3   -.33010119.0 180 
 VBUTMBZ ESg  1    6 4 58.63                             9.3   -.360 7119.0 180 
 VBUTMBZ  IAML     6 5  0.36       128.6 0.22                         119.0 180 
 VIRHOBZ EPg  0    6 4 45.58                             9.2   0.16010132.0 170 
 VIRHOBZ ESg  1    6 5  1.84                             9.2   -.230 7132.0 170 
 VIRHOBZ  IAML     6 5  3.46       161.4 0.18                         132.0 170 
 VANGOBZ EP    A   6 4 43.03   35                                               
 VIRHOBZ EP    A   6 4 45.72   42                                               
 VKOLHBZ EP    A   6 4 42.26   46                                               
 VPOTOBZ EP    A   6 5 15.34    8                                               
 VTURTBZ EP    A   6 4 43.90   51                                               
                                                                                
 2008  5 1  610 43.8 R -15.480 167.714114.5  VAN  6 .20 1.8LVAN                1
 GAP=305       0.410       7.6    16.2 10.1  0.7935E+02 -0.1419E+03 -0.4350E+02E
 2008-05-01-0610-30S.VNRC__051_MSEED                                           6
 ACTION:UPD 12-03-27 13:59 OP:chb  STATUS:               ID:20080501061043 L   I
 STAT SP IPHASW D HRMM SECON CODA AMPLIT PERI AZIMU VELO AIN AR TRES W  DIS CAZ7
 VASAVBZ EPg  2    611  1.00                            14.9   0.140 558.10 241 
 VASAVBZ ESg  1    611 14.12                            14.9   -.020 758.10 241 
 VASAVBZ  IAML     611 15.64         8.9 0.14                         58.10 241 
 VTURTBZ ESg  1    611 14.06                            14.8   -.160 761.10 286 
 VTURTBZ  IAML     611 14.68        38.5 0.14                         61.10 286 
 VAVUNBZ EPg  2    611  0.77                            14.6   -.510 565.00 254 
 VAVUNBZ ESg  2    611 15.34                            14.6   0.460 565.00 254 
 VAVUNBZ  IAML     611 16.55         7.3 0.14                         65.00 254 
 VKOLHBZ EPg  2    611  1.50                            14.5   0.150 566.70 296 
 VKOLHBZ ESg  1    611 15.01                            14.5   -.000 766.70 296 
 VKOLHBZ  IAML     611 15.92        38.5 0.10                         66.70 296 
 VBUTMBZ EPg  2    611  2.10                            14.1   -.050 578.10 280 
 VBUTMBZ ESg  1    611 16.19                            14.1   -.240 778.10 280 
 VBUTMBZ  IAML     611 19.54        19.6 0.22                         78.10 280 
 VSARABZ EPg  0    611  2.48                            13.9   0.0801082.20 290 
 VSARABZ ESg  0    611 16.97                            13.9   0.1001082.20 290 
 VSARABZ  IAML     611 18.00        32.6 0.14                         82.20 290 
 VANGOBZ EP    A   610 43.42   15                                               
 VASAVBZ EP    A   611  1.35    4                                               
 VBUTMBZ EP    A   611  2.48    7                                               
 VKOLHBZ EP    A   611  1.66   10                                               
 VSARABZ EP    A   611  2.58   38                                               
 VTURTBZ EP    A   611  1.25    3                                               
                                                                                
