 2008  6 1 1001 14.9 L -14.672 167.532106.3  VAN  8 0.3 2.1LVAN                1
 GAP=332        0.58      17.3    19.2 18.8  0.3196E+02 -0.1953E+03 -0.2516E+03E
 ACTION:UPD 12-03-27 14:01 OP:chb  STATUS:               ID:20080601100114 L   I
 2008-06-01-1001-08S.VNRC__100_MSEED                                           6
 STAT SP IPHASW D HRMM SECON CODA AMPLIT PERI AZIMU VELO AIN AR TRES W  DIS CAZ7
 VKOLHBZ ESg  2   10 1 45.58                             141    0.04 5 72.8 214 
 VKOLHBZ  IAML    10 1 47.04       53.99 0.14                          72.8 214 
 VTURTBZ ESg  2   10 1 47.13                             137    0.53 5 82.5 208 
 VTURTBZ  IAML    10 1 51.06       25.51 0.18                          82.5 208 
 VSARABZ EPg  0   10 1 32.72                             136   -0.2710 84.6 223 
 VSARABZ ESg  1   10 1 47.23                             136    0.16 7 84.6 223 
 VSARABZ  IAML    10 1 48.27       87.40 0.14                          84.6 223 
 VIRHOBZ EPg  1   10 1 33.72                             133    0.11 7 92.7 202 
 VIRHOBZ ESg  2   10 1 48.28                             133    0.11 5 92.7 202 
 VIRHOBZ  IAML    10 1 48.86       21.52 0.20                          92.7 202 
 VBUTMBZ EPg  1   10 1 33.45                             133   -0.37 7 94.4 217 
 VBUTMBZ ESg  2   10 1 48.55                             133    0.00 5 94.4 217 
 VBUTMBZ  IAML    10 1 49.30       38.41 0.14                          94.4 217 
 VTAMBBZ EPg  2   10 1 34.65                             130    0.33 5  101 209 
 VTAMBBZ ESg  1   10 1 49.22                             130   -0.23 7  101 209 
 VTAMBBZ  IAML    10 1 51.15       42.59 0.22                           101 209 
 VLEBEBZ EPg  2   10 1 35.04                             130    0.47 5  103 217 
 VLEBEBZ ESg  1   10 1 49.68                             130   -0.21 7  103 217 
 VLEBEBZ  IAML    10 1 51.89       52.08 0.18                           103 217 
 VWUSIBZ EPg  2   10 1 37.13                             124    0.81 5  121 231 
 VWUSIBZ  IAML    10 1 38.52        5.55 0.10                           121 231 
                                                                                
 2008  6 1 1001 15.1 L -14.702 167.528108.4  VAN  8 0.3 2.0LVAN                1
 GAP=331        0.59      16.3    19.6 17.3  0.6382E+02 -0.2238E+03 -0.2026E+03E
 ACTION:UPD 12-03-27 14:01 OP:chb  STATUS:               ID:20080601100115 L   I
 2008-06-01-1000-33S.VNRC__100_MSEED                                           6
 STAT SP IPHASW D HRMM SECON CODA AMPLIT PERI AZIMU VELO AIN AR TRES W  DIS CAZ7
 VKOLHBZ ESg  2   10 1 45.58                             142   -0.05 5 69.9 215 
 VKOLHBZ  IAML    10 1 47.04       53.99 0.14                          69.9 215 
 VTURTBZ ESg  2   10 1 47.13                             139    0.51 5 79.4 209 
 VTURTBZ  IAML    10 1 51.06       25.51 0.18                          79.4 209 
 VSARABZ EPg  0   10 1 32.72                             138   -0.3610 82.0 225 
 VSARABZ ESg  1   10 1 47.23                             138    0.09 7 82.0 225 
 VSARABZ  IAML    10 1 48.27       87.40 0.14                          82.0 225 
 VIRHOBZ EPg  1   10 1 33.87                             135    0.23 7 89.5 203 
 VIRHOBZ ESg  2   10 1 48.28                             135    0.15 5 89.5 203 
 VIRHOBZ  IAML    10 1 48.86       21.52 0.20                          89.5 203 
 VTAMBBZ EPg  2   10 1 34.65                             132    0.30 5 97.9 210 
 VTAMBBZ ESg  1   10 1 49.22                             132   -0.17 7 97.9 210 
 VTAMBBZ  IAML    10 1 51.15       42.59 0.22                          97.9 210 
 VLEBEBZ EPg  2   10 1 35.04                             131    0.43 5  100 218 
 VLEBEBZ ESg  1   10 1 49.68                             131   -0.18 7  100 218 
 VLEBEBZ  IAML    10 1 51.89       52.08 0.18                           100 218 
 VAVUNBZ EPg  1   10 1 35.36                             127   -0.26 7  112 202 
 VAVUNBZ  IAML    10 1 52.92       13.30 0.26                           112 202 
 VWUSIBZ EPg  2   10 1 37.13                             126    0.77 5  119 232 
 VWUSIBZ  IAML    10 1 38.52        5.55 0.10                           119 232 
                                                                                
 2008  6 1 1027 37.7 L -15.424 167.614130.2  VAN 23 0.4 2.6LVAN                1
 GAP=261        0.87       6.3    12.3  5.8  0.4000E+02 -0.4292E+02 -0.8687E+01E
 ACTION:UPD 12-03-27 14:01 OP:chb  STATUS:               ID:20080601102737 L   I
 2008-06-01-1027-35S.VNRC__100_MSEED                                           6
 STAT SP IPHASW D HRMM SECON CODA AMPLIT PERI AZIMU VELO AIN AR TRES W  DIS CAZ7
 VBOKIBZ EPg  2   1027 55.83                             160    0.16 5 43.9 245 
 VBOKIBZ ESg  1   1028  8.79                             160   -0.90 7 43.9 245 
 VBOKIBZ  IAML    1028  9.58      139.01 0.18                          43.9 245 
 VIRHOBZ EPg  0   1027 55.25                             160   -0.3210 44.1 267 
 VIRHOBZ  IAML    1027 55.88       59.08 0.12                          44.1 267 
 VIRHOBZ ESg  2   1028  9.11                             160   -0.40 5 44.1 267 
 VTURTBZ EPg  0   1027 55.48                             158   -0.2310 49.2 282 
 VTURTBZ ESg  1   1028  9.18                             158   -0.57 7 49.2 282 
 VTURTBZ  IAML    1028  9.98      344.84 0.14                          49.2 282 
 VASAVBZ EPg  0   1027 56.29                             156    0.3010 52.8 230 
 VASAVBZ ESg  1   1028  9.70                             156   -0.56 7 52.8 230 
 VASAVBZ  IAML    1028 10.88       92.65 0.18                          52.8 230 
 VKOLHBZ EPg  0   1027 56.24                             155    0.1910 54.4 295 
 VKOLHBZ ESg  1   1028 10.37                             155    0.00 7 54.4 295 
 VKOLHBZ  IAML    1028 11.10      211.99 0.10                          54.4 295 
 VAVUNBZ EPg  0   1027 56.28                             155    0.0710 57.2 245 
 VAVUNBZ ESg  2   1028 10.83                             155    0.17 5 57.2 245 
 VAVUNBZ  IAML    1028 13.33       55.30 0.18                          57.2 245 
 VTAMBBZ EPg  0   1027 56.18                             154   -0.0710 58.4 265 
 VTAMBBZ ESg  1   1028 10.30                             154   -0.41 7 58.4 265 
 VTAMBBZ  IAML    1028 12.17      261.17 0.10                          58.4 265 
 VPOTOBZ EPg  0   1027 56.97                             152    0.3010 64.3 217 
 VPOTOBZ ESg  1   1028 11.52                             152    0.05 7 64.3 217 
 VPOTOBZ  IAML    1028 13.39      130.44 0.12                          64.3 217 
 VBUTMBZ EPg  0   1027 56.85                             151    0.1310 66.6 277 
 VBUTMBZ ESg  1   1028 11.26                             151   -0.30 7 66.6 277 
 VBUTMBZ  IAML    1028 12.82      154.00 0.12                          66.6 277 
 VNARWBZ EPg  0   1027 57.14                             150    0.2810 68.0 205 
 VNARWBZ ESg  2   1028 12.91                             150    1.10 5 68.0 205 
 VNARWBZ  IAML    1028 13.67      133.31 0.12                          68.0 205 
 VSARABZ EPg  0   1027 57.09                             149    0.2110 70.1 288 
 VSARABZ ESg  0   1028 12.08                             149    0.2410 70.1 288 
 VSARABZ  IAML    1028 12.84      394.08 0.16                          70.1 288 
 VLEBEBZ EPg  0   1027 57.06                             149    0.0510 71.0 271 
 VLEBEBZ ESg  2   1028 12.25                             149    0.18 5 71.0 271 
 VLEBEBZ  IAML    1028 15.27       85.03 0.14                          71.0 271 
 VEBENBZ EPg  0   1027 57.35                             149    0.3010 72.4 257 
 VEBENBZ ESg  2   1028 13.41                             149    1.26 5 72.4 257 
 VEBENBZ  IAML    1028 15.41       61.59 0.10                          72.4 257 
 OS08 SP EPg  0   1027 56.60                             148   -0.0610 74.0 235 
 VESPIBZ EPg  0   1027 57.46                             147    0.2510 75.8 217 
 VESPIBZ ESg  2   1028 12.21                             147   -0.23 5 75.8 217 
 VESPIBZ  IAML    1028 15.98       24.88 0.20                          75.8 217 
 VLAKABZ  IAML    1028  0.72       26.60 0.16                          78.1 195 
 VLAKABZ ESg  2   1028 14.07                             146    1.06 5 78.1 195 
 VANGOBZ EPg  0   1027 57.87                             146    0.2810 79.6 280 
 VANGOBZ ESg  1   1028 13.70                             146    0.60 7 79.6 280 
 VANGOBZ  IAML    1028 16.30      102.82 0.14                          79.6 280 
 OS05 SP EPg  1   1027 57.24                             143   -0.23 7 86.7 241 
 OS07 SP EPg  0   1027 57.72                             142   -0.4810 91.6 227 
 VWUSIBZ EPg  2   1027 59.41                             138    0.14 5  103 273 
 VWUSIBZ  IAML    1028  2.56        7.63 0.20                           103 273 
 OS10 SP EPg  0   1027 58.03                             137   -0.4410  105 216 
 OS04 SP EPg  1   1027 58.63                             135   -0.54 7  111 245 
 OS01 SP EPg  1   1027 59.08                             134   -0.44 7  117 263 
                                                                                
 2008  6 1 1034 33.0 L                       VAN  2                            1
 ACTION:UPD 12-03-27 14:01 OP:chb  STATUS:               ID:20080601103433 L   I
 2008-06-01-1034-15S.VNRC__100_MSEED                                           6
 STAT SP IPHASW D HRMM SECON CODA AMPLIT PERI AZIMU VELO AIN AR TRES W  DIS CAZ7
 VBUTMBZ EPg  1   1034 38.28                                                    
 VSARABZ EPg  0   1034 38.71                                                    
 VBUTMBZ ESg  2   1035 10.35                                                    
 VSARABZ ESg  2   1035 10.20                                                    
 VBUTMBZ  IAML    1034 38.59        4.31 0.08                                   
 VSARABZ  IAML    1034 39.33        8.31 0.06                                   
                                                                                
 2008  6 1 1036 58.3 L -16.518 167.176 31.2  VAN 22 1.3 3.0LVAN                1
 GAP=284        3.21      16.2    18.2 40.9 -0.1178E+03  0.2013E+03 -0.5102E+02E
 ACTION:UPD 12-03-27 14:01 OP:chb  STATUS:               ID:20080601103658 L   I
 2008-06-01-1036-42S.VNRC__100_MSEED                                           6
 STAT SP IPHASW D HRMM SECON CODA AMPLIT PERI AZIMU VELO AIN AR TRES W  DIS CAZ7
 OS10 SP EPg  0   1037  6.20                             109   -0.3310 40.0 338 
 VLEVIBZ EPg  0   1037  7.47                             110   -0.2410 41.1  11 
 VLEVIBZ ESg  1   1037 14.41                             110   -0.63 7 41.1  11 
 VLEVIBZ  IAML    1037 15.31      1334.67 0.28                         41.1  11 
 OS09 SP EPg  0   1037  8.25                              96    0.1910 52.7 316 
 VLAKABZ EPg  0   1037  8.79                              98   -0.2110 52.7  30 
 VLAKABZ ESg  2   1037 16.69                              98   -0.65 5 52.7  30 
 VLAKABZ  IAML    1037 17.15      1420.06 0.20                         52.7  30 
 VESPIBZ EPg  0   1037 10.20                              92    0.3710 60.3   2 
 VESPIBZ  IAML    1037 23.26      463.01 0.28                          60.3   2 
 VNARWBZ EPg  0   1037 10.36                              91    0.1710 62.1  17 
 VNARWBZ ESg  2   1037 19.74                              91    0.28 5 62.1  17 
 VNARWBZ  IAML    1037 19.93      585.27 0.18                          62.1  17 
 OS07 SP EPg  0   1037  9.90                              91   -0.2210 62.6 341 
 VPOTOBZ EPg  0   1037 11.75                              91    0.4810 70.1   7 
 VPOTOBZ ESg  2   1037 22.35                              91    0.96 5 70.1   7 
 VPOTOBZ  IAML    1037 23.00      437.16 0.22                          70.1   7 
 OS08 SP EPg  0   1037 12.33                              90    0.3310 79.6 350 
 OS05 SP EPg  0   1037 12.95                              90    0.4410 83.5 340 
 VASAVBZ EPg  0   1037 13.94                              90    0.5110 87.1   4 
 VASAVBZ ESg  1   1037 25.24                              90    0.01 7 87.1   4 
 VASAVBZ  IAML    1037 25.73      443.59 0.22                          87.1   4 
 OS04 SP EPg  0   1037 13.43                              90   -0.0510 91.2 324 
 VAVUNBZ EPg  0   1037 15.44                              90    0.6810 97.0 357 
 VAVUNBZ ESg  1   1037 28.00                              90    0.40 7 97.0 357 
 VAVUNBZ  IAML    1037 29.04      651.91 0.20                          97.0 357 
 VBOKIBZ EPg  2   1037 16.71                              90    1.14 5  103   4 
 VBOKIBZ ESg  1   1037 28.39                              90   -0.64 7  103   4 
 VBOKIBZ  IAML    1037 30.33      594.08 0.14                           103   4 
 VEBENBZ EPg  0   1037 17.37                              90    1.1610  108 347 
 VEBENBZ ESg  2   1037 31.71                              90    1.53 5  108 347 
 VEBENBZ  IAML    1037 32.45      412.82 0.14                           108 347 
 OS03 SP EPg  0   1037 16.13                              90    0.5110  111 314 
 VTAMBBZ EPg  0   1037 17.97                              90    0.6110  117 355 
 VTAMBBZ ESg  1   1037 32.30                              90    0.08 7  117 355 
 VTAMBBZ  IAML    1037 33.89      1745.84 0.24                          117 355 
 VIRHOBZ EPg  0   1037 18.18                              90    0.6010  119   1 
 VIRHOBZ ESg  2   1037 32.55                              90   -0.06 5  119   1 
 VIRHOBZ  IAML    1037 34.33      312.21 0.14                           119   1 
 VLEBEBZ  IAML    1037 34.45       197.5 0.22                           124 349 
 VBUTMBZ EPg  0   1037 19.79                              90    0.5510  131 352 
 VBUTMBZ ESg  2   1037 35.67                              90    0.10 0  131 352 
 VBUTMBZ  IAML    1037 37.85      497.24 0.22                           131 352 
 VANGOBZ EPg  0   1037 14.29                              90   -6.1310  139 347 
 VANGOBZ ESg  2   1037 21.23                              90   -16.4 0  139 347 
 VANGOBZ  IAML    1037 33.25       69.84 0.18                           139 347 
 VKOLHBZ EPg  1   1037 21.59                              90    0.62 7  144 359 
 VKOLHBZ ESg  1   1037 38.43                              90   -0.22 7  144 359 
 VKOLHBZ  IAML    1037 38.67      440.53 0.20                           144 359 
                                                                                
 2008  6 1 1041 55.5 L -16.037 167.361 14.4  VAN  4 4.9 1.0LVAN                1
 GAP=186        6.09     148.7   177.2171.2  0.2321E+05 -0.1869E+05 -0.1973E+05E
 ACTION:UPD 12-03-27 14:01 OP:chb  STATUS:               ID:20080601104200 L   I
 2008-06-01-1041-22S.VNRC__100_MSEED                                           6
 STAT SP IPHASW D HRMM SECON CODA AMPLIT PERI AZIMU VELO AIN AR TRES W  DIS CAZ7
 VLAKABZ  IAML    1041 43.11       53.38 0.04                         10.00 139 
 VLAKABZ ESg  3   1041 57.51                             134   -5.32 210.00 139 
 VPOTOBZ ESg  2   1042  3.55                             104   -1.91 5 20.0 325 
 VPOTOBZ  IAML    1042  5.66       12.77 0.14                          20.0 325 
 VIRHOBZ EPg  1   1042 13.79                              91    4.53 7 67.4 345 
 VIRHOBZ  IAML    1042 14.83        8.66 0.12                          67.4 345 
 VIRHOBZ ESg  2   1042 36.76                              91   16.80 0 67.4 345 
 VTURTBZ ESg  2   1042 17.16                              91   -6.96 5 81.1 345 
 VTURTBZ  IAML    1042 18.85        9.92 0.16                          81.1 345 
                                                                                
 2008  6 1 1043 30.5 L -14.729 166.471 45.0  VAN  9 6.2 1.5LVAN                1
 GAP=322        8.97     191.2   117.9999.9  0.8737E+04  0.2486E+05 -0.4721E+06E
 ACTION:UPD 12-03-27 14:01 OP:chb  STATUS:               ID:20080601104330 L   I
 2008-06-01-1043-24S.VNRC__100_MSEED                                           6
 STAT SP IPHASW D HRMM SECON CODA AMPLIT PERI AZIMU VELO AIN AR TRES W  DIS CAZ7
 VWUSIBZ EPg  2   1043 44.83                              92    0.71 5 73.4 164 
 VWUSIBZ  IAML    1043 47.29        5.40 0.28                          73.4 164 
 VWUSIBZ ESg  3   1044  8.08                              92   13.31 2 73.4 164 
 VANGOBZ EPg  0   1043 45.05                              92    0.5810 77.0 145 
 VANGOBZ  IAML    1043 45.50       38.66 0.16                          77.0 145 
 VSARABZ ESg  1   1043 44.45                              92   -11.1 7 78.8 135 
 VSARABZ  IAML    1043 47.65       14.74 0.12                          78.8 135 
 VBUTMBZ EPg  0   1043 46.10                              91    0.2710 89.1 141 
 VBUTMBZ  IAML    1043 46.80       14.44 0.16                          89.1 141 
 VKOLHBZ EPg  1   1043 45.51                              91   -0.55 7 91.3 127 
 VKOLHBZ  IAML    1043 52.09       26.15 0.14                          91.3 127 
 VKOLHBZ ESg  3   1044  7.95                              91    9.72 2 91.3 127 
 VLEBEBZ EPg  0   1043 46.65                              91    0.4610 91.8 146 
 VLEBEBZ  IAML    1043 47.14       20.45 0.14                          91.8 146 
 VTURTBZ EPg  2   1043 46.76                              91   -0.23 5 99.9 132 
 VTURTBZ  IAML    1044  3.65       11.46 0.16                          99.9 132 
 VTURTBZ ESg  2   1044  8.73                              91    8.84 5 99.9 132 
 VIRHOBZ EPg  0   1043 48.50                              91   -0.0110  112 135 
 VIRHOBZ  IAML    1043 49.03       19.79 0.10                           112 135 
 VIRHOBZ ESg  2   1044 12.60                              91   10.00 5  112 135 
 VPOTOBZ ESg  3   1043 55.56                              91   -16.3 2  153 147 
 VPOTOBZ  IAML    1043 59.06        6.09 0.14                           153 147 
                                                                                
