 2008  5 1  0 8 11.0 R                       VAN  1                            1
 2008-05-01-0008-11S.VNRC__051_MSEED                                           6
 ACTION:UPD 12-03-27 13:59 OP:chb  STATUS:               ID:20080501000811 L   I
 STAT SP IPHASW D HRMM SECON CODA AMPLIT PERI AZIMU VELO AIN AR TRES W  DIS CAZ7
 VASAVBZ EPg  2    0 8 26.52                                                    
 VASAVBZ ESg  2    0 8 43.18                                                    
 VASAVBZ  IAML     0 8 45.14         8.6 0.20                                   
 VASAVBZ EP    A   0 8 26.93   14                                               
 VAVUNBZ EP    A   0 8 27.65   16                                               
 VESPIBZ EP    A   0 8 23.60    7                                               
 VNARWBZ EP    A   0 8 18.38    3                                               
 VSARABZ EP    A   0 8 28.91    4                                               
 VTAMBBZ EP    A   0 8 45.96    6                                               
                                                                                
 2008  5 1  013 32.4 R -13.095 165.424 38.5  VAN  5 .10 2.1LVAN                1
 GAP=355       0.330      33.2    72.4896.5  0.1451E+04  0.4624E+05 -0.9187E+03E
 2008-05-01-0013-55S.VNRC__051_MSEED                                           6
 ACTION:UPD 12-03-27 13:59 OP:chb  STATUS:               ID:20080501001332 L   I
 STAT SP IPHASW D HRMM SECON CODA AMPLIT PERI AZIMU VELO AIN AR TRES W  DIS CAZ7
 VSARABZ EPg  0    014 14.65                             9.2   0.01010291.0 145 
 VSARABZ  IAML     014 19.06         5.9 0.12                         291.0 145 
 VKOLHBZ EPg  2    014 15.86                             9.2   -.070 5300.0 142 
 VKOLHBZ  IAML     014 16.78         9.4 0.10                         300.0 142 
 VBUTMBZ EPg  2    014 16.44                             9.2   0.250 5302.0 146 
 VBUTMBZ  IAML     014 16.65         5.9 0.10                         302.0 146 
 VBUTMBZ ESg  3    014 50.35                             9.2   0.000 2302.0 146 
 VIRHOBZ EPg  2    014 19.00                             9.2   0.000 5323.0 144 
 VIRHOBZ  IAML     014 19.17         5.8 0.12                         323.0 144 
 VAVUNBZ EPg  1    014 20.73                             9.2   -.100 7337.0 147 
 VAVUNBZ  IAML     014 20.94         5.0 0.12                         337.0 147 
 VAVUNBZ EP    A   014 20.95    5                                               
 VBUTMBZ EP    A   014  6.38    3                                               
 VIRHOBZ EP    A   014 19.10    3                                               
 VLEVIBZ EP    A   015 48.83    3                                               
 VPOTOBZ EP    A   014 26.48   24                                               
 VSALEBZ EP    A   014 34.27    3                                               
 VSARABZ EP    A   014 14.80   33                                               
 VTAMBBZ EP    A   014  4.73    5                                               
                                                                                
 2008  5 1  015 24.2 L -15.062 167.670125.1  VAN 12 .30 2.5LVAN                1
 GAP=303       0.670       8.6    16.8 12.2  0.8834E+02 -0.1816E+03 -0.6915E+02E
 2008-05-01-0015-22S.VNRC__051_MSEED                                           6
 ACTION:UPD 12-03-27 13:59 OP:chb  STATUS:               ID:20080501001524 L   I
 STAT SP IPHASW D HRMM SECON CODA AMPLIT PERI AZIMU VELO AIN AR TRES W  DIS CAZ7
 VKOLHBZ EPg  0    015 42.26                            15.2   0.0301058.10 253 
 VKOLHBZ ESg  1    015 56.81                            15.2   0.520 758.10 253 
 VKOLHBZ  IAML     015 59.59       140.7 0.08                         58.10 253 
 VTURTBZ EPg  2    015 42.20                            15.1   -.100 561.50 241 
 VTURTBZ ESg  1    015 56.47                            15.1   0.050 761.50 241 
 VTURTBZ  IAML     015 57.93       137.1 0.08                         61.50 241 
 VIRHOBZ EPg  1    015 42.36                            14.9   -.250 765.70 230 
 VIRHOBZ ESg  2    015 56.67                            14.9   -.300 565.70 230 
 VIRHOBZ  IAML     015 57.71        30.2 0.12                         65.70 230 
 VSARABZ EPg  0    015 43.25                            14.5   0.0501075.10 256 
 VSARABZ ESg  1    015 57.90                            14.5   -.120 775.10 256 
 VSARABZ  IAML     016  0.23       192.8 0.10                         75.10 256 
 VTAMBBZ EPg  0    015 43.16                            14.4   -.2601078.40 235 
 VTAMBBZ ESg  1    015 57.95                            14.4   -.460 778.40 235 
 VTAMBBZ  IAML     015 59.78       143.3 0.26                         78.40 235 
 VBUTMBZ EPg  0    015 43.47                            14.4   -.0201078.80 246 
 VBUTMBZ ESg  1    015 58.42                            14.4   -.120 778.80 246 
 VBUTMBZ  IAML     015 59.72       137.6 0.10                         78.80 246 
 VLEBEBZ  IAML     015 49.32        81.3 0.16                         86.30 243 
 VLEBEBZ ESg  2    015 59.23                            14.1   -.260 586.30 243 
 VAVUNBZ EPg  0    015 44.12                            14.1   0.1301086.40 222 
 VAVUNBZ ESg  1    015 59.74                            14.1   0.310 786.40 222 
 VAVUNBZ  IAML     016  1.33        47.1 0.20                         86.40 222 
 VASAVBZ EPg  0    015 43.70                            14.1   -.3501087.40 212 
 VASAVBZ ESg  1    015 58.96                            14.1   -.580 787.40 212 
 VASAVBZ  IAML     016  0.19        61.1 0.18                         87.40 212 
 VANGOBZ EPg  1    015 44.53                            14.1   0.310 788.20 253 
 VANGOBZ ESg  1    016  0.13                            14.1   0.300 788.20 253 
 VANGOBZ  IAML     016  1.67       112.7 0.18                         88.20 253 
 VPOTOBZ ESg  2    016  2.23                            13.6   0.640 5102.0 206 
 VPOTOBZ  IAML     016  3.35        48.4 0.18                         102.0 206 
 VNARWBZ EPg  1    015 46.22                            13.4   0.590 7107.0 199 
 VNARWBZ ESg  2    016  2.79                            13.4   0.440 5107.0 199 
 VNARWBZ  IAML     016  4.62        37.8 0.12                         107.0 199 
 VASAVBZ EP    A   015 43.94   41                                               
 VAVUNBZ EP    A   015 44.35   43                                               
 VESPIBZ EP    A   016  4.26    6                                               
 VIRHOBZ EP    A   015 42.71   32                                               
 VKOLHBZ EP    A   015 42.31   52                                               
 VLEBEBZ EP    A   015 44.34   30                                               
 VLEVIBZ EP    A   015 48.58    3                                               
 VNARWBZ EP    A   015 46.30   34                                               
 VSARABZ EP    A   015 43.39   58                                               
 VTAMBBZ EP    A   015 43.22   35                                               
 VTURTBZ EP    A   015 42.27   31                                               
                                                                                
 2008  5 1  017 38.0 R                       VAN  2                            1
 2008-05-01-0017-38S.VNRC__051_MSEED                                           6
 ACTION:UPD 12-03-27 13:59 OP:chb  STATUS:               ID:20080501001738 L   I
 STAT SP IPHASW D HRMM SECON CODA AMPLIT PERI AZIMU VELO AIN AR TRES W  DIS CAZ7
 VAVUNBZ EPg  2    017 59.60                                                    
 VAVUNBZ  IAML     018 19.11         4.4 0.20                                   
 VSARABZ ESg  1    018 13.54                                                    
 VAVUNBZ ESg  2    018 18.87                                                    
 VSARABZ EPg  0    017 58.04                                                    
 VSARABZ  IAML     018 16.85         8.9 0.18                                   
 VAVUNBZ EP    A   017 59.85    5                                               
 VBUTMBZ EP    A   018  0.03    3                                               
 VKOLHBZ EP    A   017 58.01    4                                               
 VSARABZ EP    A   017 58.50   23                                               
                                                                                
 2008  5 1  021 54.5 L -15.193 168.238 52.8  VAN  6 .30 2.0LVAN                1
 GAP=325       0.610      32.4    60.7747.6  0.1903E+04 -0.4497E+05 -0.2379E+05E
 2008-05-01-0021-49S.VNRC__051_MSEED                                           6
 ACTION:UPD 12-03-27 13:59 OP:chb  STATUS:               ID:20080501002154 L   I
 STAT SP IPHASW D HRMM SECON CODA AMPLIT PERI AZIMU VELO AIN AR TRES W  DIS CAZ7
 VASAVBZ ESg  2    022 27.94                             9.5   -.520 5123.0 241 
 VASAVBZ  IAML     022 29.40        18.5 0.20                         123.0 241 
 VAVUNBZ EPg  2    022 14.57                             9.5   0.300 5129.0 247 
 VAVUNBZ ESg  2    022 29.57                             9.5   -.130 5129.0 247 
 VAVUNBZ  IAML     022 32.18        12.5 0.24                         129.0 247 
 VTAMBBZ EPg  1    022 14.67                             9.5   0.430 7129.0 256 
 VTAMBBZ ESg  1    022 29.49                             9.5   -.160 7129.0 256 
 VTAMBBZ  IAML     022 31.51        59.7 0.20                         129.0 256 
 VNARWBZ ESg  0    022 29.98                             9.5   0.00010130.0 228 
 VNARWBZ  IAML     022 31.46        55.5 0.14                         130.0 228 
 VPOTOBZ EPg  2    022 14.83                             9.5   0.270 5131.0 234 
 VPOTOBZ ESg  2    022 30.40                             9.5   0.180 5131.0 234 
 VPOTOBZ  IAML     022 31.84        22.8 0.18                         131.0 234 
 VBUTMBZ EPg  0    022 14.49                             9.5   -.39010134.0 262 
 VBUTMBZ ESg  1    022 31.16                             9.5   0.370 7134.0 262 
 VBUTMBZ  IAML     022 33.38        32.7 0.24                         134.0 262 
 VASAVBZ EP    A   022 13.94   24                                               
 VAVUNBZ EP    A   022 10.14   15                                               
 VBUTMBZ EP    A   022 14.60   35                                               
 VIRHOBZ EP    A   022 14.05    6                                               
 VPOTOBZ EP    A   022 15.10   11                                               
                                                                                
 2008  5 1  025 47.7 L -16.645 167.789 39.1  VAN  8 .40 2.3LVAN                1
 GAP=339       0.710      13.2    26.8474.4  0.2877E+03 -0.1077E+05 -0.3760E+04E
 2008-05-01-0025-43S.VNRC__051_MSEED                                           6
 ACTION:UPD 12-03-27 13:59 OP:chb  STATUS:               ID:20080501002547 L   I
 STAT SP IPHASW D HRMM SECON CODA AMPLIT PERI AZIMU VELO AIN AR TRES W  DIS CAZ7
 VLEVIBZ EPg  0    026  1.72                             9.1   -.3601079.10 313 
 VLEVIBZ ESg  2    026 12.82                             9.1   -.500 579.10 313 
 VLEVIBZ  IAML     026 15.83       161.2 0.18                         79.10 313 
 VNARWBZ EPg  0    026  2.87                             9.1   0.0201087.70 327 
 VNARWBZ ESg  2    026 15.22                             9.1   0.510 587.70 327 
 VNARWBZ  IAML     026 18.90       165.9 0.14                         87.70 327 
 VESPIBZ EPg  0    026  4.48                             9.1   0.4801098.00 319 
 VESPIBZ ESg  2    026 17.24                             9.1   0.500 598.00 319 
 VESPIBZ  IAML     026 17.73       240.2 0.28                         98.00 319 
 VPOTOBZ EPg  0    026  4.71                             9.1   0.17010101.0 326 
 VPOTOBZ ESg  2    026 18.24                             9.1   0.530 5101.0 326 
 VPOTOBZ  IAML     026 19.44       173.9 0.20                         101.0 326 
 VASAVBZ EPg  0    026  6.15                             9.1   -.17010117.0 330 
 VASAVBZ ESg  2    026 20.13                             9.1   -.750 5117.0 330 
 VASAVBZ  IAML     026 21.92        61.7 0.10                         117.0 330 
 VAVUNBZ EPg  0    026  8.15                             9.0   0.04010131.0 328 
 VAVUNBZ ESg  2    026 23.47                             9.0   -.590 5131.0 328 
 VAVUNBZ  IAML     026 25.00        42.5 0.18                         131.0 328 
 VIRHOBZ EPg  2    026 10.06                             9.0   0.150 5147.0 335 
 VIRHOBZ ESg  3    026 26.73                             9.0   -.540 2147.0 335 
 VIRHOBZ  IAML     026 28.67        21.6 0.18                         147.0 335 
 VBUTMBZ EPg  0    026 12.14                             9.0   -.24010166.0 329 
 VBUTMBZ  IAML     026 20.33        17.7 0.12                         166.0 329 
 VBUTMBZ ESg  2    026 32.17                             9.0   0.510 5166.0 329 
 VANGOBZ EP    A   026 15.80   41                                               
 VASAVBZ EP    A   026  6.23   51                                               
 VAVUNBZ EP    A   026  8.81   37                                               
 VIRHOBZ EP    A   026 10.17   37                                               
 VKOLHBZ EP    A   026 14.62   45                                               
 VLAKABZ EP    A   026  1.44   40                                               
 VLEBEBZ EP    A   026 17.98    4                                               
 VLEVIBZ EP    A   026  1.93   37                                               
 VNARWBZ EP    A   026  3.01   58                                               
 VPOTOBZ EP    A   026  4.89   40                                               
                                                                                
 2008  5 1  027 17.0 R                       VAN  2                            1
 2008-05-01-0027-17S.VNRC__051_MSEED                                           6
 ACTION:UPD 12-03-27 13:59 OP:chb  STATUS:               ID:20080501002717 L   I
 STAT SP IPHASW D HRMM SECON CODA AMPLIT PERI AZIMU VELO AIN AR TRES W  DIS CAZ7
 VASAVBZ EPg  2    027 48.73                                                    
 VASAVBZ  IAML     028  1.29        15.6 0.20                                   
 VAVUNBZ ESg  2    028  2.66                                                    
 VASAVBZ ESg  2    027 59.35                                                    
 VAVUNBZ  IAML     028  3.95        14.1 0.16                                   
 VASAVBZ EP    A   027 48.81   24                                               
 VEBENBZ EP    A   027 37.10    7                                               
                                                                                
 2008  5 1  029 19.9 L -15.387 167.707115.0  VAN  9 .30 2.0LVAN                1
 GAP=294       0.550       8.2    18.4 12.5  0.1031E+03 -0.2093E+03 -0.6601E+02E
 2008-05-01-0029-16S.VNRC__051_MSEED                                           6
 ACTION:UPD 12-03-27 13:59 OP:chb  STATUS:               ID:20080501002919 L   I
 STAT SP IPHASW D HRMM SECON CODA AMPLIT PERI AZIMU VELO AIN AR TRES W  DIS CAZ7
 VIRHOBZ EPg  1    029 36.48                            15.1   -.220 754.50 263 
 VIRHOBZ  IAML     029 36.92        12.2 0.12                         54.50 263 
 VIRHOBZ ESg  2    029 49.37                            15.1   -.440 554.50 263 
 VTURTBZ ESg  2    029 49.59                            14.9   -.470 558.40 276 
 VTURTBZ  IAML     029 51.60        36.9 0.10                         58.40 276 
 VKOLHBZ EPg  1    029 37.37                            14.7   0.200 762.20 287 
 VKOLHBZ ESg  1    029 50.94                            14.7   0.290 762.20 287 
 VKOLHBZ  IAML     029 52.28        67.8 0.12                         62.20 287 
 VASAVBZ EPg  1    029 36.99                            14.7   -.250 763.10 233 
 VASAVBZ ESg  1    029 50.62                            14.7   -.160 763.10 233 
 VASAVBZ  IAML     029 52.85        16.0 0.22                         63.10 233 
 VAVUNBZ EPg  1    029 37.54                            14.5   -.010 768.00 245 
 VAVUNBZ ESg  2    029 51.33                            14.5   0.000 568.00 245 
 VAVUNBZ  IAML     029 53.62        10.7 0.20                         68.00 245 
 VTAMBBZ EPg  2    029 37.53                            14.4   -.040 568.80 262 
 VTAMBBZ ESg  1    029 51.08                            14.4   -.280 768.80 262 
 VTAMBBZ  IAML     029 55.10        39.7 0.22                         68.80 262 
 VPOTOBZ EPg  2    029 38.29                            14.2   0.280 573.80 221 
 VPOTOBZ ESg  2    029 53.13                            14.2   0.970 573.80 221 
 VPOTOBZ  IAML     029 54.11        27.8 0.16                         73.80 221 
 VBUTMBZ EPg  0    029 38.03                            14.1   -.0701076.20 273 
 VBUTMBZ ESg  1    029 52.13                            14.1   -.180 776.20 273 
 VBUTMBZ  IAML     029 54.00        25.4 0.12                         76.20 273 
 VSARABZ EPg  0    029 38.32                            14.0   0.1001078.70 283 
 VSARABZ ESg  0    029 52.75                            14.0   0.2201078.70 283 
 VSARABZ  IAML     029 53.91        88.0 0.12                         78.70 283 
 VASAVBZ EP    A   029 37.30   25                                               
 VAVUNBZ EP    A   029 37.74   13                                               
 VKOLHBZ EP    A   029 37.70   28                                               
 VNARWBZ EP    A   029 38.50    5                                               
 VSARABZ EP    A   029 38.59   40                                               
                                                                                
