 2008  5 1  232 32.4 R -15.457 167.805138.5  VAN  4 .30 2.2LVAN                1
 GAP=290       0.530      14.9    31.8 16.8  0.3503E+03 -0.4742E+03 -0.1667E+03E
 2008-05-01-0232-16S.VNRC__051_MSEED                                           6
 ACTION:UPD 12-03-27 13:59 OP:chb  STATUS:               ID:20080501023232 L   I
 STAT SP IPHASW D HRMM SECON CODA AMPLIT PERI AZIMU VELO AIN AR TRES W  DIS CAZ7
 VTURTBZ ESg  1    233  7.53                            15.0   -.240 770.00 282 
 VTURTBZ  IAML     233  7.86        31.2 0.12                         70.00 282 
 VKOLHBZ EPg  2    232 53.32                            14.9   0.660 574.70 291 
 VKOLHBZ ESg  1    233  8.47                            14.9   0.030 774.70 291 
 VKOLHBZ  IAML     233  9.37        38.8 0.08                         74.70 291 
 VNARWBZ ESg  2    233  8.85                            14.8   0.080 576.20 221 
 VNARWBZ  IAML     233  9.57        34.9 0.12                         76.20 221 
 VSARABZ EPg  0    232 53.48                            14.3   -.1701090.80 286 
 VSARABZ ESg  0    233 10.32                            14.3   0.1101090.80 286 
 VSARABZ  IAML     233 10.95        34.5 0.14                         90.80 286 
 VBUTMBZ EP    A   232 25.96    3                                               
 VLEBEBZ EP    A   232 36.13    3                                               
 VPOTOBZ EP    A   232 53.30    5                                               
                                                                                
 2008  5 1  235 16.5 R -15.969 167.632 29.0  VAN  5 .10 1.7LVAN                1
 GAP=313       0.300      10.6    12.7 20.4  0.1276E+03 -0.2454E+03 -0.2104E+03E
 2008-05-01-0235-01S.VNRC__051_MSEED                                           6
 ACTION:UPD 12-03-27 13:59 OP:chb  STATUS:               ID:20080501023516 L   I
 STAT SP IPHASW D HRMM SECON CODA AMPLIT PERI AZIMU VELO AIN AR TRES W  DIS CAZ7
 VNARWBZ EPg  0    235 24.15                            12.1   -.0801031.00 268 
 VNARWBZ ESg  1    235 30.31                            12.1   0.040 731.00 268 
 VNARWBZ  IAML     235 31.36       108.0 0.14                         31.00 268 
 VASAVBZ EPg  1    235 26.61                            10.6   0.090 749.50 302 
 VASAVBZ ESg  1    235 34.34                            10.6   -.010 749.50 302 
 VASAVBZ  IAML     235 34.57        32.8 0.28                         49.50 302 
 VAVUNBZ EPg  2    235 28.74                             9.9   0.150 564.70 304 
 VAVUNBZ ESg  1    235 38.07                             9.9   0.040 764.70 304 
 VAVUNBZ  IAML     235 38.86        19.6 0.14                         64.70 304 
 VBUTMBZ ESg  2    235 45.61                             9.3   -.220 596.40 315 
 VBUTMBZ  IAML     235 46.18        30.1 0.12                         96.40 315 
 VANGOBZ ESg  2    235 49.20                             9.2   0.010 5109.0 313 
 VANGOBZ  IAML     235 53.23        31.4 0.20                         109.0 313 
 VESPIBZ EP    A   235 26.60   16                                               
 VKOLHBZ EP    A   235 21.49   63                                               
 VLAKABZ EP    A   235 23.46    3                                               
 VLEBEBZ EP    A   235 22.69   11                                               
 VNARWBZ EP    A   235 24.18   21                                               
 VSARABZ EP    A   235 22.41   67                                               
                                                                                
 2008  5 1  239 18.0 R -14.091 167.591192.1  VAN  4 .20 2.1LVAN                1
 GAP=346       0.360      57.2    43.2 57.6  0.1829E+04 -0.2059E+04 -0.3225E+04E
 2008-05-01-0239-13S.VNRC__051_MSEED                                           6
 ACTION:UPD 12-03-27 13:59 OP:chb  STATUS:               ID:20080501023918 L   I
 STAT SP IPHASW D HRMM SECON CODA AMPLIT PERI AZIMU VELO AIN AR TRES W  DIS CAZ7
 VSARABZ EPg  0    239 47.31                            14.1   -.08010141.0 207 
 VSARABZ  IAML     239 50.51         8.4 0.08                         141.0 207 
 VSARABZ ESg  2    240 10.41                            14.1   0.100 5141.0 207 
 VTURTBZ ESg  2    240 10.58                            14.0   0.090 5144.0 198 
 VTURTBZ  IAML     240 12.37        17.9 0.16                         144.0 198 
 VANGOBZ ESg  2    240 12.14                            13.9   0.040 5154.0 210 
 VANGOBZ  IAML     240 19.15        28.7 0.26                         154.0 210 
 VIRHOBZ EPg  2    239 48.70                            13.8   0.310 5156.0 195 
 VIRHOBZ  IAML     239 49.60         3.4 0.10                         156.0 195 
 VIRHOBZ ESg  2    240 11.88                            13.8   -.230 5156.0 195 
 VANGOBZ EP    A   240 13.11    6                                               
 VAVUNBZ EP    A   239 51.93   11                                               
 VIRHOBZ EP    A   239 49.61    3                                               
 VKOLHBZ EP    A   239 47.51   51                                               
                                                                                
 2008  5 1  257 55.0 R                       VAN                               1
 2008-05-01-0257-55S.VNRC__051_MSEED                                           6
 ACTION:UPD 12-03-27 13:59 OP:chb  STATUS:               ID:20080501025755 L   I
 STAT SP IPHASW D HRMM SECON CODA AMPLIT PERI AZIMU VELO AIN AR TRES W  DIS CAZ7
                                                                                
 2008  5 1  3 2 33.4 R -14.882 167.273103.3  VAN  3 .00 1.7LVAN                1
 GAP=325       0.340      23.4    21.3 20.4  0.4184E+03 -0.3694E+03 -0.4511E+03E
 2008-05-01-0302-25S.VNRC__051_MSEED                                           6
 ACTION:UPD 12-03-27 13:59 OP:chb  STATUS:               ID:20080501030233 L   I
 STAT SP IPHASW D HRMM SECON CODA AMPLIT PERI AZIMU VELO AIN AR TRES W  DIS CAZ7
 VSARABZ EPg  0    3 2 48.80                            15.1   0.0001048.90 218 
 VSARABZ ESg  1    3 3  0.81                            15.1   0.000 748.90 218 
 VSARABZ  IAML     3 3  1.06        26.6 0.20                         48.90 218 
 VANGOBZ ESg  2    3 3  2.45                            14.5   -.000 562.10 222 
 VANGOBZ  IAML     3 3  3.45        16.3 0.18                         62.10 222 
 VIRHOBZ ESg  1    3 3  2.28                            14.4   -.000 763.00 187 
 VIRHOBZ  IAML     3 3  2.80        17.5 0.14                         63.00 187 
 VKOLHBZ EP    A   3 2 48.92    5                                               
 VLEBEBZ EP    A   3 2 34.20   18                                               
 VNARWBZ EP    A   3 2 48.20    3                                               
 VPOTOBZ EP    A   3 2 32.92    5                                               
 VSARABZ EP    A   3 2 48.83   31                                               
                                                                                
 2008  5 1  3 2 33.4 R -14.882 167.273103.3  VAN  3 .00 1.7LVAN                1
 GAP=325       0.340      23.4    21.3 20.4  0.4184E+03 -0.3694E+03 -0.4511E+03E
 2008-05-01-0302-27S.VNRC__051_MSEED                                           6
 ACTION:UPD 12-03-27 13:59 OP:chb  STATUS:               ID:20080501030234dL   I
 STAT SP IPHASW D HRMM SECON CODA AMPLIT PERI AZIMU VELO AIN AR TRES W  DIS CAZ7
 VSARABZ EPg  0    3 2 48.80                            15.1   0.0001048.90 218 
 VSARABZ ESg  1    3 3  0.81                            15.1   0.000 748.90 218 
 VSARABZ  IAML     3 3  1.06        26.6 0.20                         48.90 218 
 VANGOBZ ESg  2    3 3  2.45                            14.5   -.000 562.10 222 
 VANGOBZ  IAML     3 3  3.45        16.3 0.18                         62.10 222 
 VIRHOBZ ESg  1    3 3  2.28                            14.4   -.000 763.00 187 
 VIRHOBZ  IAML     3 3  2.80        17.5 0.14                         63.00 187 
 VNARWBZ EP    A   3 2 48.20    3                                               
 VPOTOBZ EP    A   3 2 31.94    6                                               
 VSARABZ EP    A   3 2 48.82   31                                               
                                                                                
 2008  5 1  3 3 26.0 R                       VAN  2                            1
 2008-05-01-0303-26S.VNRC__051_MSEED                                           6
 ACTION:UPD 12-03-27 13:59 OP:chb  STATUS:               ID:20080501030326 L   I
 STAT SP IPHASW D HRMM SECON CODA AMPLIT PERI AZIMU VELO AIN AR TRES W  DIS CAZ7
 VASAVBZ EPg  0    3 4  0.34                                                    
 VASAVBZ  IAML     3 4  1.77        15.5 0.22                                   
 VSARABZ ESg  2    3 4 15.81                                                    
 VASAVBZ ESg  2    3 4 14.24                                                    
 VSARABZ EPg  1    3 4  2.22                                                    
 VSARABZ  IAML     3 4  2.72        29.8 0.10                                   
 VKOLHBZ EP    A   3 3 46.08   37                                               
                                                                                
 2008  5 1  313 56.0 R                       VAN  2                            1
 2008-05-01-0313-38S.VNRC__051_MSEED                                           6
 ACTION:UPD 12-03-27 13:59 OP:chb  STATUS:               ID:20080501031356 L   I
 STAT SP IPHASW D HRMM SECON CODA AMPLIT PERI AZIMU VELO AIN AR TRES W  DIS CAZ7
 VSARABZ EPg  1    314  1.79                                                    
 VSARABZ ESg  2    314 17.27                                                    
 VSARABZ  IAML     314 17.92         7.0 0.08                                   
 VASAVBZ ESg  2    314 14.93                                                    
 VASAVBZ  IAML     314 18.63         3.6 0.20                                   
 VKOLHBZ EP    A   314  1.38    3                                               
 VSARABZ EP    A   314  2.13   26                                               
                                                                                
 2008  5 1  320 54.1 R -15.676 167.232 20.0  VAN  3 .00 1.3LVAN                1
 GAP=180       0.320       2.4     3.8  5.4  0.2090E+01 -0.2323E+01 -0.1057E+02E
 2008-05-01-0320-07S.VNRC__051_MSEED                                           6
 ACTION:UPD 12-03-27 13:59 OP:chb  STATUS:               ID:20080501032054 L   I
 STAT SP IPHASW D HRMM SECON CODA AMPLIT PERI AZIMU VELO AIN AR TRES W  DIS CAZ7
 VASAVBZ EPg  1    320 58.50                            15.5   0.060 76.450 173 
 VASAVBZ ESg  1    321  1.78                            15.5   -.030 76.450 173 
 VASAVBZ  IAML     321  2.17       126.3 0.18                         6.450 173 
 VAVUNBZ EPg  1    320 58.79                            13.8   -.050 711.40 289 
 VAVUNBZ ESg  2    321  2.60                            13.8   0.070 511.40 289 
 VAVUNBZ  IAML     321  2.78        36.4 0.20                         11.40 289 
 VIRHOBZ ESg  0    321  5.48                            10.6   -.0001025.50 353 
 VIRHOBZ  IAML     321  5.96        45.4 0.08                         25.50 353 
 VAVUNBZ EP    A   320 28.23    5                                               
 VESPIBZ EP    A   320 27.36    3                                               
 VNARWBZ EP    A   320 28.10    5                                               
 VPOTOBZ EP    A   320 11.27    5                                               
 VSARABZ EP    A   320 28.11   90                                               
 VTURTBZ EP    A   320 26.15   22                                               
                                                                                
 2008  5 1  320 54.1 R -15.676 167.232 20.0  VAN  3 .00 1.3LVAN                1
 GAP=180       0.320       2.4     3.8  5.4  0.2090E+01 -0.2323E+01 -0.1057E+02E
 2008-05-01-0319-52S.VNRC__051_MSEED                                           6
 ACTION:UPD 12-03-27 13:59 OP:chb  STATUS:               ID:20080501032055dL   I
 STAT SP IPHASW D HRMM SECON CODA AMPLIT PERI AZIMU VELO AIN AR TRES W  DIS CAZ7
 VASAVBZ EPg  1    320 58.50                            15.5   0.060 76.450 173 
 VASAVBZ ESg  1    321  1.78                            15.5   -.030 76.450 173 
 VASAVBZ  IAML     321  2.17       126.3 0.18                         6.450 173 
 VAVUNBZ EPg  1    320 58.79                            13.8   -.050 711.40 289 
 VAVUNBZ ESg  2    321  2.60                            13.8   0.070 511.40 289 
 VAVUNBZ  IAML     321  2.78        36.4 0.20                         11.40 289 
 VIRHOBZ ESg  0    321  5.48                            10.6   -.0001025.50 353 
 VIRHOBZ  IAML     321  5.96        45.4 0.08                         25.50 353 
 VANGOBZ EP    A   320 16.90    5                                               
 VNARWBZ EP    A   320 28.28    5                                               
 VSARABZ EP    A   320 28.07   83                                               
 VTURTBZ EP    A   320 26.71   21                                               
                                                                                
 2008  5 1  336  4.1 R -15.394 167.014 24.7  VAN  4 3.9 1.0LVAN                1
 GAP=157        6.65     324.3   150.0742.2  0.4463E+05  0.9771E+05  0.2378E+06E
 2008-05-01-0335-50S.VNRC__051_MSEED                                           6
 ACTION:UPD 12-03-27 13:59 OP:chb  STATUS:               ID:20080501033607 L   I
 STAT SP IPHASW D HRMM SECON CODA AMPLIT PERI AZIMU VELO AIN AR TRES W  DIS CAZ7
 VANGOBZ EPg  0    336 11.54                            13.3    1.551017.60 308 
 VANGOBZ  IAML     336 12.98        48.5 0.16                         17.60 308 
 VSARABZ ESg  1    336  9.99                            13.2   -4.51 718.40 353 
 VSARABZ  IAML     336 12.12        17.2 0.10                         18.40 353 
 VIRHOBZ EPg  1    336 14.43                            12.7    4.21 721.20 106 
 VIRHOBZ  IAML     336 17.65        11.4 0.12                         21.20 106 
 VNARWBZ ESg  2    336 22.35                             9.5   -5.52 573.80 151 
 VNARWBZ  IAML     336 28.76         9.9 0.14                         73.80 151 
 VANGOBZ EP    A   336 11.65   68                                               
 VASAVBZ EP    A   336 20.74    4                                               
 VAVUNBZ EP    A   336 16.50   27                                               
 VKOLHBZ EP    A   336 10.65   84                                               
 VLEBEBZ EP    A   336 13.97    9                                               
 VNARWBZ EP    A   336 22.97   13                                               
 VSARABZ EP    A   336 10.71   97                                               
                                                                                
 2008  5 1  350  8.0 R                       VAN  2                            1
 2008-05-01-0350-08S.VNRC__051_MSEED                                           6
 ACTION:UPD 12-03-27 13:59 OP:chb  STATUS:               ID:20080501035008 L   I
 STAT SP IPHASW D HRMM SECON CODA AMPLIT PERI AZIMU VELO AIN AR TRES W  DIS CAZ7
 VSARABZ EPg  0    350 28.69                                                    
 VSARABZ  IAML     350 29.06         6.9 0.12                                   
 VSARABZ ESg  2    350 45.98                                                    
 VKOLHBZ ESg  3    350 44.96                                                    
 VKOLHBZ  IAML     350 47.81         7.1 0.18                                   
 VSARABZ EP    A   350 28.85   13                                               
                                                                                
 2008  5 1  352  2.0 R                       VAN  2                            1
 2008-05-01-0352-02S.VNRC__051_MSEED                                           6
 ACTION:UPD 12-03-27 13:59 OP:chb  STATUS:               ID:20080501035202 L   I
 STAT SP IPHASW D HRMM SECON CODA AMPLIT PERI AZIMU VELO AIN AR TRES W  DIS CAZ7
 VASAVBZ ESg  2    352 35.19                                                    
 VASAVBZ  IAML     352 35.59         3.9 0.22                                   
 VKOLHBZ ESg  2    352 35.05                                                    
 VKOLHBZ  IAML     352 37.26        10.7 0.10                                   
 VANGOBZ EP    A   353 35.99   19                                               
 VEBENBZ EP    A   352 43.06    3                                               
 VKOLHBZ EP    A   352 36.56    4                                               
                                                                                
 2008  5 1  440 39.0 R                       VAN                               1
 2008-05-01-0440-39S.VNRC__051_MSEED                                           6
 ACTION:UPD 12-03-27 13:59 OP:chb  STATUS:               ID:20080501044039 L   I
 STAT SP IPHASW D HRMM SECON CODA AMPLIT PERI AZIMU VELO AIN AR TRES W  DIS CAZ7
 VANGOBZ EP    A   441 11.83    8                                               
 VKOLHBZ EP    A   441 11.75    8                                               
 VSARABZ EP    A   441 10.84   27                                               
                                                                                
