 2008  6 1 0405 35.9 L -14.315 167.310186.0  VAN 13 0.3 2.3LVAN                1
 GAP=331        0.64      13.2    13.4  9.3  0.1047E+02 -0.1609E+02 -0.1071E+03E
 ACTION:UPD 12-03-27 14:01 OP:chb  STATUS:               ID:20080601040535 L   I
 2008-06-01-0405-42S.VNRC__100_MSEED                                           6
 STAT SP IPHASW D HRMM SECON CODA AMPLIT PERI AZIMU VELO AIN AR TRES W  DIS CAZ7
 VKOLHBZ EPg  0    4 6  2.01                             149   -0.1510  101 189 
 VKOLHBZ  IAML     4 6  3.69       42.49 0.10                           101 189 
 VKOLHBZ ESg  1    4 6 22.31                             149   -0.36 7  101 189 
 VSARABZ EPg  0    4 6  2.50                             148    0.0410  107 199 
 VSARABZ  IAML     4 6  4.36       50.55 0.12                           107 199 
 VSARABZ ESg  1    4 6 23.25                             148    0.05 7  107 199 
 VTURTBZ EPg  2    4 6  2.87                             146    0.13 5  113 188 
 VTURTBZ  IAML     4 6 10.95       14.83 0.14                           113 188 
 VTURTBZ ESg  1    4 6 23.09                             146   -0.62 7  113 188 
 VANGOBZ EPg  1    4 6  3.64                             145    0.37 7  118 203 
 VANGOBZ  IAML     4 6  3.92       55.78 0.18                           118 203 
 VANGOBZ ESg  2    4 6 25.02                             145    0.37 5  118 203 
 VBUTMBZ EPg  0    4 6  3.57                             145    0.2810  119 196 
 VBUTMBZ  IAML     4 6  4.33       25.98 0.08                           119 196 
 VBUTMBZ ESg  1    4 6 24.86                             145    0.19 7  119 196 
 VIRHOBZ EPg  0    4 6  3.52                             144   -0.1110  126 185 
 VIRHOBZ  IAML     4 6  3.84       19.12 0.18                           126 185 
 VIRHOBZ ESg  1    4 6 25.06                             144   -0.23 7  126 185 
 VLEBEBZ EPg  1    4 6  4.02                             143    0.16 7  128 197 
 VLEBEBZ  IAML     4 6 11.66       24.69 0.12                           128 197 
 VLEBEBZ ESg  0    4 6 25.86                             143    0.1710  128 197 
 VTAMBBZ EPg  2    4 6  3.95                             143   -0.00 5  130 191 
 VTAMBBZ  IAML     4 6 15.27       30.43 0.26                           130 191 
 VTAMBBZ ESg  1    4 6 25.93                             143    0.07 7  130 191 
 VWUSIBZ EPg  0    4 6  4.79                             141    0.2510  136 211 
 VWUSIBZ  IAML     4 6  4.89       29.58 0.10                           136 211 
 VWUSIBZ ESg  2    4 6 27.04                             141    0.13 5  136 211 
 VAVUNBZ EPg  0    4 6  5.51                             139    0.2510  148 187 
 VAVUNBZ  IAML     4 6  6.54       11.59 0.12                           148 187 
 VAVUNBZ ESg  2    4 6 28.73                             139    0.54 5  148 187 
 VASAVBZ EPg  2    4 6  6.13                             137    0.21 5  157 183 
 VASAVBZ  IAML     4 6  7.64        8.33 0.16                           157 183 
 VASAVBZ ESg  1    4 6 29.44                             137    0.07 7  157 183 
 OS01 SP EPg  0    4 6  4.91                             136   -0.5110  159 212 
 OS04 SP EPg  0    4 6  7.02                             132   -0.3910  183 202 
                                                                                
 2008  6 1 0413 58.8 L -12.837 165.473 16.2  VAN  4 1.0 2.0LVAN                1
 GAP=349        1.70     113.1   104.4999.9  0.4403E+04  0.4032E+07 -0.7620E+07E
 ACTION:UPD 12-03-27 14:01 OP:chb  STATUS:               ID:20080601041358 L   I
 2008-06-01-0414-28S.VNRC__100_MSEED                                           6
 STAT SP IPHASW D HRMM SECON CODA AMPLIT PERI AZIMU VELO AIN AR TRES W  DIS CAZ7
 VSARABZ EPg  2    414 47.69                              90    0.50 5  311 148 
 VSARABZ  IAML     414 51.09        4.44 0.08                           311 148 
 VSARABZ ESg  2    415 24.90                              90   -0.01 5  311 148 
 OS04 SP EPg  0    414 52.95                              90   -0.6010  358 159 
 VAVUNBZ EPg  2    414 52.14                              90   -1.99 5  358 150 
 VAVUNBZ  IAML     414 53.23        4.55 0.08                           358 150 
 OS10 SP EPg  0    415  1.56                              90    0.9710  407 156 
                                                                                
 2008  6 1 0415  3.7 L -15.518 167.519 15.0  VAN  3 0.0 1.9LVAN                1
 GAP=239        0.30       9.4    13.2  0.0  0.1163E+03  0.4032E+07 -0.7620E+07E
 ACTION:UPD 12-03-27 14:01 OP:chb  STATUS:               ID:20080601041505 L   I
 2008-06-01-0414-57S.VNRC__100_MSEED                                           6
 STAT SP IPHASW D HRMM SECON CODA AMPLIT PERI AZIMU VELO AIN AR TRES W  DIS CAZ7
 VKOLHBZ ESg  3    415 23.19                              93   -0.00 2 51.3 310 
 VKOLHBZ  IAML     415 26.21       23.10 0.10                          51.3 310 
 VBUTMBZ ESg  3    415 25.57                              92    0.00 2 58.8 288 
 VBUTMBZ  IAML     415 29.37       18.75 0.22                          58.8 288 
 VLAKABZ EPg  2    415 17.37                              92    0.00 5 65.8 189 
 VLAKABZ  IAML     415 17.48      1143.86 0.02                         65.8 189 
                                                                                
 2008  6 1 0429  3.1 L -14.594 167.509120.4  VAN  5 0.1 1.9LVAN                1
 GAP=338        0.31      27.8    18.1 30.3  0.3429E+03 -0.4376E+03 -0.8124E+03E
 ACTION:UPD 12-03-27 14:01 OP:chb  STATUS:               ID:20080601042903 L   I
 2008-06-01-0429-02S.VNRC__100_MSEED                                           6
 STAT SP IPHASW D HRMM SECON CODA AMPLIT PERI AZIMU VELO AIN AR TRES W  DIS CAZ7
 VIRHOBZ EPg  1    429 23.32                             135   -0.09 7 99.9 199 
 VIRHOBZ ESg  1    429 39.36                             135    0.08 7 99.9 199 
 VIRHOBZ  IAML     429 39.81       11.93 0.24                          99.9 199 
 VBUTMBZ EPg  0    429 23.46                             135   -0.0410  100 213 
 VBUTMBZ ESg  1    429 39.39                             135   -0.04 7  100 213 
 VBUTMBZ  IAML     429 41.56       28.75 0.18                           100 213 
 VANGOBZ EPg  2    429 24.08                             134    0.29 5  103 221 
 VANGOBZ ESg  3    429 40.00                             134    0.05 2  103 221 
 VANGOBZ  IAML     429 42.54       23.37 0.16                           103 221 
 VLEBEBZ ESg  2    429 40.62                             133   -0.09 5  109 213 
 VLEBEBZ  IAML     429 42.03       33.06 0.16                           109 213 
 VAVUNBZ EPg  2    429 25.44                             129    0.06 5  123 199 
 VAVUNBZ  IAML     429 25.83        6.43 0.08                           123 199 
                                                                                
 2008  6 1 0446 20.8 L -15.537 167.573 70.6  VAN  4 0.0 1.4LVAN                1
 GAP=283        0.34      12.0    34.2 31.8  0.2960E+03  0.3986E+03 -0.1078E+03E
 ACTION:UPD 12-03-27 14:01 OP:chb  STATUS:               ID:20080601044623 L   I
 2008-06-01-0446-09S.VNRC__100_MSEED                                           6
 STAT SP IPHASW D HRMM SECON CODA AMPLIT PERI AZIMU VELO AIN AR TRES W  DIS CAZ7
 VASAVBZ ESg  1    446 42.00                             143    0.00 7 41.9 239 
 VASAVBZ  IAML     446 42.64       18.28 0.08                          41.9 239 
 VPOTOBZ ESg  2    446 43.48                             136    0.00 5 51.8 221 
 VPOTOBZ  IAML     446 44.74        9.26 0.18                          51.8 221 
 VLEBEBZ ESg  2    446 45.82                             127   -0.00 5 67.9 281 
 VLEBEBZ  IAML     446 48.05       11.26 0.14                          67.9 281 
 VSARABZ ESg  2    446 46.18                             125    0.00 5 71.0 299 
 VSARABZ  IAML     446 47.41       17.09 0.12                          71.0 299 
                                                                                
 2008  6 1  449 40.0 L                       VAN  4                            1
 ACTION:UPD 12-03-27 14:01 OP:chb  STATUS:               ID:20080601044940 L   I
 2008-06-01-0449-40S.VNRC__100_MSEED                                           6
 STAT SP IPHASW D HRMM SECON CODA AMPLIT PERI AZIMU VELO AIN AR TRES W  DIS CAZ7
 VBUTMBZ ESg  2    450 36.64                                                    
 VIRHOBZ ESg  3    450 38.83                                                    
 VKOLHBZ ESg  2    450 33.35                                                    
 VSARABZ ESg  1    450 33.10                                                    
 VBUTMBZ  IAML     450 40.94       10.71 0.18                                   
 VIRHOBZ  IAML     450 40.49        4.06 0.14                                   
 VKOLHBZ  IAML     450 36.15       17.38 0.10                                   
 VSARABZ  IAML     450 34.34       18.43 0.08                                   
                                                                                
 2008  6 1 0505 34.6 L -15.606 167.822159.5  VAN 13 0.3 2.4LVAN                1
 GAP=302        0.51       7.7    14.3  6.8  0.5613E+02 -0.7913E+02 -0.1917E+02E
 ACTION:UPD 12-03-27 14:01 OP:chb  STATUS:               ID:20080601050534 L   I
 2008-06-01-0505-36S.VNRC__100_MSEED                                           6
 STAT SP IPHASW D HRMM SECON CODA AMPLIT PERI AZIMU VELO AIN AR TRES W  DIS CAZ7
 VBOKIBZ EPg  2    5 5 56.72                             157    0.35 5 62.1 271 
 VBOKIBZ ESg  1    5 6 13.03                             157   -0.30 7 62.1 271 
 VBOKIBZ  IAML     5 6 13.32       45.09 0.22                          62.1 271 
 VASAVBZ EPg  1    5 5 56.62                             156    0.22 7 64.0 257 
 VASAVBZ ESg  1    5 6 13.35                             156   -0.04 7 64.0 257 
 VASAVBZ  IAML     5 6 15.05       32.88 0.18                          64.0 257 
 VPOTOBZ EPg  0    5 5 57.02                             155    0.3210 68.4 243 
 VPOTOBZ ESg  2    5 6 14.02                             155    0.09 5 68.4 243 
 VPOTOBZ  IAML     5 6 14.27       41.70 0.20                          68.4 243 
 VIRHOBZ EPg  0    5 5 56.28                             155   -0.2810 68.6 285 
 VIRHOBZ ESg  2    5 6 13.35                             155   -0.33 5 68.6 285 
 VIRHOBZ  IAML     5 6 13.70       17.57 0.16                          68.6 285 
 VAVUNBZ EPg  0    5 5 57.00                             153    0.1010 74.2 267 
 VAVUNBZ ESg  2    5 6 14.22                             153   -0.05 5 74.2 267 
 VAVUNBZ  IAML     5 6 16.55       22.37 0.26                          74.2 267 
 VTAMBBZ EPg  2    5 5 57.12                             150   -0.16 5 81.9 281 
 VTAMBBZ ESg  2    5 6 15.24                             150    0.29 5 81.9 281 
 VTAMBBZ  IAML     5 6 16.60       65.99 0.20                          81.9 281 
 VKOLHBZ EPg  0    5 5 57.36                             150   -0.0110 83.4 301 
 VKOLHBZ ESg  1    5 6 14.93                             150   -0.18 7 83.4 301 
 VKOLHBZ  IAML     5 6 15.99       74.09 0.12                          83.4 301 
 VBUTMBZ EPg  0    5 5 58.01                             147    0.0610 92.7 288 
 VBUTMBZ ESg  2    5 6 16.16                             147    0.02 5 92.7 288 
 VBUTMBZ  IAML     5 6 16.86       35.74 0.18                          92.7 288 
 VLEBEBZ EPg  0    5 5 58.12                             146   -0.0310 95.6 283 
 VLEBEBZ ESg  2    5 6 16.96                             146    0.46 5 95.6 283 
 VLEBEBZ  IAML     5 6 18.05       38.33 0.20                          95.6 283 
 VSARABZ EPg  0    5 5 58.22                             145   -0.0210 98.2 295 
 VSARABZ ESg  1    5 6 16.71                             145    0.06 7 98.2 295 
 VSARABZ  IAML     5 6 17.71       87.49 0.10                          98.2 295 
 OS05 SP EPg  1    5 5 57.50                             145   -0.41 7  100 257 
 VANGOBZ EPg  0    5 5 59.03                             143    0.1410  106 289 
 VANGOBZ  IAML     5 6  0.07       44.43 0.14                           106 289 
 VANGOBZ ESg  2    5 6 18.24                             143    0.43 5  106 289 
 OS04 SP EPg  2    5 5 58.78                             138   -0.80 5  126 257 
                                                                                
 2008  6 1  5 7  9.0 L                       VAN  2                            1
 ACTION:UPD 12-03-27 14:01 OP:chb  STATUS:               ID:20080601050709 L   I
 2008-06-01-0507-09S.VNRC__100_MSEED                                           6
 STAT SP IPHASW D HRMM SECON CODA AMPLIT PERI AZIMU VELO AIN AR TRES W  DIS CAZ7
 VAVUNBZ EPg  1    5 7 40.72                                                    
 VSARABZ ESg  2    5 7 42.87                                                    
 VAVUNBZ  IAML     5 7 42.49        8.04 0.26                                   
 VSARABZ  IAML     5 7 45.05       11.53 0.10                                   
                                                                                
 2008  6 1 0510 38.2 L                       VAN  0                            1
 ACTION:UPD 12-03-27 14:01 OP:chb  STATUS:               ID:20080601051038 L   I
 2008-06-01-0511-50S.VNRC__100_MSEED                                           6
 STAT SP IPHASW D HRMM SECON CODA AMPLIT PERI AZIMU VELO AIN AR TRES W  DIS CAZ7
                                                                                
 2008  6 1 0536  8.8 L -15.432 167.795 75.5  VAN  4 0.2 1.7LVAN                1
 GAP=304        0.35       9.5    24.9 28.1  0.2080E+03 -0.6709E+03 -0.2316E+03E
 ACTION:UPD 12-03-27 14:01 OP:chb  STATUS:               ID:20080601053608 L   I
 2008-06-01-0535-56S.VNRC__100_MSEED                                           6
 STAT SP IPHASW D HRMM SECON CODA AMPLIT PERI AZIMU VELO AIN AR TRES W  DIS CAZ7
 VASAVBZ EPg  2    536 23.09                             129   -0.08 5 68.3 241 
 VASAVBZ ESg  2    536 34.03                             129   -0.35 5 68.3 241 
 VASAVBZ  IAML     536 34.62       15.05 0.14                          68.3 241 
 VTURTBZ ESg  2    536 34.34                             129    0.16 5 68.5 280 
 VTURTBZ  IAML     536 36.51       25.15 0.08                          68.5 280 
 VPOTOBZ EPg  1    536 24.09                             125    0.06 7 76.9 229 
 VPOTOBZ ESg  2    536 36.15                             125    0.23 5 76.9 229 
 VPOTOBZ  IAML     536 37.79       20.98 0.14                          76.9 229 
 VSARABZ EPg  1    536 25.01                             121   -0.04 7 89.1 285 
 VSARABZ ESg  2    536 37.73                             121    0.00 5 89.1 285 
 VSARABZ  IAML     536 38.17       26.61 0.14                          89.1 285 
                                                                                
 2008  6 1  553  9.0 L                       VAN  2                            1
 ACTION:UPD 12-03-27 14:01 OP:chb  STATUS:               ID:20080601055309 L   I
 2008-06-01-0553-09S.VNRC__100_MSEED                                           6
 STAT SP IPHASW D HRMM SECON CODA AMPLIT PERI AZIMU VELO AIN AR TRES W  DIS CAZ7
 VSARABZ EPg  0    553 28.55                                                    
 VKOLHBZ ESg  2    553 39.04                                                    
 VSARABZ ESg  2    553 41.22                                                    
 VSARABZ  IAML     553 44.80       29.58 0.12                                   
 VKOLHBZ  IAML     553 43.61       25.52 0.10                                   
                                                                                
 2008  6 1  6 9 57.0 L                       VAN  1                            1
 ACTION:UPD 12-03-27 14:01 OP:chb  STATUS:               ID:20080601060957 L   I
 2008-06-01-0609-57S.VNRC__100_MSEED                                           6
 STAT SP IPHASW D HRMM SECON CODA AMPLIT PERI AZIMU VELO AIN AR TRES W  DIS CAZ7
 VLEBEBZ ESg  2    610 26.27                                                    
 VLEBEBZ  IAML     610 35.82       16.08 0.18                                   
                                                                                
 2008  6 1 0627 35.9 L -15.430 167.725119.5  VAN  4 0.2 1.6LVAN                1
 GAP=294        0.50      13.3    26.6 21.4  0.1967E+03 -0.3958E+03 -0.1268E+03E
 ACTION:UPD 12-03-27 14:01 OP:chb  STATUS:               ID:20080601062735 L   I
 2008-06-01-0627-33S.VNRC__100_MSEED                                           6
 STAT SP IPHASW D HRMM SECON CODA AMPLIT PERI AZIMU VELO AIN AR TRES W  DIS CAZ7
 VKOLHBZ ESg  2    628  8.00                             147    0.18 5 65.6 291 
 VKOLHBZ  IAML     628  8.28       15.69 0.14                          65.6 291 
 VPOTOBZ ESg  2    628  8.67                             145   -0.02 5 71.5 225 
 VPOTOBZ  IAML     628  9.79        8.70 0.18                          71.5 225 
 VBUTMBZ EPg  2    627 54.70                             142   -0.01 5 78.4 276 
 VBUTMBZ ESg  1    628  8.99                             142   -0.36 7 78.4 276 
 VBUTMBZ  IAML     628 11.08       12.45 0.22                          78.4 276 
 VLEBEBZ ESg  1    628 10.25                             140    0.30 7 82.9 271 
 VLEBEBZ  IAML     628 11.57        9.58 0.16                          82.9 271 
                                                                                
