 2008  6 1 0003 58.8 L -15.262 167.510103.8  VAN 12 0.3                        1
 GAP=276        0.36       7.3    13.6  7.8  0.5912E+02 -0.8549E+02 -0.2881E+02E
 ACTION:ARG 12-06-25 17:31 OP:chb  STATUS:               ID:20080601000359 L   I
 2008-06-01-0003-53S.VNRC__100_MSEED                                           6
 STAT SP IPHASW D HRMM SECON CODA AMPLIT PERI AZIMU VELO AIN AR TRES W  DIS CAZ7
 VTURTBZ EPg  1    0 4 13.61                             158    0.04 7 37.6 259 
 VKOLHBZ EPg  3    0 4 13.74                             158    0.02 2 38.5 277 
 VKOLHBZ ESg  2    0 4 25.80                             158    0.42 5 38.5 277 
 VIRHOBZ EPg  1    0 4 13.48                             157   -0.22 7 38.8 238 
 VBOKIBN ESg  2    0 4 25.94                             153   -0.25 5 46.5 218 
 VTAMBBZ EPg  1    0 4 14.32                             150   -0.10 7 52.3 244 
 VTAMBBZ ESg  2    0 4 26.33                             150   -0.29 5 52.3 244 
 VSARABZ EPg  1    0 4 14.71                             149    0.10 7 55.7 274 
 VSARABZ ESg  3    0 4 26.95                             149   -0.01 2 55.7 274 
 VBUTMBZ EPg  1    0 4 14.54                             149   -0.12 7 55.8 260 
 VBUTMBZ ESg  2    0 4 26.75                             149   -0.31 5 55.8 260 
 VAVUNBZ EPg  2    0 4 14.93                             147    0.11 5 58.6 224 
 VAVUNBZ ESg  3    0 4 28.23                             147    0.90 2 58.6 224 
 VASAVBZ EPg  2    0 4 14.96                             146    0.08 5 59.7 209 
 VASAVBZ ESg  3    0 4 27.15                             146   -0.29 2 59.7 209 
 VLEBEBZ EPg  2    0 4 15.28                             146    0.19 5 62.2 254 
 VLEBEBZ ESg  3    0 4 28.29                             146    0.47 2 62.2 254 
 VPOTOBZ EPg  2    0 4 16.31                             140    0.31 5 74.6 202 
 VNARWBZ EPg  2    0 4 16.62                             137    0.13 5 81.4 193 
                                                                                
 2008  6 1 0013 50.4 L -15.483 167.635114.4  VAN  4 0.1                        1
 GAP=335        0.29      23.0    23.2 16.3  0.1678E+03 -0.3575E+03 -0.7430E+02E
 ACTION:ARG 12-06-25 17:31 OP:chb  STATUS:               ID:20080601001350 L   I
 2008-06-01-0013-41S.VNRC__100_MSEED                                           6
 STAT SP IPHASW D HRMM SECON CODA AMPLIT PERI AZIMU VELO AIN AR TRES W  DIS CAZ7
 VIRHOBZ EPg  2    014  6.65                             155   -0.06 5 46.5 275 
 VKOLHBZ EPg  3    014  7.31                             149   -0.10 2 59.3 299 
 VKOLHBZ ESg  3    014 20.92                             149    0.20 2 59.3 299 
 VBUTMBZ EPg  2    014  8.16                             144    0.06 5 69.8 282 
 VBUTMBZ ESg       014 21.94                             144    0.0110 69.8 282 
 VSARABZ EPg       014  8.36                             142    0.0110 74.4 292 
 VSARABZ ESg  3    014 22.04                             142   -0.35 2 74.4 292 
                                                                                
 2008  6 1  029 19.0 L                       VAN  0                            1
 ACTION:ARG 12-06-25 17:31 OP:chb  STATUS:               ID:20080601002919 L   I
 2008-06-01-0029-19S.VNRC__100_MSEED                                           6
 STAT SP IPHASW D HRMM SECON CODA AMPLIT PERI AZIMU VELO AIN AR TRES W  DIS CAZ7
                                                                                
 2008  6 1  033 12.0 L                       VAN  0                            1
 ACTION:ARG 12-06-25 17:31 OP:chb  STATUS:               ID:20080601003312 L   I
 2008-06-01-0033-12S.VNRC__100_MSEED                                           6
 STAT SP IPHASW D HRMM SECON CODA AMPLIT PERI AZIMU VELO AIN AR TRES W  DIS CAZ7
                                                                                
 2008  6 1 0041 51.5 L -15.392 167.709117.1  VAN  7 0.2                        1
 GAP=294        0.30      14.6    25.6 19.8  0.1430E+03 -0.4433E+03 -0.3094E+02E
 ACTION:ARG 12-06-25 17:31 OP:chb  STATUS:               ID:20080601004152 L   I
 2008-06-01-0041-48S.VNRC__100_MSEED                                           6
 STAT SP IPHASW D HRMM SECON CODA AMPLIT PERI AZIMU VELO AIN AR TRES W  DIS CAZ7
 VIRHOBZ EPg  2    042  8.28                             152   -0.23 5 54.6 264 
 VKOLHBZ EPg  2    042  9.07                             148    0.08 5 62.6 288 
 VKOLHBZ ESg  3    042 22.85                             148    0.21 2 62.6 288 
 VAVUNBZ EPg  2    042  9.52                             146    0.19 5 67.9 246 
 VTAMBBZ EPg  3    042  9.14                             146   -0.23 2 68.9 263 
 VTAMBBZ ESg  3    042 22.94                             146   -0.38 2 68.9 263 
 VPOTOBZ EPg  3    042 10.02                             144    0.24 2 73.4 222 
 VBUTMBZ EPg  1    042  9.87                             143   -0.03 7 76.4 273 
 VSARABZ ESg  2    042 24.55                             142    0.06 5 79.0 283 
                                                                                
 2008  6 1 0044 39.5 L -15.102 167.229139.0  VAN  3 0.0                        1
 GAP=331        0.31     130.1   116.9 19.8 -0.1313E+05  0.1100E+04 -0.1790E+04E
 ACTION:ARG 12-06-25 17:31 OP:chb  STATUS:               ID:20080601004439 L   I
 2008-06-01-0044-37S.VNRC__100_MSEED                                           6
 STAT SP IPHASW D HRMM SECON CODA AMPLIT PERI AZIMU VELO AIN AR TRES W  DIS CAZ7
 VKOLHBZ EPg  3    044 57.55                             173   -0.01 2 15.3 212 
 VKOLHBZ ESg  3    045 11.67                             173    0.01 2 15.3 212 
 VSARABZ EPg  3    044 57.82                             167   -0.00 2 29.1 241 
 VBUTMBZ EPg  3    044 58.11                             163    0.01 2 37.0 222 
 VBUTMBZ ESg  3    045 12.61                             163   -0.01 2 37.0 222 
                                                                                
 2008  6 1 0100 43.4 L -15.376 167.011 30.8  VAN  8 0.2                        1
 GAP= 99        0.35       2.4     3.3  4.5 -0.3162E+00 -0.4933E+01  0.5305E+01E
 ACTION:ARG 12-06-25 17:31 OP:chb  STATUS:               ID:20080601010043 L   I
 2008-06-01-0100-29S.VNRC__100_MSEED                                           6
 STAT SP IPHASW D HRMM SECON CODA AMPLIT PERI AZIMU VELO AIN AR TRES W  DIS CAZ7
 VBUTMBZ EPg  1    1 0 49.22                             173    0.12 7 3.10 334 
 VBUTMBZ ESg  2    1 0 53.71                             173    0.17 5 3.10 334 
 VLEBEBZ EPg  1    1 0 49.32                             163    0.06 7 7.63 236 
 VTAMBBZ EPg  1    1 0 49.43                             153    0.01 7 12.1 148 
 VSARABZ EPg  1    1 0 49.66                             146   -0.06 7 16.3 353 
 VSARABZ ESg  2    1 0 54.33                             146   -0.30 5 16.3 353 
 VTURTBZ EPg  0    1 0 49.83                             143    0.1210 17.5  72 
 VIRHOBZ EPg  0    1 0 50.33                             136    0.1210 22.1 111 
 VIRHOBZ ESg  3    1 0 55.41                             136   -0.09 2 22.1 111 
 VKOLHBZ EPg  2    1 0 50.22                             135   -0.13 5 23.2  42 
 VKOLHBZ ESg  2    1 0 55.48                             135   -0.27 5 23.2  42 
 VAVUNBZ EPg  1    1 0 51.10                             123   -0.27 7 32.2 156 
 VAVUNBZ ESg  3    1 0 57.20                             123   -0.37 2 32.2 156 
                                                                                
 2008  6 1 0105  8.7 L -14.706 167.275 79.3  VAN 26 0.6                        1
 GAP=319        1.01      12.5    11.8 11.2  0.3762E+02 -0.1786E+02 -0.6610E+02E
 ACTION:ARG 12-06-25 17:31 OP:chb  STATUS:               ID:20080601010509 L   I
 2008-06-01-0105-02S.VNRC__100_MSEED                                           6
 STAT SP IPHASW D HRMM SECON CODA AMPLIT PERI AZIMU VELO AIN AR TRES W  DIS CAZ7
 VKOLHBZ EPg  1    1 5 22.43                             137   -0.10 7 58.2 193 
 VKOLHBZ ESg  2    1 5 32.78                             137   -0.53 5 58.2 193 
 VSARABZ EPg  1    1 5 23.02                             134   -0.06 7 65.4 208 
 VSARABZ ESg  2    1 5 34.66                             134    0.36 5 65.4 208 
 VTURTBZ EPg  1    1 5 23.37                             131    0.02 7 69.8 190 
 VBUTMBZ EPg  2    1 5 24.10                             128   -0.05 5 77.3 203 
 VBUTMBZ ESg  3    1 5 35.91                             128   -0.29 2 77.3 203 
 VANGOBZ EPg  1    1 5 24.63                             128    0.36 7 77.7 213 
 VANGOBZ ESg  3    1 5 36.58                             128    0.16 2 77.7 213 
 VIRHOBZ EPg  1    1 5 24.31                             126   -0.23 7 82.4 185 
 VIRHOBZ ESg  2    1 5 35.81                             126   -1.09 5 82.4 185 
 VLEBEBZ EPg  1    1 5 24.86                             125   -0.09 7 85.8 204 
 VLEBEBZ ESg  3    1 5 37.21                             125   -0.42 2 85.8 204 
 VTAMBBZ EPg  1    1 5 24.93                             124   -0.08 7 87.1 195 
 VTAMBBZ ESg  2    1 5 36.98                             124   -0.75 5 87.1 195 
 VWUSIBZ EPg  0    1 5 26.55                             120    0.2410 98.7 222 
 VWUSIBZ ESg  2    1 5 42.15                             120    2.11 5 98.7 222 
 VEBENBZ EPg  1    1 5 27.07                             119    0.66 7  101 200 
 VAVUNBZ EPg  2    1 5 26.77                             118    0.02 5  105 188 
 VAVUNBZ ESg  2    1 5 40.42                             118   -0.41 5  105 188 
 VSULEBZ EPg  0    1 5 27.59                             117    0.4010  107 213 
 VASAVBZ EPg  2    1 5 27.66                             116    0.02 5  114 182 
 VASAVBZ ESg  3    1 5 42.00                             116   -0.42 2  114 182 
 VSALEBZ EPg  1    1 5 28.74                             116    1.09 7  115 205 
 OS01 SP EPg  0    1 5 27.12                             113   -0.7310  122 221 
 OS08 SP EPg  3    1 5 28.75                             113    0.47 2  124 191 
 OS05 SP EPg  1    1 5 29.19                             112    0.53 7  128 198 
 VPOTOBZ EPg  1    1 5 29.71                             112    0.20 7  131 181 
 VPOTOBZ ESg  3    1 5 46.23                             112    0.48 2  131 181 
 OS02 SP EPg  0    1 5 28.25                             111   -0.6010  133 214 
 VESPIBZ EPg  2    1 5 30.87                             110    0.47 5  141 184 
 VESPIBZ ESg  3    1 5 47.25                             110   -0.08 2  141 184 
 OS04 SP EPg  2    1 5 29.66                             110   -0.38 5  142 207 
 OS07 SP EPg  1    1 5 30.93                             109    0.13 7  145 192 
 OS06 SP EPg  2    1 5 31.39                             108   -0.05 5  152 200 
 OS03 SP EPg  0    1 5 29.89                             108   -0.9010  153 216 
 OS10 SP EPg  1    1 5 32.86                             106    0.48 7  166 189 
 OS09 SP EPg  1    1 5 32.72                             106    0.06 7  169 196 
                                                                                
 2008  6 1 0115 23.1 L -15.223 167.676112.4  VAN 12 0.2                        1
 GAP=301        0.39       8.5    20.5 16.6  0.1399E+03 -0.3295E+03 -0.1102E+03E
 ACTION:ARG 12-06-25 17:31 OP:chb  STATUS:               ID:20080601011523 L   I
 2008-06-01-0115-19S.VNRC__100_MSEED                                           6
 STAT SP IPHASW D HRMM SECON CODA AMPLIT PERI AZIMU VELO AIN AR TRES W  DIS CAZ7
 VKOLHBZ EPg  2    115 40.08                             151    0.26 5 56.0 270 
 VIRHOBZ EPg  3    115 39.62                             151   -0.19 2 56.4 244 
 VTAMBBZ EPg  0    115 40.49                             144   -0.2010 70.3 247 
 VTAMBBZ ESg  1    115 54.00                             144   -0.38 7 70.3 247 
 VSARABZ ESg  1    115 54.94                             143    0.20 7 73.4 269 
 VASAVBZ EPg  1    115 40.76                             143   -0.16 7 73.4 220 
 VASAVBZ ESg  3    115 55.01                             143    0.22 2 73.4 220 
 VSARABZ EPg  0    115 41.05                             143    0.1610 73.4 269 
 VBUTMBZ EPg  0    115 40.99                             143    0.0010 74.1 259 
 VBUTMBZ ESg  1    115 54.80                             143   -0.11 7 74.1 259 
 VAVUNBZ EPg  0    115 41.09                             143    0.0710 74.7 231 
 VAVUNBZ ESg  2    115 55.18                             143    0.22 5 74.7 231 
 VLEBEBZ EPg  2    115 41.25                             140   -0.22 5 80.5 255 
 VLEBEBZ ESg  1    115 55.77                             140    0.01 7 80.5 255 
 VANGOBZ EPg  3    115 41.69                             139   -0.19 2 85.3 264 
 VPOTOBZ EPg  0    115 42.01                             138    0.0510 86.4 211 
 VPOTOBZ ESg  3    115 57.30                             138    0.66 2 86.4 211 
 OS08 SP EPg  3    115 42.84                             136    0.92 2 93.3 226 
 VESPIBZ EPg  2    115 42.68                             134   -0.05 5 97.9 212 
 VESPIBZ ESg  3    115 58.38                             134    0.37 2 97.9 212 
                                                                                
 2008  6 1 0124 31.1 L -15.080 166.900 26.6  VAN  6 0.1                        1
 GAP=295        0.28       4.0     2.3  6.8  0.1129E+01 -0.1127E+01  0.1229E+01E
 ACTION:ARG 12-06-25 17:31 OP:chb  STATUS:               ID:20080601012431 L   I
 2008-06-01-0124-17S.VNRC__100_MSEED                                           6
 STAT SP IPHASW D HRMM SECON CODA AMPLIT PERI AZIMU VELO AIN AR TRES W  DIS CAZ7
 VSARABZ EPg  0    124 37.22                             134    0.0310 19.2 149 
 VANGOBZ EPg  0    124 37.80                             126   -0.0410 24.0 184 
 VKOLHBZ EPg  0    124 38.58                             117   -0.0110 31.3 119 
 VKOLHBZ ESg  2    124 44.36                             117   -0.10 5 31.3 119 
 VBUTMBZ EPg  1    124 38.72                             117    0.05 7 31.7 161 
 VTURTBZ ESg  2    124 46.35                             110    0.17 5 39.6 134 
 VIRHOBZ EPg  2    124 41.33                             103    0.01 5 52.0 141 
 VIRHOBZ ESg  2    124 49.20                             103   -0.11 5 52.0 141 
                                                                                
 2008  6 1 0203 32.1 L -14.824 167.274139.2  VAN 17 0.3                        1
 GAP=314        0.50      10.9     9.3  5.5 -0.2848E+02  0.6016E+01 -0.2918E+02E
 ACTION:ARG 12-06-25 17:31 OP:chb  STATUS:               ID:20080601020332 L   I
 2008-06-01-0203-29S.VNRC__100_MSEED                                           6
 STAT SP IPHASW D HRMM SECON CODA AMPLIT PERI AZIMU VELO AIN AR TRES W  DIS CAZ7
 VKOLHBZ EPg  1    2 3 50.72                             160   -0.29 7 45.6 196 
 VKOLHBZ ESg  2    2 4  4.99                             160   -0.77 5 45.6 196 
 VSARABZ EPg  0    2 3 51.36                             156    0.0010 54.1 214 
 VSARABZ ESg  3    2 4  6.22                             156   -0.14 2 54.1 214 
 VTURTBZ EPg  1    2 3 51.36                             155   -0.02 7 57.0 192 
 VBUTMBZ EPg  1    2 3 52.09                             152    0.14 7 65.3 207 
 VBUTMBZ ESg  2    2 4  7.37                             152   -0.05 5 65.3 207 
 VANGOBZ EPg  0    2 3 52.42                             152    0.3010 67.0 219 
 VANGOBZ ESg  2    2 4  7.97                             152    0.25 5 67.0 219 
 VIRHOBZ EPg  1    2 3 51.83                             151   -0.26 7 69.4 186 
 VLEBEBZ EPg  1    2 3 52.60                             149    0.15 7 73.9 208 
 VLEBEBZ ESg  1    2 4  8.66                             149    0.35 7 73.9 208 
 VTAMBBZ EPg  2    2 3 52.40                             149   -0.01 5 74.5 197 
 VTAMBBZ ESg  2    2 4  7.86                             149   -0.37 5 74.5 197 
 VEBENBZ EPg  2    2 3 53.75                             144    0.41 5 89.1 203 
 VWUSIBZ EPg  2    2 3 53.72                             144    0.21 5 89.3 228 
 VAVUNBZ EPg  1    2 3 53.65                             143    0.13 7 91.9 190 
 VAVUNBZ ESg  3    2 4 10.44                             143    0.22 2 91.9 190 
 VSULEBZ EPg  2    2 3 54.39                             142    0.36 5 96.4 217 
 VASAVBZ EPg  1    2 3 54.33                             140    0.21 7  101 182 
 OS01 SP EPg  0    2 3 54.08                             137   -0.2310  112 225 
 OS02 SP EPg  0    2 3 54.73                             134   -0.2110  122 217 
 OS04 SP EPg  2    2 3 55.50                             132   -0.34 5  131 209 
 OS03 SP EPg  1    2 3 56.37                             129   -0.05 7  143 219 
                                                                                
 2008  6 1 0208 47.9 L -14.238 167.069 35.5  VAN  7 0.1                        1
 GAP=344        0.28       7.3    11.0 83.7  0.3427E+02 -0.3033E+03 -0.4475E+03E
 ACTION:ARG 12-06-25 17:31 OP:chb  STATUS:               ID:20080601020848 L   I
 2008-06-01-0208-35S.VNRC__100_MSEED                                           6
 STAT SP IPHASW D HRMM SECON CODA AMPLIT PERI AZIMU VELO AIN AR TRES W  DIS CAZ7
 VKOLHBZ EPg  1    2 9  5.98                              95    0.05 7  109 175 
 VKOLHBZ ESg  3    2 9 19.79                              95   -0.21 2  109 175 
 VSARABZ EPg  1    2 9  6.17                              95    0.12 7  110 184 
 VANGOBZ EPg  1    2 9  7.37                              94    0.00 7  119 190 
 VANGOBZ ESg  3    2 9 22.24                              94   -0.32 2  119 190 
 VTURTBZ EPg  3    2 9  7.46                              94    0.02 2  121 175 
 VLEBEBZ EPg  3    2 9  9.02                              93    0.12 2  131 186 
 VIRHOBZ EPg  1    2 9  9.24                              93   -0.07 7  135 174 
 VIRHOBZ ESg  2    2 9 26.14                              93    0.13 5  135 174 
 VAVUNBZ EPg  1    2 9 12.05                              93   -0.12 7  156 178 
                                                                                
 2008  6 1  242 59.0 L                       VAN  0                            1
 ACTION:ARG 12-06-25 17:31 OP:chb  STATUS:               ID:20080601024259 L   I
 2008-06-01-0242-59S.VNRC__100_MSEED                                           6
 STAT SP IPHASW D HRMM SECON CODA AMPLIT PERI AZIMU VELO AIN AR TRES W  DIS CAZ7
                                                                                
