 2008  6 1 0818 19.0 L -15.304 167.379 65.6  VAN 10 0.1                        1
 GAP=261        0.30       8.7    14.5 18.9  0.1045E+03  0.1984E+03  0.1184E+03E
 ACTION:ARG 12-06-25 17:31 OP:chb  STATUS:               ID:20080601081818 L   I
 2008-06-01-0818-09S.VNRC__100_MSEED                                           6
 STAT SP IPHASW D HRMM SECON CODA AMPLIT PERI AZIMU VELO AIN AR TRES W  DIS CAZ7
 VTURTBZ EPg  1    818 29.26                             156    0.08 7 23.0 263 
 VIRHOBZ EPg  1    818 29.26                             154   -0.07 7 24.6 230 
 VKOLHBZ EPg  2    818 29.54                             153    0.11 5 25.9 291 
 VTAMBBZ EPg  1    818 29.93                             143   -0.20 7 37.7 241 
 VBUTMBZ EPg  1    818 30.47                             140    0.06 7 41.2 263 
 VSARABZ EPg  0    818 30.37                             139   -0.0710 42.3 281 
 VAVUNBZ EPg  1    818 30.88                             136    0.12 7 46.0 215 
 VLEBEBZ EPg  1    818 31.01                             135    0.10 7 47.4 255 
 VANGOBZ EPg  1    818 31.45                             131    0.02 7 53.1 271 
 VPOTOBZ EPg  2    818 32.53                             124   -0.06 5 66.1 192 
                                                                                
 2008  6 1  822 49.0 L                       VAN  0                            1
 ACTION:ARG 12-06-25 17:31 OP:chb  STATUS:               ID:20080601082249 L   I
 2008-06-01-0822-49S.VNRC__100_MSEED                                           6
 STAT SP IPHASW D HRMM SECON CODA AMPLIT PERI AZIMU VELO AIN AR TRES W  DIS CAZ7
                                                                                
 2008  6 1  830 40.0 L                       VAN  4                            1
 ACTION:ARG 12-06-25 17:31 OP:chb  STATUS:               ID:20080601083040 L   I
 2008-06-01-0830-40S.VNRC__100_MSEED                                           6
 STAT SP IPHASW D HRMM SECON CODA AMPLIT PERI AZIMU VELO AIN AR TRES W  DIS CAZ7
 VBUTMBZ EPg  1    831  4.60                                                    
 VKOLHBZ EPg  1    831  1.39                                                    
 VANGOBZ EPg  1    831  5.14                                                    
 VSARABZ EPg  1    831  3.38                                                    
                                                                                
 2008  6 1  842  1.0 L                       VAN  0                            1
 ACTION:ARG 12-06-25 17:31 OP:chb  STATUS:               ID:20080601084201 L   I
 2008-06-01-0842-01S.VNRC__100_MSEED                                           6
 STAT SP IPHASW D HRMM SECON CODA AMPLIT PERI AZIMU VELO AIN AR TRES W  DIS CAZ7
                                                                                
 2008  6 1  846 45.0 L                       VAN  0                            1
 ACTION:ARG 12-06-25 17:31 OP:chb  STATUS:               ID:20080601084645 L   I
 2008-06-01-0846-45S.VNRC__100_MSEED                                           6
 STAT SP IPHASW D HRMM SECON CODA AMPLIT PERI AZIMU VELO AIN AR TRES W  DIS CAZ7
                                                                                
 2008  6 1 0847 17.9 L -14.291 167.489194.9  VAN 10 0.2                        1
 GAP=337        0.37      22.8    20.1 14.5  0.4727E+02 -0.1199E+03 -0.2877E+03E
 ACTION:ARG 12-06-25 17:31 OP:chb  STATUS:               ID:20080601084718 L   I
 2008-06-01-0847-16S.VNRC__100_MSEED                                           6
 STAT SP IPHASW D HRMM SECON CODA AMPLIT PERI AZIMU VELO AIN AR TRES W  DIS CAZ7
 VKOLHBZ EPg  2    847 45.42                             149   -0.04 5  109 199 
 VKOLHBZ ESg  2    848  6.84                             149   -0.12 5  109 199 
 VSARABZ EPg  1    847 45.96                             147    0.04 7  117 207 
 VSARABZ ESg  2    848  7.84                             147    0.06 5  117 207 
 VANGOBZ EPg  1    847 47.04                             144    0.22 7  129 210 
 VANGOBZ ESg  3    848  9.87                             144    0.49 2  129 210 
 VBUTMBZ EPg  2    847 46.91                             144    0.19 5  129 204 
 VBUTMBZ ESg  2    848  9.37                             144    0.18 5  129 204 
 VIRHOBZ EPg  2    847 46.70                             144   -0.14 5  132 193 
 VLEBEBZ EPg  2    847 47.21                             142   -0.10 5  137 205 
 VLEBEBZ ESg  2    848  9.97                             142   -0.28 5  137 205 
 VTAMBBZ EPg  1    847 46.98                             142   -0.31 7  138 199 
 VWUSIBZ EPg  1    847 48.09                             140   -0.16 7  149 217 
 VAVUNBZ EPg  1    847 48.75                             139    0.25 7  154 194 
 VSULEBZ EPg  3    847 49.27                             138    0.28 2  158 211 
                                                                                
 2008  6 1 0859 22.6 L -14.788 167.318105.5  VAN 10 0.2                        1
 GAP=324        0.37       7.1    14.0 11.2  0.6709E+02 -0.1358E+03 -0.6391E+02E
 ACTION:ARG 12-06-25 17:31 OP:chb  STATUS:               ID:20080601085922 L   I
 2008-06-01-0859-11S.VNRC__100_MSEED                                           6
 STAT SP IPHASW D HRMM SECON CODA AMPLIT PERI AZIMU VELO AIN AR TRES W  DIS CAZ7
 VSARABZ EPg  1    859 38.97                             147    0.16 7 60.1 216 
 VSARABZ ESg  3    859 51.72                             147    0.22 2 60.1 216 
 VTURTBZ EPg  1    859 38.97                             146    0.14 7 61.9 195 
 VBUTMBZ EPg  2    859 39.51                             142   -0.08 5 71.1 209 
 VBUTMBZ ESg  1    859 52.94                             142    0.06 7 71.1 209 
 VANGOBZ EPg  1    859 39.93                             141    0.11 7 73.0 220 
 VANGOBZ ESg  2    859 53.06                             141   -0.22 5 73.0 220 
 VIRHOBZ EPg  1    859 39.60                             141   -0.12 7 74.0 190 
 VIRHOBZ ESg  3    859 52.96                             141   -0.16 2 74.0 190 
 VLEBEBZ EPg  1    859 40.07                             138   -0.18 7 79.7 209 
 VLEBEBZ ESg  1    859 53.93                             138   -0.12 7 79.7 209 
 VAVUNBZ EPg  1    859 41.53                             132   -0.03 7 96.7 192 
 VAVUNBZ ESg  1    859 56.66                             132    0.28 7 96.7 192 
 VASAVBZ EPg  1    859 42.20                             130   -0.05 7  105 185 
 VASAVBZ ESg  2    859 57.04                             130   -0.58 5  105 185 
 VPOTOBZ EPg  2    859 44.06                             125    0.18 5  122 183 
 VESPIBZ EPg  3    859 44.12                             122   -0.56 2  132 186 
 VESPIBZ ESg  2    9 0  2.22                             122    0.28 5  132 186 
                                                                                
 2008  6 1  918 53.0 L                       VAN  0                            1
 ACTION:ARG 12-06-25 17:31 OP:chb  STATUS:               ID:20080601091853 L   I
 2008-06-01-0918-53S.VNRC__100_MSEED                                           6
 STAT SP IPHASW D HRMM SECON CODA AMPLIT PERI AZIMU VELO AIN AR TRES W  DIS CAZ7
                                                                                
 2008  6 1 0921 22.5 L -14.335 167.586 38.6  VAN 22 1.3                        1
 GAP=331        2.68      23.1    34.5 59.6 -0.2979E+03 -0.3450E+03 -0.8523E+02E
 ACTION:ARG 12-06-25 17:31 OP:chb  STATUS:               ID:20080601092125 L   I
 2008-06-01-0921-22S.VNRC__100_MSEED                                           6
 STAT SP IPHASW D HRMM SECON CODA AMPLIT PERI AZIMU VELO AIN AR TRES W  DIS CAZ7
 VKOLHBZ EPg  1    921 42.38                              90    2.27 7  108 205 
 VSARABZ EPg  1    921 43.27                              90    2.02 7  118 213 
 VSARABZ ESg  2    921 57.59                              90    1.72 5  118 213 
 VBUTMBZ EPg  0    921 43.97                              90    1.3210  129 209 
 VANGOBZ EPg  0    921 44.24                              90    1.3110  130 215 
 VANGOBZ ESg  1    922  0.12                              90    1.25 7  130 215 
 VIRHOBZ EPg  2    921 43.63                              90    0.94 5  130 198 
 VTAMBBZ EPg  1    921 44.30                              90    0.70 7  137 204 
 VTAMBBZ IP        921 44.34                              67    0.8010  137 204 
 VTAMBBZ ESg  2    921 59.20                              90   -0.87 5  137 204 
 VLEBEBZ EPg  1    921 44.58                              90    0.85 7  138 210 
 VLEBEBZ ESg  1    922  0.18                              90   -0.12 7  138 210 
 VBOKIBN EPg  2    921 45.51                              90    0.98 5  144 195 
 VBOKIBN ESg  1    922  0.65                              90   -1.06 7  144 195 
 VWUSIBZ EPg  1    921 45.74                              90    0.16 7  152 221 
 VEBENBZ EPg  3    921 46.53                              90    1.03 2  152 206 
 VAVUNBZ EPg  2    921 46.06                              90    0.50 5  153 199 
 VAVUNBZ ESg  3    922  2.29                              90   -1.25 2  153 199 
 VASAVBZ EPg  1    921 46.67                              90    0.34 7  159 193 
 VASAVBZ ESg  3    922  2.98                              90   -1.94 2  159 193 
 VSULEBZ EPg  1    921 46.44                              90   -0.19 7  160 215 
 VSALEBZ EPg  1    921 46.99                              90   -0.14 7  166 209 
 OS08 SP EPg  2    921 47.50                              90   -0.06 5  173 199 
 OS01 SP EPg  1    921 46.01                              90   -1.63 7  175 220 
 VPOTOBZ EPg  1    921 48.28                              90   -0.15 7  176 192 
 OS05 SP EPg  1    921 47.03                              90   -1.21 7  179 204 
 OS02 SP EPg  1    921 46.89                              90   -1.93 7  186 215 
 OS04 SP EPg  1    921 48.00                              90   -2.07 7  194 210 
 OS07 SP EPg  1    921 48.67                              90   -1.79 7  194 199 
 OS03 SP EPg  0    921 48.53                              90   -2.5710  206 217 
                                                                                
 2008  6 1 0933 17.2 L -14.803 167.223129.5  VAN 13 0.3                        1
 GAP=314        0.48       8.9     9.9  8.0 -0.5510E+01  0.1157E+02 -0.5148E+02E
 ACTION:ARG 12-06-25 17:31 OP:chb  STATUS:               ID:20080601093317 L   I
 2008-06-01-0933-06S.VNRC__100_MSEED                                           6
 STAT SP IPHASW D HRMM SECON CODA AMPLIT PERI AZIMU VELO AIN AR TRES W  DIS CAZ7
 VKOLHBZ EPg  1    933 34.83                             158   -0.26 7 46.6 189 
 VSARABZ EPg  1    933 35.47                             155    0.09 7 53.2 208 
 VSARABZ ESg  3    933 49.73                             155    0.14 2 53.2 208 
 VTURTBZ EPg  0    933 35.52                             153   -0.0110 58.4 186 
 VTURTBZ ESg  3    933 49.23                             153   -0.62 2 58.4 186 
 VBUTMBZ EPg  1    933 36.05                             150    0.01 7 65.2 202 
 VBUTMBZ ESg  2    933 50.99                             150    0.23 5 65.2 202 
 VANGOBZ EPg  1    933 36.49                             150    0.34 7 65.6 214 
 VIRHOBZ EPg  1    933 36.17                             148   -0.15 7 71.2 182 
 VIRHOBZ ESg  3    933 50.89                             148   -0.36 2 71.2 182 
 VLEBEBZ EPg  1    933 36.69                             147    0.13 7 73.6 203 
 VLEBEBZ ESg  1    933 51.55                             147   -0.14 7 73.6 203 
 VWUSIBZ EPg  3    933 37.85                             142    0.31 2 87.0 224 
 VBOKIBN ESg  2    933 52.74                             142   -0.53 5 87.3 179 
 VAVUNBZ EPg  1    933 38.11                             140    0.28 7 93.4 186 
 VAVUNBZ ESg  1    933 54.41                             140    0.47 7 93.4 186 
 VASAVBZ ESg  2    933 54.84                             137   -0.33 5  103 179 
 OS01 SP EPg  1    933 38.10                             135   -0.32 7  110 222 
 OS03 SP EPg  1    933 40.56                             127   -0.11 7  141 217 
                                                                                
 2008  6 1  944  1.0 L                       VAN  0                            1
 ACTION:ARG 12-06-25 17:31 OP:chb  STATUS:               ID:20080601094401 L   I
 2008-06-01-0944-01S.VNRC__100_MSEED                                           6
 STAT SP IPHASW D HRMM SECON CODA AMPLIT PERI AZIMU VELO AIN AR TRES W  DIS CAZ7
                                                                                
 2008  6 1  949 32.0 L                       VAN  0                            1
 ACTION:ARG 12-06-25 17:31 OP:chb  STATUS:               ID:20080601094932 L   I
 2008-06-01-0949-32S.VNRC__100_MSEED                                           6
 STAT SP IPHASW D HRMM SECON CODA AMPLIT PERI AZIMU VELO AIN AR TRES W  DIS CAZ7
                                                                                
 2008  6 1  949 48.0 L                       VAN  0                            1
 ACTION:ARG 12-06-25 17:31 OP:chb  STATUS:               ID:20080601094948 L   I
 2008-06-01-0949-48S.VNRC__100_MSEED                                           6
 STAT SP IPHASW D HRMM SECON CODA AMPLIT PERI AZIMU VELO AIN AR TRES W  DIS CAZ7
                                                                                
 2008  6 1 10 0 33.0 L                       VAN  0                            1
 ACTION:ARG 12-06-25 17:31 OP:chb  STATUS:               ID:20080601100033 L   I
 2008-06-01-1000-33S.VNRC__100_MSEED                                           6
 STAT SP IPHASW D HRMM SECON CODA AMPLIT PERI AZIMU VELO AIN AR TRES W  DIS CAZ7
                                                                                
 2008  6 1 1001 14.7 L -14.609 167.831 65.4  VAN  7 0.3                        1
 GAP=340        0.59      11.3    21.9 66.6 -0.3141E+02 -0.1199E+04 -0.2073E+03E
 ACTION:ARG 12-06-25 17:31 OP:chb  STATUS:               ID:20080601100115 L   I
 2008-06-01-1001-08S.VNRC__100_MSEED                                           6
 STAT SP IPHASW D HRMM SECON CODA AMPLIT PERI AZIMU VELO AIN AR TRES W  DIS CAZ7
 VKOLHBZ EPg  2   10 1 31.76                             107    0.22 5 99.3 227 
 VSARABZ EPg  1   10 1 32.68                             104   -0.35 7  113 233 
 VSARABZ ESg  1   10 1 47.59                             104    0.29 7  113 233 
 VBUTMBZ EPg  2   10 1 34.21                             102    0.26 5  121 227 
 VBUTMBZ ESg  1   10 1 48.81                             102   -0.13 7  121 227 
 VANGOBZ EPg  3   10 1 34.01                             101   -0.64 2  127 233 
 VLEBEBZ ESg  1   10 1 50.21                             101   -0.42 7  130 227 
 VAVUNBZ EPg  2   10 1 35.34                             100   -0.29 5  137 213 
 VAVUNBZ ESg  1   10 1 52.08                             100    0.15 7  137 213 
 VSULEBZ EPg  1   10 1 38.30                              98    0.44 7  155 230 
                                                                                
 2008  6 1 1027 38.4 L -15.501 167.525129.5  VAN 23 0.3                        1
 GAP=252        0.59       7.8    10.3  5.8  0.3815E+02 -0.4031E+01  0.1555E+02E
 ACTION:ARG 12-06-25 17:31 OP:chb  STATUS:               ID:20080601102738 L   I
 2008-06-01-1027-35S.VNRC__100_MSEED                                           6
 STAT SP IPHASW D HRMM SECON CODA AMPLIT PERI AZIMU VELO AIN AR TRES W  DIS CAZ7
 VBOKIBN EPg  2   1027 55.90                             165   -0.00 5 31.9 252 
 VBOKIBN ESg  1   1028  8.89                             165   -0.64 7 31.9 252 
 VIRHOBZ EPg  3   1027 55.29                             163   -0.61 2 35.1 280 
 VASAVBZ EPg  1   1027 56.32                             161    0.20 7 40.0 230 
 VTURTBZ EPg  2   1027 55.71                             159   -0.39 5 43.0 296 
 VTURTBZ ESg  3   1028  9.06                             159   -0.83 2 43.0 296 
 VAVUNBZ EPg  1   1027 56.44                             159    0.12 7 45.1 250 
 VAVUNBZ ESg  3   1028 10.85                             159    0.57 2 45.1 250 
 VTAMBBZ EPg  1   1027 56.10                             157   -0.35 7 48.8 274 
 VKOLHBZ EPg  2   1027 56.42                             156   -0.11 5 50.6 308 
 VKOLHBZ ESg  1   1028 10.40                             156   -0.25 7 50.6 308 
 VPOTOBZ EPg  1   1027 57.00                             156    0.30 7 51.8 214 
 VNARWBZ EPg  1   1027 57.12                             154    0.22 7 56.5 200 
 VBUTMBZ EPg  1   1027 56.86                             153   -0.11 7 58.9 286 
 VBUTMBZ ESg  3   1028 11.35                             153   -0.09 2 58.9 286 
 OS08 SP EPg  1   1027 56.64                             152    0.04 7 61.3 236 
 VEBENBZ EPg  1   1027 57.39                             152    0.29 7 61.5 263 
 VLEBEBZ EPg  1   1027 57.06                             151   -0.11 7 62.2 279 
 VESPIBZ EPg  1   1027 57.46                             151    0.31 7 63.3 214 
 VSARABZ EPg  1   1027 57.23                             150    0.01 7 64.6 298 
 VSARABZ ESg  2   1028 12.06                             150    0.18 5 64.6 298 
 VANGOBZ EPg  0   1027 58.10                             147    0.3010 72.4 288 
 VANGOBZ ESg  1   1028 13.66                             147    0.74 7 72.4 288 
 OS05 SP EPg  2   1027 57.41                             147    0.08 5 74.3 243 
 VSALEBZ EPg  2   1027 58.08                             146    0.21 5 76.3 258 
 OS07 SP EPg  2   1027 57.68                             145   -0.32 5 78.8 227 
 OS04 SP EPg  2   1027 58.62                             138   -0.29 5 99.0 247 
 OS02 SP EPg  1   1027 58.64                             137   -0.39 7  103 258 
 OS01 SP EPg  1   1027 59.08                             136   -0.31 7  107 267 
 OS03 SP EPg  2   1027 59.90                             131   -0.41 5  122 253 
                                                                                
 2008  6 1 1034 22.8 L -15.610 167.519 93.5  VAN  6 0.0                        1
 GAP=339        0.29     137.9   203.8306.0 -0.2760E+05  0.6205E+05 -0.4124E+05E
 ACTION:ARG 12-06-25 17:31 OP:chb  STATUS:               ID:20080601103259 L   I
 2008-06-01-1034-15S.VNRC__100_MSEED                                           6
 STAT SP IPHASW D HRMM SECON CODA AMPLIT PERI AZIMU VELO AIN AR TRES W  DIS CAZ7
 VIRHOBZ EPg  3   1034 36.60                             154   -0.08 2 38.4 298 
 VTURTBZ EPg  1   1034 37.20                             148    0.02 7 49.1 309 
 VKOLHBZ EPg  1   1034 37.89                             143    0.00 7 58.4 318 
 VBUTMBZ EPg  1   1034 38.23                             141   -0.00 7 62.8 297 
 VSARABZ EPg  2   1034 38.70                             137   -0.05 5 70.5 307 
 VANGOBZ EPg  1   1034 39.36                             135    0.01 7 76.4 297 
                                                                                
