 2008  6 1 1212 46.0 L -15.641 166.845 35.2  VAN  9 0.1                        1
 GAP=227        0.34       7.7     7.4 13.3  0.4555E+02 -0.7741E+02 -0.8145E+02E
 ACTION:ARG 12-06-25 17:31 OP:chb  STATUS:               ID:20080601121247 L   I
 2008-06-01-1212-32S.VNRC__100_MSEED                                           6
 STAT SP IPHASW D HRMM SECON CODA AMPLIT PERI AZIMU VELO AIN AR TRES W  DIS CAZ7
 VEBENBZ EPg  1   1212 52.83                             151    0.13 7 14.4  55 
 VSULEBZ EPg  2   1212 53.30                             146    0.10 5 18.8 318 
 VLEBEBZ EPg  1   1212 53.68                             133   -0.14 7 27.6  25 
 VAVUNBZ EPg  0   1212 53.96                             129   -0.1310 30.6  90 
 VTAMBBZ EPg  1   1212 54.16                             128    0.07 7 30.9  52 
 VBUTMBZ EPg  2   1212 54.56                             123   -0.14 5 36.1  27 
 VANGOBZ EPg  1   1212 54.99                             121   -0.05 7 38.4   6 
 VIRHOBZ EPg  1   1212 55.77                             116    0.22 7 44.0  61 
 VTURTBZ EPg  0   1212 56.08                             113    0.0110 48.9  45 
                                                                                
 2008  6 1 1214  3.8 L -15.592 167.270120.0  VAN 30 0.3                        1
 GAP=181        0.56       3.7     6.0  5.6  0.7419E+01  0.1573E+02  0.8122E+01E
 ACTION:ARG 12-06-25 17:31 OP:chb  STATUS:               ID:20080601121404 L   I
 2008-06-01-1213-59S.VNRC__100_MSEED                                           6
 STAT SP IPHASW D HRMM SECON CODA AMPLIT PERI AZIMU VELO AIN AR TRES W  DIS CAZ7
 VBOKIBN EPg  1   1214 19.81                             179    0.09 7 2.90 270 
 VBOKIBN ESg  1   1214 31.50                             179   -0.66 7 2.90 270 
 VAVUNBZ EPg  0   1214 19.97                             172    0.1710 15.9 249 
 VAVUNBZ ESg  3   1214 32.46                             172    0.15 2 15.9 249 
 VASAVBZ EPg  0   1214 19.88                             172    0.0910 16.0 192 
 VASAVBZ ESg  3   1214 32.01                             172   -0.28 2 16.0 192 
 VIRHOBZ EPg  0   1214 19.47                             170   -0.3010 17.6 336 
 VTAMBBZ EPg  1   1214 19.94                             166   -0.03 7 25.3 303 
 VTURTBZ EPg  1   1214 20.07                             163    0.03 7 31.3 339 
 VPOTOBZ EPg  0   1214 20.39                             163    0.0810 32.8 183 
 OS08 SP EPg  0   1214 19.58                             162   -0.1910 33.6 225 
 VEBENBZ EPg  0   1214 20.48                             162    0.2210 33.8 275 
 VLEBEBZ EPg  1   1214 20.48                             159   -0.02 7 39.3 300 
 VBUTMBZ EPg  0   1214 20.43                             159   -0.0510 39.5 313 
 VBUTMBZ ESg  3   1214 34.32                             159    0.81 2 39.5 313 
 VESPIBZ EPg  1   1214 20.68                             158    0.11 7 43.0 191 
 VKOLHBZ EPg  1   1214 20.57                             157   -0.01 7 43.1 343 
 VKOLHBZ ESg  1   1214 33.19                             157   -0.51 7 43.1 343 
 VNARWBZ EPg  0   1214 20.84                             157    0.1410 43.6 170 
 VNARWBZ ESg  2   1214 34.62                             157    0.72 5 43.6 170 
 OS05 SP EPg  1   1214 20.49                             156    0.28 7 45.5 238 
 VSALEBZ EPg  1   1214 21.03                             156    0.29 7 47.6 263 
 VSARABZ EPg  1   1214 21.02                             154    0.14 7 50.0 323 
 VSARABZ ESg  3   1214 34.73                             154    0.50 2 50.0 323 
 VANGOBZ EPg  0   1214 21.33                             153    0.1810 52.7 308 
 OS07 SP EPg  0   1214 20.67                             153   -0.2910 53.0 215 
 VSULEBZ EPg  1   1214 21.75                             150    0.18 7 58.8 278 
 VLAKABZ EPg  1   1214 21.77                             150    0.25 7 59.0 164 
 VLAKABZ ESg  3   1214 36.47                             150    1.10 2 59.0 164 
 VLEVIBZ EPg  1   1214 21.97                             149    0.06 7 62.2 182 
 OS06 SP EPg  0   1214 21.33                             146   -0.3010 67.6 228 
 OS04 SP EPg  1   1214 21.52                             145    0.10 7 69.9 246 
 VWUSIBZ EPg  2   1214 22.59                             145    0.39 5 70.1 291 
 OS10 SP EPg  0   1214 21.01                             145   -0.2410 70.2 201 
 OS02 SP EPg  1   1214 21.60                             143    0.09 7 74.6 261 
 OS01 SP EPg  0   1214 22.02                             142    0.0810 79.2 274 
 OS09 SP EPg  0   1214 21.43                             141   -0.3010 79.6 216 
 OS03 SP EPg  1   1214 22.77                             136    0.18 7 93.3 254 
                                                                                
 2008  6 1 1216 27.5 L -15.724 166.822 40.4  VAN 13 1.0                        1
 GAP=219        1.62      13.3    11.4 17.5 -0.1038E+02 -0.7337E+02 -0.2376E+02E
 ACTION:ARG 12-06-25 17:31 OP:chb  STATUS:               ID:20080601121628 L   I
 2008-06-01-1216-14S.VNRC__100_MSEED                                           6
 STAT SP IPHASW D HRMM SECON CODA AMPLIT PERI AZIMU VELO AIN AR TRES W  DIS CAZ7
 VSALEBZ EPg  0   1216 34.40                             165   -0.0810 8.65   6 
 VEBENBZ EPg  1   1216 36.17                             139    0.82 7 22.5  40 
 VSULEBZ EPg  1   1216 34.93                             139   -0.82 7 25.1 336 
 VAVUNBZ EPg  1   1216 37.06                             120    0.67 7 34.3  75 
 VLEBEBZ EPg  1   1216 36.81                             120    0.12 7 36.9  22 
 VTAMBBZ ESg  1   1216 43.36                             116   -0.75 7 39.0  43 
 VWUSIBZ EPg  1   1216 36.66                             115   -0.82 7 43.1 336 
 VASAVBZ EPg  2   1216 39.21                             107    1.72 5 44.8  91 
 VBUTMBZ EPg  3   1216 37.59                             110    0.01 2 45.4  25 
 VIRHOBZ EPg  1   1216 38.94                             102    0.78 7 51.1  53 
 VIRHOBZ ESg  2   1216 46.20                             102   -0.28 5 51.1  53 
 VTURTBZ EPg  0   1216 39.43                              96    0.6210 57.3  40 
 VTURTBZ ESg  2   1216 46.74                              96   -0.90 5 57.3  40 
 VSARABZ EPg  2   1216 39.12                              97    0.16 5 57.7  19 
 VNARWBZ EPg  2   1216 36.84                              93   -2.82 5 62.6 117 
                                                                                
 2008  6 1 1226 16.0 L -15.509 166.941 26.8  VAN 11 0.2                        1
 GAP= 78        0.43       2.0     2.7  4.7  0.7805E+00 -0.4035E+01 -0.6225E-01E
 ACTION:ARG 12-06-25 17:31 OP:chb  STATUS:               ID:20080601122616 L   I
 2008-06-01-1226-00S.VNRC__100_MSEED                                           6
 STAT SP IPHASW D HRMM SECON CODA AMPLIT PERI AZIMU VELO AIN AR TRES W  DIS CAZ7
 VEBENBZ EPg  0   1226 21.48                             162    0.2310 6.66 166 
 VLEBEBZ EPg  0   1226 21.52                             153    0.0310 10.5   7 
 VLEBEBZ ESg  2   1226 25.25                             153   -0.52 5 10.5   7 
 VTAMBBZ EPg  0   1226 21.90                             143    0.1610 14.7  72 
 VBUTMBZ EPg  0   1226 22.16                             136    0.0310 18.6  19 
 VSALEBZ EPg  1   1226 22.18                             134    0.06 7 19.3 218 
 VSULEBZ EPg  2   1226 22.39                             128   -0.38 5 22.8 268 
 VANGOBZ EPg  0   1226 22.85                             126    0.0210 24.2 346 
 VANGOBZ ESg  2   1226 28.10                             126   -0.04 5 24.2 346 
 VAVUNBZ EPg  0   1226 22.56                             125   -0.2810 25.2 126 
 VIRHOBZ EPg  0   1226 23.25                             120    0.0210 29.0  76 
 VSARABZ EPg  1   1226 23.50                             117   -0.05 7 31.4  10 
 VTURTBZ EPg  1   1226 23.48                             117    0.03 7 31.4  50 
                                                                                
 2008  6 1 1233 30.0 L                       VAN  0                            1
 ACTION:ARG 12-06-25 17:31 OP:chb  STATUS:               ID:20080601123330 L   I
 2008-06-01-1233-30S.VNRC__100_MSEED                                           6
 STAT SP IPHASW D HRMM SECON CODA AMPLIT PERI AZIMU VELO AIN AR TRES W  DIS CAZ7
                                                                                
 2008  6 1 1236 37.0 L                       VAN  0                            1
 ACTION:ARG 12-06-25 17:31 OP:chb  STATUS:               ID:20080601123637 L   I
 2008-06-01-1236-37S.VNRC__100_MSEED                                           6
 STAT SP IPHASW D HRMM SECON CODA AMPLIT PERI AZIMU VELO AIN AR TRES W  DIS CAZ7
                                                                                
 2008  6 1 1242 14.6 L -14.778 167.321124.1  VAN  6 0.3                        1
 GAP=334        0.54      19.9    32.7 21.7  0.1803E+03 -0.5657E+03 -0.2938E+03E
 ACTION:ARG 12-06-25 17:31 OP:chb  STATUS:               ID:20080601124215 L   I
 2008-06-01-1242-13S.VNRC__100_MSEED                                           6
 STAT SP IPHASW D HRMM SECON CODA AMPLIT PERI AZIMU VELO AIN AR TRES W  DIS CAZ7
 VSARABZ EPg  3   1242 32.82                             150    0.13 2 61.1 215 
 VSARABZ ESg  2   1242 46.95                             150    0.16 5 61.1 215 
 VTURTBZ EPg  1   1242 32.62                             150   -0.08 7 63.1 195 
 VBUTMBZ EPg  2   1242 33.43                             146    0.05 5 72.2 209 
 VBUTMBZ ESg  1   1242 48.36                             146    0.33 7 72.2 209 
 VIRHOBZ EPg  1   1242 33.21                             145   -0.28 7 75.1 190 
 VLEBEBZ EPg  1   1242 34.22                             143    0.25 7 80.8 209 
 VLEBEBZ ESg  1   1242 48.53                             143   -0.54 7 80.8 209 
 VAVUNBZ EPg  2   1242 35.31                             137    0.17 5 97.8 192 
 VAVUNBZ ESg  2   1242 51.49                             137    0.33 5 97.8 192 
                                                                                
 2008  6 1 1250 13.2 L -15.952 167.954151.8  VAN  7 0.1                        1
 GAP=319        0.28      12.7    27.1 18.2  0.2162E+03 -0.4310E+03 -0.7136E+02E
 ACTION:ARG 12-06-25 17:31 OP:chb  STATUS:               ID:20080601125013 L   I
 2008-06-01-1250-15S.VNRC__100_MSEED                                           6
 STAT SP IPHASW D HRMM SECON CODA AMPLIT PERI AZIMU VELO AIN AR TRES W  DIS CAZ7
 VPOTOBZ EPg  3   1250 35.11                             151    0.29 2 75.2 275 
 VESPIBZ EPg  2   1250 34.93                             149   -0.11 5 81.6 268 
 VIRHOBZ EPg  2   1250 35.97                             144   -0.05 5 97.9 305 
 VTURTBZ EPg  1   1250 36.74                             141    0.04 7  109 309 
 VTURTBZ ESg  3   1250 54.91                             141   -0.15 2  109 309 
 VBUTMBZ EPg  3   1250 37.98                             137    0.18 2  122 303 
 VBUTMBZ ESg  2   1250 57.24                             137    0.22 5  122 303 
 VSARABZ EPg  1   1250 38.40                             135    0.01 7  130 308 
 VSARABZ ESg  2   1250 57.87                             135   -0.19 5  130 308 
 VANGOBZ EPg  2   1250 38.86                             134   -0.07 5  136 302 
                                                                                
 2008  6 1 1251 53.0 L -14.883 167.363141.4  VAN 18 0.4                        1
 GAP=306        0.61       9.5    11.3  5.7  0.2937E+02 -0.2338E+02 -0.2611E+02E
 ACTION:ARG 12-06-25 17:31 OP:chb  STATUS:               ID:20080601125153 L   I
 2008-06-01-1251-52S.VNRC__100_MSEED                                           6
 STAT SP IPHASW D HRMM SECON CODA AMPLIT PERI AZIMU VELO AIN AR TRES W  DIS CAZ7
 VKOLHBZ EPg  1   1252 11.81                             161   -0.22 7 43.5 211 
 VKOLHBZ ESg  2   1252 26.33                             161   -0.56 5 43.5 211 
 VTURTBZ EPg  1   1252 12.30                             157   -0.03 7 53.6 203 
 VTURTBZ ESg  2   1252 27.10                             157   -0.31 5 53.6 203 
 VSARABZ EPg  0   1252 12.48                             156   -0.0210 55.3 226 
 VSARABZ ESg  2   1252 27.50                             156   -0.22 5 55.3 226 
 VIRHOBZ EPg  1   1252 12.68                             153   -0.25 7 64.7 195 
 VIRHOBZ ESg  2   1252 28.23                             153   -0.26 5 64.7 195 
 VBUTMBZ EPg  1   1252 13.07                             153    0.06 7 64.9 217 
 VBUTMBZ ESg  1   1252 28.73                             153    0.10 7 64.9 217 
 VANGOBZ EPg  0   1252 13.56                             151    0.2610 68.8 228 
 VANGOBZ ESg  2   1252 30.40                             151    1.25 5 68.8 228 
 VTAMBBZ ESg  1   1252 29.10                             150   -0.12 7 71.9 206 
 VLEBEBZ EPg  1   1252 13.53                             150    0.03 7 73.6 217 
 VAVUNBZ EPg  2   1252 14.54                             145    0.23 5 87.7 197 
 VAVUNBZ ESg  2   1252 31.13                             145    0.18 5 87.7 197 
 VWUSIBZ EPg  2   1252 14.86                             143    0.06 5 92.7 235 
 VASAVBZ EPg  1   1252 14.84                             143    0.05 7 95.0 188 
 VASAVBZ ESg  2   1252 31.60                             143   -0.19 5 95.0 188 
 VSULEBZ EPg  1   1252 15.51                             142    0.33 7 97.8 224 
 VPOTOBZ EPg  1   1252 16.51                             138    0.42 7  112 186 
 OS01 SP EPg  2   1252 15.06                             137   -0.50 5  115 231 
 VNARWBZ EPg  1   1252 17.05                             135    0.25 7  121 181 
 OS02 SP EPg  2   1252 15.59                             134   -0.49 5  123 223 
 OS07 SP EPg  2   1252 16.54                             133   -0.65 5  128 198 
 OS03 SP EPg  1   1252 17.18                             129   -0.39 7  144 224 
                                                                                
 2008  6 1 1259 26.0 L                       VAN  8                            1
 ACTION:ARG 12-06-25 17:31 OP:chb  STATUS:               ID:20080601125926 L   I
 2008-06-01-1259-26S.VNRC__100_MSEED                                           6
 STAT SP IPHASW D HRMM SECON CODA AMPLIT PERI AZIMU VELO AIN AR TRES W  DIS CAZ7
 VAVUNBZ EPg  1   1259 50.25                                                    
 VNARWBZ EPg  1   1259 44.51                                                    
 VBUTMBZ EPg  1   1259 54.64                                                    
 VIRHOBZ EPg  1   1259 51.39                                                    
 VESPIBZ EPg  1   1259 46.19                                                    
 VASAVBZ EPg  3   1259 48.04                                                    
 OS09 SP EPg  3   1259 49.32                                                    
 VPOTOBZ EPg  1   1259 46.39                                                    
                                                                                
 2008  6 1 1303 46.2 L -14.599 167.572 83.5  VAN  5 0.1                        1
 GAP=339        0.28      19.6    21.9 35.3  0.2560E+03 -0.6567E+03 -0.5664E+03E
 ACTION:ARG 12-06-25 17:31 OP:chb  STATUS:               ID:20080601130346 L   I
 2008-06-01-1303-33S.VNRC__100_MSEED                                           6
 STAT SP IPHASW D HRMM SECON CODA AMPLIT PERI AZIMU VELO AIN AR TRES W  DIS CAZ7
 VSARABZ EPg  3   13 4  3.47                             124    0.12 2 93.6 222 
 VSARABZ ESg  3   13 4 16.63                             124   -0.11 2 93.6 222 
 VIRHOBZ EPg  1   13 4  4.10                             121   -0.02 7  102 203 
 VIRHOBZ ESg  3   13 4 18.40                             121    0.28 2  102 203 
 VBUTMBZ EPg  2   13 4  4.26                             120   -0.09 5  104 216 
 VBUTMBZ ESg  3   13 4 18.36                             120   -0.16 2  104 216 
 VANGOBZ EPg  2   13 4  4.89                             119    0.12 5  107 224 
 VAVUNBZ EPg  1   13 4  6.46                             115   -0.01 7  125 202 
                                                                                
 2008  6 1 1310 54.8 L -16.561 167.771 38.6  VAN  7 0.1                        1
 GAP=319        0.37      13.1    14.3 30.3 -0.1389E+03 -0.1457E+03  0.2438E+03E
 ACTION:ARG 12-06-25 17:31 OP:chb  STATUS:               ID:20080601131055 L   I
 2008-06-01-1310-47S.VNRC__100_MSEED                                           6
 STAT SP IPHASW D HRMM SECON CODA AMPLIT PERI AZIMU VELO AIN AR TRES W  DIS CAZ7
 VNARWBZ EPg  1   1311  9.04                             103   -0.02 7 78.8 324 
 VNARWBZ ESg  3   1311 20.14                             103   -0.02 2 78.8 324 
 OS10 SP EPg  1   1311  9.90                             100    0.26 7 89.1 298 
 VESPIBZ EPg  1   1311 10.23                             101   -0.14 7 89.7 316 
 VPOTOBZ EPg  1   1311 11.04                             100    0.16 7 92.6 323 
 OS09 SP EPg  1   1311 11.94                              97   -0.18 7  109 293 
 VIRHOBZ EPg  2   1311 16.53                              95   -0.12 5  137 334 
 OS03 SP EPg  1   1311 19.35                              94   -0.03 7  165 299 
                                                                                
 2008  6 1 1314  8.0 L                       VAN  0                            1
 ACTION:ARG 12-06-25 17:31 OP:chb  STATUS:               ID:20080601131408 L   I
 2008-06-01-1314-08S.VNRC__100_MSEED                                           6
 STAT SP IPHASW D HRMM SECON CODA AMPLIT PERI AZIMU VELO AIN AR TRES W  DIS CAZ7
                                                                                
 2008  6 1 1319 54.4 L -14.825 167.433111.8  VAN  7 0.2                        1
 GAP=331        0.29      20.2    15.8 19.3  0.1537E+03 -0.2225E+03 -0.3450E+03E
 ACTION:ARG 12-06-25 17:31 OP:chb  STATUS:               ID:20080601131954 L   I
 2008-06-01-1319-51S.VNRC__100_MSEED                                           6
 STAT SP IPHASW D HRMM SECON CODA AMPLIT PERI AZIMU VELO AIN AR TRES W  DIS CAZ7
 VTURTBZ EPg  2   1320 11.24                             147   -0.06 5 62.6 207 
 VSARABZ EPg  2   1320 11.52                             146   -0.03 5 65.1 227 
 VSARABZ ESg  3   1320 24.93                             146   -0.01 2 65.1 227 
 VIRHOBZ EPg  1   1320 11.98                             142   -0.07 7 73.1 200 
 VIRHOBZ ESg  2   1320 25.93                             142    0.10 5 73.1 200 
 VBUTMBZ EPg  2   1320 12.20                             142   -0.02 5 74.6 219 
 VBUTMBZ ESg  2   1320 26.25                             142    0.12 5 74.6 219 
 VANGOBZ EPg  3   1320 13.06                             140    0.46 2 78.7 228 
 VLEBEBZ EPg  3   1320 13.30                             138    0.43 2 83.2 218 
 VLEBEBZ ESg  2   1320 27.06                             138   -0.22 5 83.2 218 
 VAVUNBZ EPg  3   1320 14.06                             134    0.23 2 96.1 200 
                                                                                
