 2008  6 1 1036 59.3 L -16.474 167.162 22.8  VAN 26 0.4                        1
 GAP=278        0.75       4.0     3.6 39.7 -0.5639E+01  0.2787E+02 -0.2953E+02E
 ACTION:ARG 12-06-25 17:31 OP:chb  STATUS:               ID:20080601103659 L   I
 2008-06-01-1036-42S.VNRC__100_MSEED                                           6
 STAT SP IPHASW D HRMM SECON CODA AMPLIT PERI AZIMU VELO AIN AR TRES W  DIS CAZ7
 OS10 SP EPg  0   1037  6.46                              96    0.0410 34.9 337 
 VLEVIBZ EPg  0   1037  7.40                              97   -0.2710 36.6  15 
 OS09 SP EPg  0   1037  8.30                              91    0.1410 48.2 313 
 VLAKABZ EPg  0   1037  8.73                              91   -0.5010 49.3  34 
 VLAKABZ ESg  1   1037 16.74                              91   -0.27 7 49.3  34 
 VESPIBZ EPg  0   1037 10.19                              90    0.2810 55.4   3 
 OS07 SP EPg  1   1037 10.12                              90   -0.07 7 57.5 341 
 VNARWBZ EPg  0   1037 10.51                              90    0.1410 58.0  19 
 OS06 SP EPg  1   1037 11.00                              90   -0.13 7 65.2 323 
 VPOTOBZ EPg  1   1037 11.89                              90    0.44 7 65.5   9 
 OS08 SP EPg  0   1037 12.57                              90    0.3810 74.6 351 
 OS05 SP EPg  1   1037 12.94                              90    0.21 7 78.4 340 
 VASAVBZ EPg  2   1037 13.79                              90    0.07 5 82.3   6 
 VASAVBZ ESg  1   1037 25.21                              90    0.20 7 82.3   6 
 OS04 SP EPg  2   1037 13.61                              90   -0.19 5 86.4 323 
 VAVUNBZ EPg  1   1037 15.45                              90    0.35 7 92.0 358 
 VBOKIBN ESg  2   1037 28.67                              90   -0.35 5 97.9   5 
 VSALEBZ EPg  1   1037 15.83                              90   -0.07 7 98.3 339 
 VEBENBZ EPg  1   1037 17.29                              90    0.68 7  103 348 
 OS03 SP EPg  0   1037 16.10                              90   -0.0510  106 313 
 OS02 SP EPg  1   1037 15.69                              90   -0.62 7  106 324 
 VTAMBBZ EPg  2   1037 17.94                              90    0.10 5  112 355 
 VTAMBBZ ESg  1   1037 32.97                              90    0.64 7  112 355 
 VIRHOBZ EPg  1   1037 18.16                              90    0.07 7  114   2 
 VIRHOBZ ESg  2   1037 32.85                              90    0.07 5  114   2 
 OS01 SP EPg  1   1037 17.93                              90   -0.95 7  123 327 
 VBUTMBZ EPg  1   1037 19.66                              90   -0.15 7  126 352 
 VBUTMBZ ESg  3   1037 35.38                              90   -0.47 2  126 352 
 VTURTBZ EPg  2   1037 19.97                              90    0.12 5  127   0 
 VTURTBZ ESg  1   1037 36.15                              90    0.23 7  127   0 
 VKOLHBZ EPg  2   1037 21.78                              90    0.12 5  139 360 
 VKOLHBZ ESg  2   1037 38.40                              90   -0.74 5  139 360 
 VSARABZ ESg  1   1037 38.72                              90   -0.41 7  139 352 
                                                                                
 2008  6 1 1041 22.0 L                       VAN  0                            1
 ACTION:ARG 12-06-25 17:31 OP:chb  STATUS:               ID:20080601104122 L   I
 2008-06-01-1041-22S.VNRC__100_MSEED                                           6
 STAT SP IPHASW D HRMM SECON CODA AMPLIT PERI AZIMU VELO AIN AR TRES W  DIS CAZ7
                                                                                
 2008  6 1 1043 18.9 L -13.906 166.288 38.6  VAN  8 0.1                        1
 GAP=341        0.30      15.9    16.4161.0  0.4108E+02  0.9058E+03 -0.1180E+04E
 ACTION:ARG 12-06-25 17:31 OP:chb  STATUS:               ID:20080601104319 L   I
 2008-06-01-1043-24S.VNRC__100_MSEED                                           6
 STAT SP IPHASW D HRMM SECON CODA AMPLIT PERI AZIMU VELO AIN AR TRES W  DIS CAZ7
 VSARABZ EPg  1   1043 44.56                              94    0.17 7  165 153 
 VWUSIBZ EPg  3   1043 44.81                              94    0.00 2  167 166 
 VKOLHBZ EPg  0   1043 45.49                              94    0.0610  173 147 
 VBUTMBZ EPg  0   1043 46.09                              94    0.0210  177 154 
 VLEBEBZ EPg  2   1043 46.74                              93    0.05 5  182 157 
 VTURTBZ EPg  1   1043 46.71                              93   -0.07 7  184 149 
 VTURTBZ ESg  3   1044  8.55                              93    0.00 2  184 149 
 VIRHOBZ EPg  0   1043 48.56                              93   -0.0810  197 150 
 VAVUNBZ EPg  1   1043 50.64                              93   -0.13 7  213 155 
                                                                                
 2008  6 1 1046  1.0 L                       VAN  0                            1
 ACTION:ARG 12-06-25 17:31 OP:chb  STATUS:               ID:20080601104601 L   I
 2008-06-01-1046-01S.VNRC__100_MSEED                                           6
 STAT SP IPHASW D HRMM SECON CODA AMPLIT PERI AZIMU VELO AIN AR TRES W  DIS CAZ7
                                                                                
 2008  6 1 1046 37.0 L                       VAN  0                            1
 ACTION:ARG 12-06-25 17:31 OP:chb  STATUS:               ID:20080601104637 L   I
 2008-06-01-1046-37S.VNRC__100_MSEED                                           6
 STAT SP IPHASW D HRMM SECON CODA AMPLIT PERI AZIMU VELO AIN AR TRES W  DIS CAZ7
                                                                                
 2008  6 1 1058 44.0 L -14.777 167.514117.1  VAN  4 0.2                        1
 GAP=336        0.40      25.7    25.6 30.6  0.4806E+03 -0.6882E+03 -0.7250E+03E
 ACTION:ARG 12-06-25 17:31 OP:chb  STATUS:               ID:20080601105844 L   I
 2008-06-01-1058-42S.VNRC__100_MSEED                                           6
 STAT SP IPHASW D HRMM SECON CODA AMPLIT PERI AZIMU VELO AIN AR TRES W  DIS CAZ7
 VKOLHBZ EPg  2   1059  1.66                             148    0.21 5 62.4 218 
 VSARABZ EPg  1   1059  2.34                             143    0.09 7 75.1 228 
 VSARABZ ESg  1   1059 16.36                             143   -0.15 7 75.1 228 
 VIRHOBZ EPg  2   1059  2.23                             141   -0.42 5 81.3 204 
 VIRHOBZ ESg  1   1059 17.28                             141    0.06 7 81.3 204 
 VBUTMBZ EPg  2   1059 17.77                             140   14.84 0 84.2 221 
 VBUTMBZ ESg      1059 17.77                             140    0.0510 84.2 221 
                                                                                
 2008  6 1 1105  2.5 L -15.269 167.409114.0  VAN  9 0.1                        1
 GAP=294        0.27      11.8    19.1  8.2  0.1331E+03 -0.1189E+03 -0.5566E+02E
 ACTION:ARG 12-06-25 17:31 OP:chb  STATUS:               ID:20080601110502 L   I
 2008-06-01-1104-57S.VNRC__100_MSEED                                           6
 STAT SP IPHASW D HRMM SECON CODA AMPLIT PERI AZIMU VELO AIN AR TRES W  DIS CAZ7
 VTURTBZ EPg  3   11 5 17.74                             165   -0.19 2 26.8 256 
 VTURTBZ ESg  3   11 5 30.01                             165    0.00 2 26.8 256 
 VKOLHBZ EPg  3   11 5 18.25                             164    0.18 2 27.9 281 
 VIRHOBZ EPg  3   11 5 17.94                             163   -0.15 2 29.6 228 
 VTAMBBZ ESg  2   11 5 31.14                             156   -0.07 5 42.4 239 
 VSARABZ EPg  2   11 5 18.75                             155    0.04 5 44.9 276 
 VSARABZ ESg  3   11 5 31.68                             155    0.28 2 44.9 276 
 VBUTMBZ EPg  1   11 5 18.65                             155   -0.12 7 44.9 258 
 VBUTMBZ ESg  3   11 5 31.45                             155   -0.04 2 44.9 258 
 VAVUNBZ EPg  1   11 5 19.15                             152    0.10 7 51.0 216 
 VLEBEBZ EPg  2   11 5 18.93                             152   -0.19 5 51.6 252 
 VANGOBZ EPg  1   11 5 19.53                             150    0.10 7 56.3 267 
                                                                                
 2008  6 1 1107  4.9 L -15.434 167.039  5.0  VAN  3 0.0                        1
 GAP=172        0.30       2.3     1.7  0.0  0.7445E+00 -0.1189E+03 -0.5566E+02E
 ACTION:ARG 12-06-25 17:31 OP:chb  STATUS:               ID:20080601110642 L   I
 2008-06-01-1106-42S.VNRC__100_MSEED                                           6
 STAT SP IPHASW D HRMM SECON CODA AMPLIT PERI AZIMU VELO AIN AR TRES W  DIS CAZ7
 VLEBEBZ EPg  2   11 7  7.55                             120   -0.00 5 9.57 283 
 VIRHOBZ EPg  1   11 7  9.38                             106   -0.00 7 17.6  95 
 VAVUNBZ EPg  1   11 7 11.25                             101    0.00 7 25.1 157 
                                                                                
 2008  6 1 1119  8.0 L                       VAN  0                            1
 ACTION:ARG 12-06-25 17:31 OP:chb  STATUS:               ID:20080601111908 L   I
 2008-06-01-1119-08S.VNRC__100_MSEED                                           6
 STAT SP IPHASW D HRMM SECON CODA AMPLIT PERI AZIMU VELO AIN AR TRES W  DIS CAZ7
                                                                                
 2008  6 1 1126 33.0 L                       VAN  0                            1
 ACTION:ARG 12-06-25 17:31 OP:chb  STATUS:               ID:20080601112633 L   I
 2008-06-01-1126-33S.VNRC__100_MSEED                                           6
 STAT SP IPHASW D HRMM SECON CODA AMPLIT PERI AZIMU VELO AIN AR TRES W  DIS CAZ7
                                                                                
 2008  6 1 1140  1.0 L                       VAN  0                            1
 ACTION:ARG 12-06-25 17:31 OP:chb  STATUS:               ID:20080601114001 L   I
 2008-06-01-1140-01S.VNRC__100_MSEED                                           6
 STAT SP IPHASW D HRMM SECON CODA AMPLIT PERI AZIMU VELO AIN AR TRES W  DIS CAZ7
                                                                                
 2008  6 1 1140  2.5 L -14.681 167.247 75.0  VAN 14 0.3                        1
 GAP=320        0.43       8.5     7.6  9.3  0.1171E+02 -0.3127E+02 -0.5668E+02E
 ACTION:ARG 12-06-25 17:31 OP:chb  STATUS:               ID:20080601114002 L   I
 2008-06-01-1139-45S.VNRC__100_MSEED                                           6
 STAT SP IPHASW D HRMM SECON CODA AMPLIT PERI AZIMU VELO AIN AR TRES W  DIS CAZ7
 VKOLHBZ EPg  1   1140 16.25                             134    0.06 7 60.3 189 
 VKOLHBZ ESg  2   1140 26.88                             134    0.04 5 60.3 189 
 VSARABZ EPg  2   1140 17.02                             131    0.32 5 66.5 204 
 VSARABZ ESg  3   1140 28.30                             131    0.56 2 66.5 204 
 VTURTBZ EPg  2   1140 17.05                             128   -0.04 5 72.1 187 
 VANGOBZ EPg  1   1140 18.03                             125    0.13 7 78.4 210 
 VANGOBZ ESg  1   1140 29.79                             125   -0.09 7 78.4 210 
 VBUTMBZ EPg  1   1140 17.87                             125    0.03 7 78.7 200 
 VBUTMBZ ESg  2   1140 29.93                             125    0.16 5 78.7 200 
 VIRHOBZ EPg  1   1140 18.19                             122   -0.16 7 84.9 183 
 VIRHOBZ ESg  2   1140 30.61                             122   -0.07 5 84.9 183 
 VLEBEBZ EPg  1   1140 18.68                             122    0.02 7 87.1 201 
 VLEBEBZ ESg  2   1140 31.08                             122   -0.15 5 87.1 201 
 VTAMBBZ EPg  1   1140 18.53                             121   -0.25 7 89.0 192 
 VWUSIBZ EPg  1   1140 19.53                             118   -0.40 7 98.7 220 
 VEBENBZ EPg  3   1140 20.57                             116    0.38 2  103 198 
 VAVUNBZ EPg  1   1140 20.48                             115   -0.13 7  107 187 
 VSULEBZ EPg  2   1140 21.73                             115    0.84 5  108 211 
 VPOTOBZ EPg  1   1140 23.54                             109    0.07 7  134 180 
 VESPIBZ EPg  2   1140 24.61                             107    0.25 5  143 182 
                                                                                
 2008  6 1 1149 15.3 L -16.355 167.020 31.1  VAN 24 0.3                        1
 GAP=256        0.59       5.3     2.9  6.7 -0.3720E+01  0.1285E+00 -0.1746E+02E
 ACTION:ARG 12-06-25 17:31 OP:chb  STATUS:               ID:20080601114915 L   I
 2008-06-01-1149-03S.VNRC__100_MSEED                                           6
 STAT SP IPHASW D HRMM SECON CODA AMPLIT PERI AZIMU VELO AIN AR TRES W  DIS CAZ7
 OS10 SP EPg  1   1149 20.98                             136   -0.20 7 19.0   4 
 OS09 SP EPg  0   1149 22.09                             122    0.1010 28.1 315 
 VLEVIBZ EPg  1   1149 23.47                             118   -0.31 7 33.3  48 
 OS07 SP EPg  0   1149 24.19                             108   -0.1610 41.3 355 
 OS06 SP EPg  0   1149 24.58                             104   -0.2010 45.8 329 
 VESPIBZ EPg  1   1149 25.42                             105    0.43 7 46.1  24 
 VLAKABZ EPg  1   1149 25.34                             100   -0.48 7 51.1  57 
 VLAKABZ ESg  3   1149 33.86                             100   -0.14 2 51.1  57 
 VNARWBZ EPg  1   1149 26.22                              97    0.09 7 54.0  40 
 VPOTOBZ EPg  0   1149 27.00                              93    0.4010 57.4  26 
 VPOTOBZ ESg  2   1149 36.12                              93    0.73 5 57.4  26 
 OS08 SP EPg  0   1149 26.39                              91   -0.0910 60.6   3 
 OS05 SP EPg  3   1149 26.80                              91    0.18 2 61.6 349 
 OS04 SP EPg  1   1149 27.28                              91    0.02 7 66.9 327 
 VASAVBZ EPg  1   1149 28.84                              90    0.30 7 72.7  19 
 VASAVBZ ESg  2   1149 38.64                              90   -0.20 5 72.7  19 
 VAVUNBZ EPg  1   1149 29.53                              90    0.04 7 79.7   9 
 OS03 SP EPg  1   1149 29.54                              90    0.16 7 86.0 313 
 VEBENBZ EPg  1   1149 31.07                              90    0.55 7 87.4 356 
 VBOKIBN ESg  1   1149 42.00                              90   -0.51 7 87.7  16 
 VSULEBZ EPg  2   1149 31.83                              90   -0.30 5 98.0 341 
 VTAMBBZ EPg  1   1149 31.90                              90   -0.03 7 98.3   3 
 VIRHOBZ EPg  1   1149 32.45                              90   -0.00 7  102  11 
 VBUTMBZ EPg  2   1149 33.45                              90   -0.23 5  111 359 
 VTURTBZ EPg  1   1149 34.09                              90    0.07 7  115   8 
 VWUSIBZ EPg  2   1149 34.01                              90   -0.47 5  116 341 
 VSARABZ EPg  2   1149 35.44                              90    0.01 5  125 359 
                                                                                
 2008  6 1 1153 33.0 L -15.491 167.741131.4  VAN 10 0.3                        1
 GAP=283        0.44      11.2    18.7 12.0  0.1022E+03 -0.1865E+03 -0.2823E+02E
 ACTION:ARG 12-06-25 17:31 OP:chb  STATUS:               ID:20080601115333 L   I
 2008-06-01-1153-32S.VNRC__100_MSEED                                           6
 STAT SP IPHASW D HRMM SECON CODA AMPLIT PERI AZIMU VELO AIN AR TRES W  DIS CAZ7
 VTURTBZ ESg  2   1154  6.55                             151    0.01 5 64.2 286 
 VAVUNBZ ESg  3   1154  7.38                             150    0.27 2 67.5 256 
 VPOTOBZ EPg  2   1153 52.66                             149    0.38 5 68.3 230 
 VNARWBZ EPg  2   1153 52.01                             149   -0.28 5 68.9 218 
 VKOLHBZ EPg  2   1153 52.26                             149    0.01 5 69.8 295 
 VKOLHBZ ESg  2   1154  7.36                             149    0.07 5 69.8 295 
 VBUTMBZ EPg  2   1153 52.19                             145   -0.79 5 81.2 281 
 VBUTMBZ ESg  3   1154  8.23                             145   -0.36 2 81.2 281 
 VEBENBZ EPg  3   1153 53.72                             143    0.52 2 84.6 264 
 VLEBEBZ ESg  1   1154  9.02                             143   -0.07 7 85.0 276 
 VSARABZ EPg  1   1153 53.26                             143    0.05 7 85.4 290 
 VSARABZ ESg  1   1154  9.04                             143    0.04 7 85.4 290 
 VANGOBZ EPg  1   1153 54.15                             140    0.19 7 94.4 283 
                                                                                
 2008  6 1 1158  8.0 L                       VAN  0                            1
 ACTION:ARG 12-06-25 17:31 OP:chb  STATUS:               ID:20080601115808 L   I
 2008-06-01-1158-08S.VNRC__100_MSEED                                           6
 STAT SP IPHASW D HRMM SECON CODA AMPLIT PERI AZIMU VELO AIN AR TRES W  DIS CAZ7
                                                                                
 2008  6 1 1202  0.9 L -19.678 168.291 37.9  VAN 10 0.5                        1
 GAP=349        0.85     999.9   750.3999.9 -0.1498E+07 -0.9064E+06  0.2544E+07E
 ACTION:ARG 12-06-25 17:31 OP:chb  STATUS:               ID:20080601120246 L   I
 2008-06-01-1202-46S.VNRC__100_MSEED                                           6
 STAT SP IPHASW D HRMM SECON CODA AMPLIT PERI AZIMU VELO AIN AR TRES W  DIS CAZ7
 OS10 SP EPg  2   12 2 57.84                              91   -0.45 5  409 341 
 VESPIBZ EPg  2   12 3  2.00                              91    0.77 5  426 344 
 VPOTOBZ EPg  1   12 3  2.49                              91    0.16 7  434 345 
 OS06 SP EPg  1   12 3  1.93                              91   -0.53 7  437 339 
 OS04 SP EPg  2   12 3  5.50                              90    0.66 5  457 338 
 OS03 SP EPg  1   12 3  6.15                              90    0.01 7  470 335 
 OS02 SP EPg  2   12 3  7.73                              90    0.54 5  476 337 
 VTAMBBZ EPg  1   12 3  9.24                              90    0.36 7  484 344 
 VSULEBZ EPg  1   12 3  9.76                              90   -0.16 7  490 340 
 VTURTBZ EPg  2   12 3  9.29                              90   -1.14 5  496 346 
                                                                                
 2008  6 1 1211  5.0 L                       VAN  0                            1
 ACTION:ARG 12-06-25 17:31 OP:chb  STATUS:               ID:20080601121105 L   I
 2008-06-01-1211-05S.VNRC__100_MSEED                                           6
 STAT SP IPHASW D HRMM SECON CODA AMPLIT PERI AZIMU VELO AIN AR TRES W  DIS CAZ7
                                                                                
 2008  6 1 1211 21.0 L                       VAN  7                            1
 ACTION:ARG 12-06-25 17:31 OP:chb  STATUS:               ID:20080601121121 L   I
 2008-06-01-1211-21S.VNRC__100_MSEED                                           6
 STAT SP IPHASW D HRMM SECON CODA AMPLIT PERI AZIMU VELO AIN AR TRES W  DIS CAZ7
 VANGOBZ EPg  1   1211 39.94                                                    
 VSARABZ EPg  3   1211 37.93                                                    
 VLEBEBZ EPg  1   1211 39.33                                                    
 VKOLHBZ EPg  1   1211 35.49                                                    
 VBUTMBZ EPg  2   1211 38.23                                                    
 VAVUNBZ EPg  1   1211 38.69                                                    
 VTURTBZ EPg  1   1211 35.85                                                    
                                                                                
