 2008  6 1 0630 47.0 L -15.392 167.866133.9  VAN 19 0.4                        1
 GAP=297        0.69      11.4    17.2  9.8  0.6815E+02 -0.1258E+03 -0.1894E+02E
 ACTION:ARG 12-06-25 17:31 OP:chb  STATUS:               ID:20080601063047 L   I
 2008-06-01-0630-45S.VNRC__100_MSEED                                           6
 STAT SP IPHASW D HRMM SECON CODA AMPLIT PERI AZIMU VELO AIN AR TRES W  DIS CAZ7
 VBOKIBN ESg  2    631 21.34                             151   -0.58 5 70.4 252 
 VIRHOBZ EPg  2    631  6.27                             150   -0.29 5 71.3 265 
 VTURTBZ EPg  1    631  6.51                             149   -0.21 7 75.4 275 
 VTURTBZ ESg  2    631 22.38                             149    0.26 5 75.4 275 
 VASAVBZ ESg  2    631 22.26                             148   -0.26 5 77.1 241 
 VKOLHBZ EPg  3    631  6.78                             147   -0.26 2 78.8 284 
 VKOLHBZ ESg  2    631 23.00                             147    0.32 5 78.8 284 
 VAVUNBZ EPg  0    631  7.53                             146    0.1610 83.6 251 
 VAVUNBZ ESg  3    631 23.27                             146    0.00 2 83.6 251 
 VPOTOBZ EPg  3    631  7.77                             145    0.18 2 85.6 230 
 VTAMBBZ EPg  2    631  7.12                             145   -0.35 5 85.7 264 
 VTAMBBZ ESg  2    631 23.21                             145   -0.25 5 85.7 264 
 VNARWBZ ESg  3    631 24.26                             145    0.60 2 85.9 221 
 VBUTMBZ EPg  1    631  7.92                             143   -0.11 7 93.2 273 
 VBUTMBZ ESg  2    631 24.40                             143   -0.04 5 93.2 273 
 VSARABZ EPg  2    631  7.96                             142   -0.18 5 95.5 281 
 VSARABZ ESg  1    631 24.43                             142   -0.20 7 95.5 281 
 VESPIBZ EPg  3    631  8.60                             142    0.37 2 96.7 228 
 VESPIBZ ESg  3    631 25.29                             142    0.50 2 96.7 228 
 VLEBEBZ EPg  3    631  8.33                             141   -0.07 2 98.0 268 
 VLEBEBZ ESg  2    631 25.37                             141    0.27 5 98.0 268 
 VANGOBZ EPg  1    631  9.81                             139    0.78 7  106 276 
 VANGOBZ ESg  2    631 26.06                             139   -0.16 5  106 276 
 OS05 SP EPg  1    631  9.62                             137    0.67 7  112 246 
 VSULEBZ EPg  2    631 10.63                             134    0.16 5  123 263 
 VWUSIBZ EPg  1    631 11.36                             132    0.38 7  130 271 
 OS04 SP EPg  1    631  9.93                             130   -0.97 7  137 248 
 OS01 SP EPg  2    631 10.75                             129   -0.63 5  144 263 
                                                                                
 2008  6 1 0658 25.2 L -14.900 167.279132.3  VAN 10 0.2                        1
 GAP=319        0.45      13.8    12.1  7.6 -0.4618E+02 -0.2480E+02 -0.5047E+02E
 ACTION:ARG 12-06-25 17:31 OP:chb  STATUS:               ID:20080601065825 L   I
 2008-06-01-0658-22S.VNRC__100_MSEED                                           6
 STAT SP IPHASW D HRMM SECON CODA AMPLIT PERI AZIMU VELO AIN AR TRES W  DIS CAZ7
 VKOLHBZ EPg  1    658 42.77                             162   -0.31 7 37.7 201 
 VSARABZ EPg  0    658 43.45                             158    0.0010 47.7 220 
 VSARABZ ESg  3    658 57.24                             158   -0.44 2 47.7 220 
 VTURTBZ EPg  0    658 43.37                             157   -0.0210 48.8 194 
 VBUTMBZ EPg  2    658 44.03                             153    0.05 5 58.2 211 
 VBUTMBZ ESg  2    658 58.58                             153   -0.05 5 58.2 211 
 VANGOBZ EPg  0    658 44.41                             152    0.2110 61.0 224 
 VANGOBZ ESg  2    658 59.51                             152    0.48 5 61.0 224 
 VIRHOBZ EPg  1    658 43.91                             152   -0.14 7 61.0 188 
 VLEBEBZ EPg  1    658 44.60                             150    0.14 7 66.9 212 
 VLEBEBZ ESg  1    658 59.25                             150   -0.24 7 66.9 212 
 VAVUNBZ EPg  1    658 45.74                             144    0.30 7 83.7 191 
 OS01 SP EPg  2    658 46.06                             136   -0.35 5  107 228 
 OS03 SP EPg  2    658 48.27                             128   -0.22 5  137 222 
                                                                                
 2008  6 1  7 7 13.0 L                       VAN  5                            1
 ACTION:ARG 12-06-25 17:31 OP:chb  STATUS:               ID:20080601070713 L   I
 2008-06-01-0707-13S.VNRC__100_MSEED                                           6
 STAT SP IPHASW D HRMM SECON CODA AMPLIT PERI AZIMU VELO AIN AR TRES W  DIS CAZ7
 OS03 SP EPg  0    7 7 54.36                                                    
 OS10 SP EPg  2    7 7 46.11                                                    
 OS09 SP EPg  1    7 7 47.27                                                    
 OS08 SP EPg  1    7 7 50.38                                                    
 OS04 SP EPg  3    7 7 52.47                                                    
                                                                                
 2008  6 1 0710  3.7 L -15.214 167.693131.7  VAN  9 0.2                        1
 GAP=295        0.36      14.5    25.7 17.4  0.2810E+03 -0.4082E+03 -0.1522E+03E
 ACTION:ARG 12-06-25 17:31 OP:chb  STATUS:               ID:20080601071004 L   I
 2008-06-01-0710-02S.VNRC__100_MSEED                                           6
 STAT SP IPHASW D HRMM SECON CODA AMPLIT PERI AZIMU VELO AIN AR TRES W  DIS CAZ7
 VTURTBZ ESg  3    710 36.19                             154   -0.53 2 58.0 257 
 VIRHOBZ EPg  1    710 22.25                             154   -0.10 7 58.6 244 
 VSARABZ EPg  1    710 23.51                             147    0.21 7 75.3 269 
 VSARABZ ESg  2    710 38.87                             147    0.27 5 75.3 269 
 VBUTMBZ EPg  1    710 23.38                             147   -0.02 7 76.1 258 
 VBUTMBZ ESg  2    710 38.59                             147   -0.19 5 76.1 258 
 VAVUNBZ EPg  2    710 23.38                             147   -0.04 5 76.8 232 
 VLEBEBZ EPg  1    710 23.59                             145   -0.24 7 82.6 254 
 VANGOBZ ESg  3    710 40.49                             143    0.27 2 87.3 264 
 VPOTOBZ EPg  1    710 24.32                             143    0.06 7 88.3 212 
 VNARWBZ EPg  2    710 24.76                             141    0.21 5 92.7 204 
                                                                                
 2008  6 1 0731  3.3 L -14.544 166.912 18.6  VAN 21 0.4                        1
 GAP=321        0.67       8.3     7.1999.9  0.1454E+02  0.2175E+04 -0.1110E+05E
 ACTION:ARG 12-06-25 17:31 OP:chb  STATUS:               ID:20080601073103 L   I
 2008-06-01-0730-57S.VNRC__100_MSEED                                           6
 STAT SP IPHASW D HRMM SECON CODA AMPLIT PERI AZIMU VELO AIN AR TRES W  DIS CAZ7
 VSARABZ EPg  1    731 16.51                              90   -0.45 7 76.3 173 
 VSARABZ ESg  2    731 28.19                              90    0.61 5 76.3 173 
 VKOLHBZ EPg  1    731 17.47                              90    0.09 7 79.1 161 
 VBUTMBZ EPg  1    731 18.17                              90   -0.75 7 89.7 174 
 VBUTMBZ ESg  3    731 31.89                              90    0.82 2 89.7 174 
 VTURTBZ EPg  2    731 18.96                              90   -0.00 5 91.0 163 
 VWUSIBZ EPg  3    731 19.85                              90    0.00 2 95.0 197 
 VLEBEBZ EPg  3    731 19.53                              90   -0.38 0 96.5 177 
 VTAMBBZ EPg  3    731 34.46                              90   13.58 0  104 171 
 VIRHOBZ EPg  2    731 20.64                              90   -0.37 5  105 163 
 OS01 SP EPg  1    731 22.54                              90    0.23 7  118 200 
 VBOKIBN EPg  1    731 23.84                              90    0.35 7  121 163 
 VBOKIBN ESg  2    731 38.59                              90   -0.61 5  121 163 
 VAVUNBZ EPg  2    731 23.34                              90   -0.46 5  124 169 
 OS02 SP EPg  1    731 24.52                              90    0.15 7  133 195 
 VASAVBZ EPg  1    731 25.65                              90    0.09 7  136 165 
 OS08 SP EPg  3    731 26.14                              90    0.38 2  141 174 
 OS04 SP EPg  1    731 26.67                              90    0.10 7  147 190 
 OS03 SP EPg  1    731 26.11                              90   -0.60 7  151 200 
 VPOTOBZ EPg  0    731 28.45                              90    0.3610  153 166 
 VPOTOBZ ESg  3    731 46.92                              90   -0.48 2  153 166 
 OS07 SP EPg  3    731 29.85                              90    1.02 2  159 177 
 VESPIBZ EPg  1    731 28.93                              90   -0.14 7  161 169 
 VESPIBZ ESg  2    731 48.94                              90   -0.20 5  161 169 
 VNARWBZ EPg  2    731 29.98                              90    0.16 5  166 164 
 VNARWBZ ESg  3    731 50.54                              90    0.07 2  166 164 
 OS10 SP EPg  1    731 31.93                              90    0.50 7  182 176 
                                                                                
 2008  6 1 0736 20.3 L -14.513 167.607127.5  VAN  5 0.1                        1
 GAP=341        0.27      23.6    23.6 27.5  0.3915E+03 -0.5643E+03 -0.6075E+03E
 ACTION:ARG 12-06-25 17:31 OP:chb  STATUS:               ID:20080601073620 L   I
 2008-06-01-0736-18S.VNRC__100_MSEED                                           6
 STAT SP IPHASW D HRMM SECON CODA AMPLIT PERI AZIMU VELO AIN AR TRES W  DIS CAZ7
 VSARABZ EPg  1    736 41.55                             136    0.03 7  103 220 
 VSARABZ ESg  1    736 58.01                             136   -0.04 7  103 220 
 VIRHOBZ EPg  2    736 42.08                             133   -0.12 5  112 203 
 VIRHOBZ ESg  2    736 59.36                             133    0.11 5  112 203 
 VBUTMBZ EPg  2    736 42.25                             133   -0.13 5  113 215 
 VBUTMBZ ESg  3    736 59.45                             133   -0.12 2  113 215 
 VANGOBZ EPg  1    736 42.82                             132    0.11 7  116 222 
 VANGOBZ ESg  3    737  0.03                             132   -0.12 2  116 222 
 VLEBEBZ EPg  1    736 43.11                             131   -0.01 7  122 215 
                                                                                
 2008  6 1 0742  4.4 L -14.871 167.408138.1  VAN 17 0.5                        1
 GAP=312        0.85      14.6    18.4  8.1  0.5231E+02 -0.6359E+02 -0.5309E+02E
 ACTION:ARG 12-06-25 17:31 OP:chb  STATUS:               ID:20080601074204 L   I
 2008-06-01-0742-03S.VNRC__100_MSEED                                           6
 STAT SP IPHASW D HRMM SECON CODA AMPLIT PERI AZIMU VELO AIN AR TRES W  DIS CAZ7
 VKOLHBZ EPg  2    742 23.12                             159   -0.09 5 47.2 215 
 VKOLHBZ ESg  1    742 37.68                             159   -0.23 7 47.2 215 
 VTURTBZ EPg  1    742 23.39                             155   -0.13 7 56.8 207 
 VTURTBZ ESg  1    742 38.43                             155   -0.03 7 56.8 207 
 VSARABZ EPg  1    742 23.73                             154   -0.03 7 59.7 228 
 VSARABZ ESg  1    742 38.80                             154   -0.08 7 59.7 228 
 VIRHOBZ EPg  2    742 24.00                             151   -0.13 5 67.4 199 
 VBUTMBZ EPg  1    742 24.28                             151   -0.00 7 68.9 220 
 VBUTMBZ ESg  1    742 39.69                             151   -0.13 7 68.9 220 
 VANGOBZ EPg  1    742 24.83                             149    0.22 7 73.3 230 
 VANGOBZ ESg  3    742 40.78                             149    0.37 2 73.3 230 
 VLEBEBZ EPg  1    742 24.78                             148   -0.02 7 77.5 219 
 VLEBEBZ ESg  2    742 41.18                             148    0.44 5 77.5 219 
 VBOKIBN ESg  2    742 40.91                             146   -0.30 5 81.8 192 
 VAVUNBZ EPg  1    742 25.62                             143    0.05 7 90.4 199 
 VAVUNBZ ESg  1    742 42.37                             143    0.25 7 90.4 199 
 VASAVBZ EPg  2    742 26.26                             141    0.24 5 97.1 191 
 VSULEBZ EPg  2    742 29.12                             140    2.53 5  102 226 
 VPOTOBZ EPg  1    742 27.41                             136    0.06 7  114 188 
 OS01 SP EPg  2    742 26.33                             135   -0.71 5  120 232 
 VNARWBZ EPg  3    742 28.25                             134    0.21 2  123 183 
 VESPIBZ EPg  3    742 27.78                             134   -0.26 2  124 191 
 OS07 SP EPg  2    742 28.02                             132   -0.53 5  131 200 
 OS03 SP EPg  1    742 28.48                             128   -0.61 7  149 225 
                                                                                
 2008  6 1  747  5.0 L                       VAN  0                            1
 ACTION:ARG 12-06-25 17:31 OP:chb  STATUS:               ID:20080601074705 L   I
 2008-06-01-0747-05S.VNRC__100_MSEED                                           6
 STAT SP IPHASW D HRMM SECON CODA AMPLIT PERI AZIMU VELO AIN AR TRES W  DIS CAZ7
                                                                                
 2008  6 1  747 35.0 L                       VAN  0                            1
 ACTION:ARG 12-06-25 17:31 OP:chb  STATUS:               ID:20080601074735 L   I
 2008-06-01-0747-35S.VNRC__100_MSEED                                           6
 STAT SP IPHASW D HRMM SECON CODA AMPLIT PERI AZIMU VELO AIN AR TRES W  DIS CAZ7
                                                                                
 2008  6 1  754 17.0 L                       VAN  0                            1
 ACTION:ARG 12-06-25 17:31 OP:chb  STATUS:               ID:20080601075417 L   I
 2008-06-01-0754-17S.VNRC__100_MSEED                                           6
 STAT SP IPHASW D HRMM SECON CODA AMPLIT PERI AZIMU VELO AIN AR TRES W  DIS CAZ7
                                                                                
 2008  6 1  757 45.0 L                       VAN  0                            1
 ACTION:ARG 12-06-25 17:31 OP:chb  STATUS:               ID:20080601075745 L   I
 2008-06-01-0757-45S.VNRC__100_MSEED                                           6
 STAT SP IPHASW D HRMM SECON CODA AMPLIT PERI AZIMU VELO AIN AR TRES W  DIS CAZ7
                                                                                
 2008  6 1 0806 45.1 L -15.400 167.719116.6  VAN 12 0.2                        1
 GAP=284        0.32       4.9    11.0  6.9  0.3446E+02 -0.6308E+02 -0.1901E+02E
 ACTION:ARG 12-06-25 17:31 OP:chb  STATUS:               ID:20080601080645 L   I
 2008-06-01-0806-31S.VNRC__100_MSEED                                           6
 STAT SP IPHASW D HRMM SECON CODA AMPLIT PERI AZIMU VELO AIN AR TRES W  DIS CAZ7
 VBOKIBN ESg  2    8 7 15.02                             151   -0.54 5 55.3 247 
 VTURTBZ EPg  0    8 7  2.25                             149   -0.0210 59.8 278 
 VASAVBZ EPg  1    8 7  2.62                             148    0.02 7 63.3 234 
 VKOLHBZ EPg  1    8 7  2.70                             148    0.08 7 63.9 288 
 VKOLHBZ ESg  1    8 7 16.40                             148    0.10 7 63.9 288 
 VAVUNBZ EPg  1    8 7  2.79                             146   -0.14 7 68.6 247 
 VAVUNBZ ESg  3    8 7 17.27                             146    0.41 2 68.6 247 
 VPOTOBZ EPg  2    8 7  3.59                             144    0.25 5 73.6 223 
 VNARWBZ EPg  2    8 7  3.49                             143    0.02 5 75.8 212 
 VNARWBZ ESg  2    8 7 17.96                             143    0.14 5 75.8 212 
 VBUTMBZ ESg  3    8 7 17.51                             142   -0.42 2 77.5 274 
 VSARABZ EPg  0    8 7  3.74                             141    0.0710 80.3 284 
 VSARABZ ESg  2    8 7 18.16                             141   -0.01 5 80.3 284 
 VLEBEBZ EPg  2    8 7  3.77                             140   -0.12 5 82.3 269 
 VLEBEBZ ESg  2    8 7 18.74                             140    0.17 5 82.3 269 
 VESPIBZ EPg  3    8 7  3.79                             139   -0.22 2 85.0 222 
 VESPIBZ ESg  3    8 7 19.08                             139    0.30 2 85.0 222 
 VANGOBZ EPg  1    8 7  4.41                             137   -0.13 7 90.3 277 
                                                                                
 2008  6 1 0811 25.8 L -15.087 167.421 76.0  VAN 16 0.3                        1
 GAP=294        0.49       4.8     7.7  7.1  0.1581E+02 -0.2985E+02 -0.2115E+02E
 ACTION:ARG 12-06-25 17:31 OP:chb  STATUS:               ID:20080601081126 L   I
 2008-06-01-0811-13S.VNRC__100_MSEED                                           6
 STAT SP IPHASW D HRMM SECON CODA AMPLIT PERI AZIMU VELO AIN AR TRES W  DIS CAZ7
 VKOLHBZ EPg  0    811 37.80                             153    0.1810 32.2 243 
 VTURTBZ EPg  1    811 38.17                             149    0.32 7 38.2 226 
 VIRHOBZ EPg  1    811 38.48                             143    0.04 7 46.1 210 
 VSARABZ EPg  1    811 38.87                             142    0.24 7 48.6 251 
 VSARABZ ESg  3    811 48.80                             142    0.16 2 48.6 251 
 VBUTMBZ EPg  1    811 39.00                             138   -0.07 7 53.9 237 
 VBUTMBZ ESg  1    811 49.63                             138    0.21 7 53.9 237 
 VTAMBBZ EPg  1    811 38.65                             137   -0.57 7 56.4 222 
 VTAMBBZ ESg  1    811 49.56                             137   -0.12 7 56.4 222 
 VBOKIBN ESg  1    811 49.88                             135   -0.31 7 59.0 199 
 VLEBEBZ EPg  0    811 39.44                             134   -0.2910 62.0 234 
 VLEBEBZ ESg  2    811 50.40                             134   -0.20 5 62.0 234 
 VANGOBZ EPg  0    811 39.70                             134   -0.1010 62.1 248 
 VAVUNBZ EPg  1    811 40.35                             130    0.07 7 68.9 207 
 VAVUNBZ ESg  1    811 51.78                             130    0.21 7 68.9 207 
 VASAVBZ ESg  1    811 52.23                             128   -0.14 7 74.1 195 
 VWUSIBZ EPg  2    811 42.40                             122    0.26 5 87.5 249 
 VSULEBZ EPg  1    811 42.50                             122    0.25 7 88.2 237 
 VPOTOBZ EPg  3    811 42.57                             121    0.21 2 90.5 191 
 VNARWBZ EPg  2    811 43.40                             118    0.21 5 99.1 185 
 VESPIBZ EPg  2    811 43.28                             118    0.00 5  101 194 
 VESPIBZ ESg  3    811 57.69                             118    0.78 2  101 194 
                                                                                
