 2008  6 1 0252 14.5 L -15.482 167.645100.1  VAN 11 0.3                        1
 GAP=283        0.40       7.0    22.1 16.3  0.6500E+02 -0.3212E+03 -0.2242E+02E
 ACTION:ARG 12-06-25 17:31 OP:chb  STATUS:               ID:20080601025214 L   I
 2008-06-01-0252-09S.VNRC__100_MSEED                                           6
 STAT SP IPHASW D HRMM SECON CODA AMPLIT PERI AZIMU VELO AIN AR TRES W  DIS CAZ7
 VIRHOBZ EPg  2    252 29.22                             152   -0.25 5 47.5 275 
 VASAVBZ EPg  2    252 29.54                             150   -0.22 5 51.6 237 
 VTURTBZ EPg  2    252 29.86                             149    0.09 5 54.1 288 
 VAVUNBZ EPg  2    252 30.28                             147    0.13 5 57.9 252 
 VAVUNBZ ESg  3    252 42.55                             147    0.19 2 57.9 252 
 VKOLHBZ EPg  2    252 30.47                             145    0.20 5 60.2 299 
 VKOLHBZ ESg  2    252 42.74                             145    0.16 5 60.2 299 
 VTAMBBZ EPg  3    252 30.32                             145   -0.03 2 61.5 271 
 VTAMBBZ ESg  1    252 42.46                             145   -0.27 7 61.5 271 
 VPOTOBZ EPg  1    252 30.46                             145   -0.01 7 61.5 223 
 VESPIBZ EPg  1    252 31.29                             140    0.15 7 72.9 222 
 VEBENBZ EPg  3    252 31.65                             139    0.34 2 74.5 263 
 VSARABZ EPg  2    252 31.57                             139    0.24 5 75.4 292 
 VSARABZ ESg  3    252 45.00                             139    0.54 2 75.4 292 
 VANGOBZ EPg  3    252 30.86                             135   -1.28 2 84.1 284 
                                                                                
 2008  6 1  257 19.0 L                       VAN  0                            1
 ACTION:ARG 12-06-25 17:31 OP:chb  STATUS:               ID:20080601025719 L   I
 2008-06-01-0257-19S.VNRC__100_MSEED                                           6
 STAT SP IPHASW D HRMM SECON CODA AMPLIT PERI AZIMU VELO AIN AR TRES W  DIS CAZ7
                                                                                
 2008  6 1 0319 33.3 L -14.693 167.407103.1  VAN  7 0.2                        1
 GAP=335        0.33       9.1    15.7 15.0  0.3699E+02 -0.2026E+03 -0.7929E+02E
 ACTION:ARG 12-06-25 17:31 OP:chb  STATUS:               ID:20080601031933 L   I
 2008-06-01-0319-30S.VNRC__100_MSEED                                           6
 STAT SP IPHASW D HRMM SECON CODA AMPLIT PERI AZIMU VELO AIN AR TRES W  DIS CAZ7
 VKOLHBZ EPg  2    319 49.79                             144    0.19 5 64.3 205 
 VKOLHBZ ESg  3    320  2.63                             144    0.29 2 64.3 205 
 VSARABZ EPg  1    319 50.32                             139    0.03 7 74.3 217 
 VSARABZ ESg  2    320  3.44                             139   -0.12 5 74.3 217 
 VBUTMBZ ESg  1    320  5.06                             135   -0.05 7 85.0 211 
 VIRHOBZ EPg  1    319 51.02                             135   -0.17 7 86.3 195 
 VANGOBZ ESg  1    320  5.71                             134    0.12 7 87.3 220 
 VLEBEBZ ESg  2    320  6.11                             132   -0.30 5 93.7 211 
 VAVUNBZ EPg  1    319 53.25                             127    0.05 7  109 196 
 VAVUNBZ ESg  2    320  8.94                             127    0.20 5  109 196 
                                                                                
 2008  6 1  327 51.0 L                       VAN  0                            1
 ACTION:ARG 12-06-25 17:31 OP:chb  STATUS:               ID:20080601032751 L   I
 2008-06-01-0327-51S.VNRC__100_MSEED                                           6
 STAT SP IPHASW D HRMM SECON CODA AMPLIT PERI AZIMU VELO AIN AR TRES W  DIS CAZ7
                                                                                
 2008  6 1  328 33.0 L                       VAN  0                            1
 ACTION:ARG 12-06-25 17:31 OP:chb  STATUS:               ID:20080601032833 L   I
 2008-06-01-0328-33S.VNRC__100_MSEED                                           6
 STAT SP IPHASW D HRMM SECON CODA AMPLIT PERI AZIMU VELO AIN AR TRES W  DIS CAZ7
                                                                                
 2008  6 1 0344 15.7 L -15.243 166.952 25.8  VAN  6 0.1                        1
 GAP=201        0.36       2.5     2.7  3.8  0.4511E+00 -0.4188E+01 -0.1889E+01E
 ACTION:ARG 12-06-25 17:31 OP:chb  STATUS:               ID:20080601034416 L   I
 2008-06-01-0343-56S.VNRC__100_MSEED                                           6
 STAT SP IPHASW D HRMM SECON CODA AMPLIT PERI AZIMU VELO AIN AR TRES W  DIS CAZ7
 VSARABZ EPg  0    344 20.66                             167    0.0210 4.66  71 
 VANGOBZ EPg  0    344 20.90                             155   -0.0910 9.31 230 
 VBUTMBZ EPg  0    344 21.34                             146    0.1810 12.9 157 
 VBUTMBZ ESg  1    344 25.60                             146    0.14 7 12.9 157 
 VLEBEBZ EPg  1    344 21.72                             133   -0.03 7 19.0 180 
 VLEBEBZ ESg  2    344 26.16                             133   -0.34 5 19.0 180 
 VKOLHBZ EPg  0    344 21.93                             128   -0.0710 21.9  83 
 VKOLHBZ ESg  3    344 26.67                             128   -0.27 2 21.9  83 
 VIRHOBZ EPg  0    344 23.67                             112    0.0610 35.2 130 
 VIRHOBZ ESg  2    344 29.58                             112   -0.23 5 35.2 130 
                                                                                
 2008  6 1  347 53.0 L                       VAN  0                            1
 ACTION:ARG 12-06-25 17:31 OP:chb  STATUS:               ID:20080601034753 L   I
 2008-06-01-0347-53S.VNRC__100_MSEED                                           6
 STAT SP IPHASW D HRMM SECON CODA AMPLIT PERI AZIMU VELO AIN AR TRES W  DIS CAZ7
                                                                                
 2008  6 1  358 39.0 L                       VAN  0                            1
 ACTION:ARG 12-06-25 17:31 OP:chb  STATUS:               ID:20080601035839 L   I
 2008-06-01-0358-39S.VNRC__100_MSEED                                           6
 STAT SP IPHASW D HRMM SECON CODA AMPLIT PERI AZIMU VELO AIN AR TRES W  DIS CAZ7
                                                                                
 2008  6 1 0405 35.3 L -14.371 167.325196.2  VAN 17 0.2                        1
 GAP=330        0.46      15.4    13.5  8.8 -0.6615E+02  0.2963E+02 -0.1184E+03E
 ACTION:ARG 12-06-25 17:31 OP:chb  STATUS:               ID:20080601040535 L   I
 2008-06-01-0405-42S.VNRC__100_MSEED                                           6
 STAT SP IPHASW D HRMM SECON CODA AMPLIT PERI AZIMU VELO AIN AR TRES W  DIS CAZ7
 VKOLHBZ EPg  1    4 6  1.99                             152   -0.26 7 95.6 191 
 VKOLHBZ ESg  2    4 6 22.75                             152   -0.53 5 95.6 191 
 VSARABZ EPg  0    4 6  2.45                             151   -0.1110  101 201 
 VSARABZ ESg  2    4 6 23.79                             151   -0.03 5  101 201 
 VTURTBZ EPg  1    4 6  2.80                             149    0.02 7  107 189 
 VTURTBZ ESg  3    4 6 23.65                             149   -0.56 2  107 189 
 VANGOBZ EPg  0    4 6  3.62                             148    0.2810  113 205 
 VANGOBZ ESg  2    4 6 25.45                             148    0.24 5  113 205 
 VBUTMBZ EPg  1    4 6  3.55                             148    0.23 7  114 198 
 VBUTMBZ ESg  1    4 6 25.20                             148    0.03 7  114 198 
 VIRHOBZ EPg  2    4 6  3.24                             146   -0.36 5  120 186 
 VLEBEBZ ESg  1    4 6 26.19                             146    0.06 7  122 199 
 VTAMBBZ EPg  1    4 6  3.90                             145   -0.02 7  124 193 
 VTAMBBZ ESg  3    4 6 26.18                             145   -0.06 2  124 193 
 VWUSIBZ EPg  0    4 6  4.73                             144    0.1710  131 213 
 VBOKIBN ESg  2    4 6 27.88                             143    0.22 5  135 184 
 VSULEBZ EPg  0    4 6  5.52                             142    0.2010  142 207 
 VAVUNBZ EPg  2    4 6  5.48                             141    0.35 5  142 188 
 OS01 SP EPg  0    4 6  5.02                             139   -0.3410  155 213 
 OS05 SP EPg  3    4 6  6.36                             137    0.05 2  165 196 
 OS02 SP EPg  1    4 6  5.90                             136   -0.26 7  167 208 
 OS04 SP EPg  2    4 6  7.07                             135   -0.13 5  178 203 
 OS03 SP EPg  2    4 6  7.44                             133   -0.04 5  187 211 
                                                                                
 2008  6 1 0414 19.7 L -13.858 166.770162.4  VAN  7 0.1                        1
 GAP=335        0.29     322.8    32.1256.0 -0.2952E+04 -0.8648E+03  0.8077E+05E
 ACTION:ARG 12-06-25 17:31 OP:chb  STATUS:               ID:20080601041418 L   I
 2008-06-01-0414-28S.VNRC__100_MSEED                                           6
 STAT SP IPHASW D HRMM SECON CODA AMPLIT PERI AZIMU VELO AIN AR TRES W  DIS CAZ7
 VSARABZ EPg  1    414 47.56                             133   -0.00 7  154 171 
 VKOLHBZ EPg  2    414 47.71                             132   -0.08 5  156 165 
 VIRHOBZ EPg  3    414 50.16                             128    0.21 2  182 165 
 OS01 SP EPg  2    414 49.90                             127    0.02 5  188 188 
 OS02 SP EPg  1    414 51.37                             125    0.08 7  205 186 
 OS04 SP EPg  1    414 52.93                             123   -0.05 7  221 183 
 OS03 SP EPg  1    414 52.48                             123   -0.03 7  221 189 
                                                                                
 2008  6 1  414 57.0 L                       VAN  0                            1
 ACTION:ARG 12-06-25 17:31 OP:chb  STATUS:               ID:20080601041457 L   I
 2008-06-01-0414-57S.VNRC__100_MSEED                                           6
 STAT SP IPHASW D HRMM SECON CODA AMPLIT PERI AZIMU VELO AIN AR TRES W  DIS CAZ7
                                                                                
 2008  6 1 0429  3.0 L -14.736 167.307140.5  VAN 10 0.4                        1
 GAP=321        0.58      21.0    21.3 11.5  0.8013E+02 -0.7947E+02 -0.1293E+03E
 ACTION:ARG 12-06-25 17:31 OP:chb  STATUS:               ID:20080601042903 L   I
 2008-06-01-0429-02S.VNRC__100_MSEED                                           6
 STAT SP IPHASW D HRMM SECON CODA AMPLIT PERI AZIMU VELO AIN AR TRES W  DIS CAZ7
 VKOLHBZ EPg  1    429 22.21                             156   -0.21 7 55.9 197 
 VKOLHBZ ESg  2    429 37.40                             156   -0.20 5 55.9 197 
 VSARABZ EPg  1    429 22.73                             153   -0.07 7 64.1 212 
 VSARABZ ESg  3    429 38.11                             153   -0.18 2 64.1 212 
 VTURTBZ EPg  3    429 22.50                             152   -0.36 2 67.2 193 
 VBUTMBZ EPg  2    429 23.56                             149    0.08 5 75.6 206 
 VBUTMBZ ESg  2    429 39.77                             149    0.29 5 75.6 206 
 VANGOBZ EPg  1    429 24.32                             148    0.69 7 76.8 216 
 VIRHOBZ EPg  1    429 23.38                             147   -0.25 7 79.4 188 
 VIRHOBZ ESg  3    429 39.35                             147   -0.40 2 79.4 188 
 VAVUNBZ EPg  2    429 25.34                             140    0.17 5  102 191 
 VASAVBZ EPg  1    429 25.99                             138    0.20 7  111 184 
 OS01 SP EPg  2    429 25.19                             135   -0.79 5  122 223 
 OS04 SP EPg  3    429 27.11                             130   -0.52 2  141 209 
                                                                                
 2008  6 1 0446 12.5 L -15.622 167.525123.5  VAN  6 0.2                        1
 GAP=266        0.30      17.8    53.3 12.7  0.8073E+03 -0.3856E+03 -0.1244E+03E
 ACTION:ARG 12-06-25 17:31 OP:chb  STATUS:               ID:20080601044612 L   I
 2008-06-01-0446-09S.VNRC__100_MSEED                                           6
 STAT SP IPHASW D HRMM SECON CODA AMPLIT PERI AZIMU VELO AIN AR TRES W  DIS CAZ7
 VASAVBZ ESg  3    446 42.23                             163   -0.19 2 33.0 248 
 VPOTOBZ EPg  2    446 29.76                             159    0.05 5 41.4 224 
 VKOLHBZ EPg  3    446 30.11                             151   -0.34 2 59.7 318 
 VKOLHBZ ESg  3    446 44.62                             151    0.16 2 59.7 318 
 VBUTMBZ EPg  2    446 30.83                             149    0.11 5 63.9 298 
 VSARABZ EPg  1    446 31.14                             146    0.00 7 71.7 307 
 VANGOBZ EPg  3    446 31.35                             144   -0.29 2 77.5 298 
                                                                                
 2008  6 1  449 40.0 L                       VAN  0                            1
 ACTION:ARG 12-06-25 17:31 OP:chb  STATUS:               ID:20080601044940 L   I
 2008-06-01-0449-40S.VNRC__100_MSEED                                           6
 STAT SP IPHASW D HRMM SECON CODA AMPLIT PERI AZIMU VELO AIN AR TRES W  DIS CAZ7
                                                                                
 2008  6 1 0505 34.9 L -15.684 167.643164.4  VAN 20 0.3                        1
 GAP=270        0.52       7.0    12.0  6.1  0.1170E+02 -0.1473E+01  0.1319E+02E
 ACTION:ARG 12-06-25 17:31 OP:chb  STATUS:               ID:20080601050535 L   I
 2008-06-01-0505-36S.VNRC__100_MSEED                                           6
 STAT SP IPHASW D HRMM SECON CODA AMPLIT PERI AZIMU VELO AIN AR TRES W  DIS CAZ7
 VASAVBZ EPg  3    5 5 56.97                             164    0.52 2 43.6 263 
 VASAVBZ ESg  3    5 6 14.45                             164    1.23 2 43.6 263 
 VBOKIBN ESg  1    5 6 13.00                             164   -0.35 7 44.0 283 
 VNARWBZ EPg  2    5 5 57.16                             163    0.56 5 45.9 224 
 VPOTOBZ EPg  1    5 5 56.92                             162    0.25 7 47.4 241 
 VIRHOBZ EPg  1    5 5 56.23                             160   -0.52 7 53.9 299 
 VAVUNBZ EPg  1    5 5 57.02                             160    0.16 7 55.1 275 
 VESPIBZ EPg  1    5 5 57.07                             159    0.13 7 58.0 236 
 VKOLHBZ EPg  1    5 5 57.33                             154   -0.31 7 73.4 314 
 VKOLHBZ ESg  2    5 6 15.31                             154   -0.03 5 73.4 314 
 OS07 SP EPg  1    5 5 57.42                             152   -0.37 7 78.0 245 
 VBUTMBZ EPg  0    5 5 57.99                             152    0.0710 78.3 298 
 VLEBEBZ EPg  1    5 5 58.16                             152    0.13 7 79.8 292 
 OS05 SP EPg  1    5 5 57.49                             152   -0.00 7 79.8 260 
 OS10 SP EPg  3    5 5 57.40                             150   -0.10 2 85.6 230 
 VSARABZ EPg  0    5 5 58.31                             150    0.0210 86.0 306 
 VSARABZ ESg  2    5 6 16.65                             150    0.16 5 86.0 306 
 VANGOBZ EPg  2    5 5 59.05                             148    0.29 5 91.9 298 
 OS09 SP EPg  1    5 5 58.33                             145   -0.03 7  102 238 
 OS04 SP EPg  1    5 5 58.75                             144   -0.15 7  105 260 
 VWUSIBZ EPg  1    5 6  0.44                             143    0.40 7  111 288 
 OS01 SP EPg  1    5 5 59.85                             140    0.05 7  120 277 
 OS03 SP EPg  1    5 6  0.02                             138   -0.18 7  131 263 
                                                                                
 2008  6 1  5 7  9.0 L                       VAN  0                            1
 ACTION:ARG 12-06-25 17:31 OP:chb  STATUS:               ID:20080601050709 L   I
 2008-06-01-0507-09S.VNRC__100_MSEED                                           6
 STAT SP IPHASW D HRMM SECON CODA AMPLIT PERI AZIMU VELO AIN AR TRES W  DIS CAZ7
                                                                                
 2008  6 1  511 50.0 L                       VAN  0                            1
 ACTION:ARG 12-06-25 17:31 OP:chb  STATUS:               ID:20080601051150 L   I
 2008-06-01-0511-50S.VNRC__100_MSEED                                           6
 STAT SP IPHASW D HRMM SECON CODA AMPLIT PERI AZIMU VELO AIN AR TRES W  DIS CAZ7
                                                                                
 2008  6 1 0536  8.6 L -15.580 167.368108.7  VAN  5 0.2                        1
 GAP=230        0.34      18.4    42.4 18.7  0.7370E+03 -0.7427E+03 -0.3066E+03E
 ACTION:ARG 12-06-25 17:31 OP:chb  STATUS:               ID:20080601053608 L   I
 2008-06-01-0535-56S.VNRC__100_MSEED                                           6
 STAT SP IPHASW D HRMM SECON CODA AMPLIT PERI AZIMU VELO AIN AR TRES W  DIS CAZ7
 VAVUNBZ EPg  2    536 23.81                             164    0.17 5 26.3 255 
 VAVUNBZ ESg  2    536 35.49                             164    0.12 5 26.3 255 
 VPOTOBZ EPg  0    536 24.03                             159   -0.0510 36.3 200 
 VKOLHBZ EPg  3    536 23.93                             154   -0.47 2 46.0 330 
 VLEBEBZ ESg  2    536 36.88                             153   -0.15 5 48.1 292 
 VSARABZ EPg  0    536 24.95                             149    0.0410 55.9 314 
                                                                                
 2008  6 1  553  9.0 L                       VAN  2                            1
 ACTION:ARG 12-06-25 17:31 OP:chb  STATUS:               ID:20080601055309 L   I
 2008-06-01-0553-09S.VNRC__100_MSEED                                           6
 STAT SP IPHASW D HRMM SECON CODA AMPLIT PERI AZIMU VELO AIN AR TRES W  DIS CAZ7
 VKOLHBZ EPg  2    553 27.74                                                    
 VSARABZ EPg  1    553 28.56                                                    
                                                                                
 2008  6 1  6 9 57.0 L                       VAN  0                            1
 ACTION:ARG 12-06-25 17:31 OP:chb  STATUS:               ID:20080601060957 L   I
 2008-06-01-0609-57S.VNRC__100_MSEED                                           6
 STAT SP IPHASW D HRMM SECON CODA AMPLIT PERI AZIMU VELO AIN AR TRES W  DIS CAZ7
                                                                                
 2008  6 1 0627 36.1 L -15.460 167.715120.8  VAN  4 0.1                        1
 GAP=292        0.30       9.0    22.7 13.7  0.1024E+03 -0.2371E+03 -0.1671E+02E
 ACTION:ARG 12-06-25 17:31 OP:chb  STATUS:               ID:20080601062736 L   I
 2008-06-01-0627-33S.VNRC__100_MSEED                                           6
 STAT SP IPHASW D HRMM SECON CODA AMPLIT PERI AZIMU VELO AIN AR TRES W  DIS CAZ7
 VKOLHBZ EPg  1    627 54.22                             148    0.07 7 65.8 294 
 VKOLHBZ ESg  2    628  8.15                             148   -0.07 5 65.8 294 
 VPOTOBZ EPg  1    627 54.43                             147    0.00 7 68.5 226 
 VSARABZ EPg  2    627 55.05                             142   -0.10 5 81.6 288 
 VLEBEBZ EPg  2    627 55.24                             142   -0.01 5 81.9 273 
 VLEBEBZ ESg  3    628 10.28                             142    0.09 2 81.9 273 
                                                                                
