 2008  6 1 1343 12.3 L -16.044 167.433 34.2  VAN 18 0.3                        1
 GAP=270        0.60       3.0     7.9  5.6 -0.1216E+02  0.1817E+02 -0.5536E+01E
 ACTION:ARG 12-06-25 17:31 OP:chb  STATUS:               ID:20080601134312 L   I
 2008-06-01-1342-56S.VNRC__100_MSEED                                           6
 STAT SP IPHASW D HRMM SECON CODA AMPLIT PERI AZIMU VELO AIN AR TRES W  DIS CAZ7
 VNARWBZ EPg  0   1343 18.64                             156   -0.1810 12.0 306 
 VNARWBZ ESg  3   1343 23.64                             156   -0.26 2 12.0 306 
 VPOTOBZ EPg  0   1343 20.11                             133    0.1910 25.8 312 
 VESPIBZ EPg  1   1343 20.17                             131    0.26 7 27.0 287 
 VASAVBZ EPg  1   1343 21.60                             117    0.20 7 40.2 329 
 OS10 SP EPg  0   1343 21.43                             111    0.0810 45.5 250 
 OS08 SP EPg  1   1343 22.12                             110    0.13 7 48.7 302 
 VBOKIBN ESg  1   1343 31.16                             107   -0.48 7 54.0 338 
 VAVUNBZ EPg  1   1343 23.66                             106    0.41 7 55.0 324 
 OS05 SP EPg  2   1343 23.83                             102    0.15 5 61.9 295 
 OS09 SP EPg  0   1343 23.58                             100   -0.2610 65.7 257 
 OS06 SP EPg  2   1343 24.44                             100   -0.30 5 68.0 274 
 VIRHOBZ EPg  1   1343 24.96                              99   -0.25 7 70.5 340 
 VIRHOBZ ESg  2   1343 34.94                              99   -0.33 5 70.5 340 
 VEBENBZ EPg  2   1343 26.31                              98    0.64 5 73.5 316 
 VTAMBBZ ESg  2   1343 36.62                              98    0.34 5 74.6 329 
 OS04 SP EPg  2   1343 25.81                              96   -0.72 5 84.0 285 
 VTURTBZ EPg  1   1343 26.49                              96   -0.46 7 84.2 340 
 VBUTMBZ EPg  1   1343 28.03                              95    0.21 7 89.8 329 
 VBUTMBZ ESg  3   1343 40.26                              95    0.34 2 89.8 329 
 VSARABZ EPg  1   1343 29.68                              94    0.31 7  102 332 
 VSARABZ ESg  3   1343 42.99                              94    0.31 2  102 332 
                                                                                
 2008  6 1 1406 38.8 L -15.605 167.853136.9  VAN 12 0.2                        1
 GAP=293        0.36       8.3    17.6 10.0  0.9250E+02 -0.1616E+03 -0.5197E+02E
 ACTION:ARG 12-06-25 17:31 OP:chb  STATUS:               ID:20080601140639 L   I
 2008-06-01-1406-28S.VNRC__100_MSEED                                           6
 STAT SP IPHASW D HRMM SECON CODA AMPLIT PERI AZIMU VELO AIN AR TRES W  DIS CAZ7
 VBOKIBN ESg  3   14 7 13.15                             151   -0.63 2 65.5 271 
 VASAVBZ EPg  1   14 6 58.48                             151   -0.03 7 67.3 258 
 VASAVBZ ESg      14 7 13.80                             151   -0.0610 67.3 258 
 VNARWBZ EPg  3   14 6 58.82                             150    0.16 2 68.6 233 
 VAVUNBZ EPg  1   14 6 59.10                             147   -0.00 7 77.6 267 
 VAVUNBZ ESg  2   14 7 15.53                             147    0.61 5 77.6 267 
 VTAMBBZ EPg  1   14 6 59.41                             144   -0.14 7 85.2 280 
 VTAMBBZ ESg  2   14 7 15.28                             144   -0.43 5 85.2 280 
 VKOLHBZ EPg  1   14 6 59.77                             144    0.15 7 86.3 300 
 VKOLHBZ ESg  3   14 7 16.43                             144    0.58 2 86.3 300 
 VBUTMBZ EPg  1   14 7  0.20                             141   -0.11 7 95.9 287 
 VBUTMBZ ESg  2   14 7 17.23                             141    0.16 5 95.9 287 
 VEBENBZ EPg  2   14 7  0.47                             141    0.14 5 96.3 272 
 VLEBEBZ EPg  1   14 7  0.53                             140   -0.02 7 98.9 282 
 VLEBEBZ ESg  3   14 7 17.13                             140   -0.36 2 98.9 282 
 VSARABZ ESg  2   14 7 17.68                             139    0.02 5  101 294 
 OS10 SP EPg  2   14 7  0.58                             137    0.14 5  109 234 
 VANGOBZ EPg  3   14 7  1.28                             137   -0.09 2  109 288 
                                                                                
 2008  6 1 1413 28.5 L -15.419 167.988123.2  VAN 13 0.3                        1
 GAP=304        0.50      12.1    19.5 19.4  0.1775E+03 -0.3568E+03 -0.1626E+03E
 ACTION:ARG 12-06-25 17:31 OP:chb  STATUS:               ID:20080601141328 L   I
 2008-06-01-1413-28S.VNRC__100_MSEED                                           6
 STAT SP IPHASW D HRMM SECON CODA AMPLIT PERI AZIMU VELO AIN AR TRES W  DIS CAZ7
 VIRHOBZ EPg  2   1413 47.18                             141   -0.78 5 84.3 268 
 VIRHOBZ ESg  2   1414  3.28                             141    0.17 5 84.3 268 
 VASAVBZ EPg  1   1413 48.27                             140    0.03 7 87.5 247 
 VTURTBZ ESg  3   1414  3.60                             140    0.06 2 88.8 276 
 VKOLHBZ EPg  2   1413 49.10                             138    0.54 5 92.3 284 
 VNARWBZ EPg  3   1413 49.11                             138    0.40 2 92.9 228 
 VPOTOBZ EPg  1   1413 49.07                             138    0.24 7 94.3 236 
 VPOTOBZ ESg  2   1414  5.08                             138    0.42 5 94.3 236 
 VAVUNBZ EPg  1   1413 48.75                             137   -0.06 7 95.2 255 
 VAVUNBZ ESg  1   1414  4.33                             137   -0.29 7 95.2 255 
 VESPIBZ EPg  1   1413 49.38                             134   -0.15 7  105 234 
 VBUTMBZ EPg  2   1413 49.05                             134   -0.64 5  107 274 
 VBUTMBZ ESg  2   1414  5.88                             134   -0.31 5  107 274 
 VSARABZ ESg  3   1414  6.67                             133    0.22 2  109 281 
 VLEBEBZ EPg  3   1413 49.96                             133   -0.14 2  111 270 
 VLEBEBZ ESg  1   1414  6.84                             133   -0.07 7  111 270 
 VEBENBZ EPg  2   1413 50.19                             132    0.06 5  112 261 
 VANGOBZ EPg  1   1413 51.10                             130    0.28 7  119 276 
 VANGOBZ ESg  1   1414  8.41                             130    0.20 7  119 276 
                                                                                
 2008  6 1 1418 38.0 L                       VAN  0                            1
 ACTION:ARG 12-06-25 17:31 OP:chb  STATUS:               ID:20080601141838 L   I
 2008-06-01-1418-38S.VNRC__100_MSEED                                           6
 STAT SP IPHASW D HRMM SECON CODA AMPLIT PERI AZIMU VELO AIN AR TRES W  DIS CAZ7
                                                                                
 2008  6 1 1418 41.6 L -16.531 167.158 31.6  VAN 30 0.4                        1
 GAP=284        0.78       5.7     4.8 12.2 -0.1275E+02  0.1639E+02 -0.2099E+02E
 ACTION:ARG 12-06-25 17:31 OP:chb  STATUS:               ID:20080601141842 L   I
 2008-06-01-1418-22S.VNRC__100_MSEED                                           6
 STAT SP IPHASW D HRMM SECON CODA AMPLIT PERI AZIMU VELO AIN AR TRES W  DIS CAZ7
 OS10 SP EPg  0   1418 49.61                             113   -0.2910 40.6 341 
 VLEVIBZ EPg  1   1418 50.63                             113   -0.59 7 42.8  13 
 OS09 SP EPg  0   1418 51.39                             106    0.0810 52.4 319 
 VLAKABZ EPg  1   1418 52.02                             105   -0.55 7 54.8  31 
 VESPIBZ EPg  1   1418 53.41                             102    0.11 7 61.7   3 
 OS07 SP EPg  1   1418 53.20                             102   -0.30 7 63.4 343 
 VNARWBZ EPg  1   1418 53.67                             101   -0.05 7 64.0  18 
 OS06 SP EPg  1   1418 53.94                              99   -0.32 7 70.1 327 
 VPOTOBZ EPg  1   1418 55.04                              99    0.28 7 71.7   8 
 OS08 SP EPg  0   1418 55.74                              97    0.3310 80.7 352 
 OS05 SP EPg  0   1418 56.10                              96    0.2210 84.2 342 
 VASAVBZ EPg  1   1418 57.26                              95    0.35 7 88.6   6 
 OS04 SP EPg  0   1418 56.51                              95   -0.2510 91.3 325 
 VAVUNBZ EPg  1   1418 58.63                              94    0.42 7 98.3 358 
 VAVUNBZ ESg  3   1419 11.94                              94    0.76 2 98.3 358 
 VSALEBZ EPg  0   1418 59.02                              93    0.1210  104 340 
 VBOKIBN ESg  1   1419 11.98                              93   -0.69 7  104   5 
 VEBENBZ EPg  1   1419  0.41                              93    0.80 7  109 348 
 OS03 SP EPg  0   1418 59.23                              93    0.3810  110 315 
 OS02 SP EPg  0   1418 58.76                              93   -0.3710  111 326 
 VTAMBBZ EPg  0   1419  1.11                              92    0.3110  118 355 
 VTAMBBZ ESg  2   1419 16.17                              92    0.39 5  118 355 
 VIRHOBZ EPg  1   1419  1.32                              92    0.28 7  120   2 
 VIRHOBZ ESg  2   1419 16.08                              92   -0.14 5  120   2 
 VSULEBZ EPg  2   1419  1.28                              92   -0.21 5  121 338 
 VLEBEBZ EPg  1   1419  2.03                              92    0.17 7  125 350 
 OS01 SP EPg  0   1419  1.01                              92   -0.5810  128 328 
 VBUTMBZ EPg  0   1419  2.74                              92    0.0810  132 353 
 VTURTBZ EPg  1   1419  2.91                              92    0.20 7  133   0 
 VTURTBZ ESg  2   1419 19.45                              92    0.26 5  133   0 
 VWUSIBZ EPg  1   1419  3.31                              92   -0.55 7  139 337 
 VANGOBZ EPg  2   1419  3.98                              92    0.16 5  140 348 
 VKOLHBZ EPg  1   1419  4.66                              92    0.23 7  145 360 
 VSARABZ EPg  0   1419  4.34                              92   -0.0610  145 353 
 VSARABZ ESg  2   1419 22.09                              92   -0.11 5  145 353 
                                                                                
 2008  6 1 1426 12.3 L -14.822 167.368 90.9  VAN  8 0.1                        1
 GAP=330        0.31       5.9     9.3  6.1  0.8681E+01 -0.3360E+02 -0.2197E+02E
 ACTION:ARG 12-06-25 17:31 OP:chb  STATUS:               ID:20080601142612 L   I
 2008-06-01-1426-06S.VNRC__100_MSEED                                           6
 STAT SP IPHASW D HRMM SECON CODA AMPLIT PERI AZIMU VELO AIN AR TRES W  DIS CAZ7
 VKOLHBZ EPg  1   1426 26.48                             147   -0.08 7 49.5 208 
 VKOLHBZ ESg  1   1426 37.83                             147    0.15 7 49.5 208 
 VTURTBZ EPg  2   1426 27.03                             141   -0.11 5 60.0 201 
 VSARABZ EPg  1   1426 27.25                             141   -0.02 7 60.5 222 
 VSARABZ ESg  2   1426 39.11                             141    0.17 5 60.5 222 
 VBUTMBZ EPg  1   1426 28.09                             136    0.01 7 70.6 214 
 VBUTMBZ ESg  1   1426 40.37                             136   -0.01 7 70.6 214 
 VIRHOBZ EPg  1   1426 28.07                             136    0.00 7 71.3 194 
 VIRHOBZ ESg  2   1426 39.97                             136   -0.38 5 71.3 194 
 VANGOBZ EPg  1   1426 28.31                             135   -0.11 7 73.8 225 
 VTAMBBZ EPg  1   1426 28.71                             133    0.06 7 78.2 204 
 VTAMBBZ ESg  2   1426 41.15                             133   -0.23 5 78.2 204 
 VAVUNBZ EPg  1   1426 30.25                             127    0.18 7 94.3 196 
 VAVUNBZ ESg  2   1426 44.06                             127    0.15 5 94.3 196 
                                                                                
 2008  6 1 1428 17.0 L                       VAN  0                            1
 ACTION:ARG 12-06-25 17:31 OP:chb  STATUS:               ID:20080601142817 L   I
 2008-06-01-1428-17S.VNRC__100_MSEED                                           6
 STAT SP IPHASW D HRMM SECON CODA AMPLIT PERI AZIMU VELO AIN AR TRES W  DIS CAZ7
                                                                                
 2008  6 1 1431  9.6 L -14.769 166.276101.1  VAN  4 0.0                        1
 GAP=351        0.34      40.4    95.0 70.6 -0.2391E+03  0.6489E+04 -0.8053E+03E
 ACTION:ARG 12-06-25 17:31 OP:chb  STATUS:               ID:20080601143110 L   I
 2008-06-01-1431-10S.VNRC__100_MSEED                                           6
 STAT SP IPHASW D HRMM SECON CODA AMPLIT PERI AZIMU VELO AIN AR TRES W  DIS CAZ7
 VSARABZ ESg  1   1431 42.18                             132   -0.00 7 92.4 124 
 VBUTMBZ ESg  2   1431 43.56                             129   -0.00 5  101 130 
 VTAMBBZ EPg  2   1431 29.96                             125    0.01 5  115 132 
 VIRHOBZ EPg  2   1431 30.81                             122   -0.00 5  125 127 
                                                                                
 2008  6 1 1433  1.0 L                       VAN  0                            1
 ACTION:ARG 12-06-25 17:31 OP:chb  STATUS:               ID:20080601143301 L   I
 2008-06-01-1433-01S.VNRC__100_MSEED                                           6
 STAT SP IPHASW D HRMM SECON CODA AMPLIT PERI AZIMU VELO AIN AR TRES W  DIS CAZ7
                                                                                
 2008  6 1 1434  4.6 L -16.516 167.214 21.8  VAN  7 0.3                        1
 GAP=286        0.45       8.4     5.8116.4 -0.2325E+02  0.2010E+03  0.3565E+02E
 ACTION:ARG 12-06-25 17:31 OP:chb  STATUS:               ID:20080601143405 L   I
 2008-06-01-1433-52S.VNRC__100_MSEED                                           6
 STAT SP IPHASW D HRMM SECON CODA AMPLIT PERI AZIMU VELO AIN AR TRES W  DIS CAZ7
 OS10 SP EPg  2   1434 12.60                              93   -0.07 5 41.5 332 
 VLAKABZ EPg  1   1434 14.64                              91   -0.12 7 50.5  26 
 VLAKABZ ESg  2   1434 22.33                              91   -0.34 5 50.5  26 
 VESPIBZ EPg  2   1434 16.26                              91    0.34 5 60.0 358 
 OS08 SP EPg  1   1434 18.51                              90    0.17 7 80.2 347 
 VAVUNBZ EPg  1   1434 21.39                              90    0.23 7 97.0 355 
 VAVUNBZ ESg  3   1434 34.42                              90    0.36 2 97.0 355 
 OS03 SP EPg  2   1434 21.94                              90   -0.58 5  113 312 
 VTURTBZ EPg  1   1434 25.90                              90    0.02 7  132 358 
 VTURTBZ ESg  3   1434 42.03                              90   -0.44 2  132 358 
                                                                                
 2008  6 1 1438 43.7 L -14.368 167.212162.8  VAN 12 0.3                        1
 GAP=331        0.43      14.4    14.4 10.9 -0.2366E+02  0.5178E+01 -0.1292E+03E
 ACTION:ARG 12-06-25 17:31 OP:chb  STATUS:               ID:20080601143844 L   I
 2008-06-01-1438-46S.VNRC__100_MSEED                                           6
 STAT SP IPHASW D HRMM SECON CODA AMPLIT PERI AZIMU VELO AIN AR TRES W  DIS CAZ7
 VKOLHBZ EPg  1   1439  7.16                             147   -0.20 7 94.3 184 
 VKOLHBZ ESg  3   1439 25.35                             147   -0.48 2 94.3 184 
 VSARABZ EPg  1   1439  7.70                             146    0.12 7 98.1 194 
 VSARABZ ESg  3   1439 25.93                             146   -0.30 2 98.1 194 
 VTURTBZ EPg  3   1439  7.94                             144   -0.06 2  106 183 
 VANGOBZ EPg  1   1439  8.60                             143    0.21 7  109 199 
 VANGOBZ ESg  2   1439 27.87                             143    0.21 5  109 199 
 VBUTMBZ EPg  2   1439  8.64                             143    0.17 5  111 192 
 VBUTMBZ ESg  1   1439 27.62                             143   -0.19 7  111 192 
 VIRHOBZ EPg  1   1439  8.67                             141   -0.30 7  119 180 
 VLEBEBZ EPg  1   1439  9.12                             141    0.07 7  119 194 
 VWUSIBZ EPg  1   1439  9.89                             139    0.26 7  125 208 
 VAVUNBZ EPg  1   1439 10.89                             135    0.23 7  141 184 
 VAVUNBZ ESg  2   1439 32.09                             135    0.38 5  141 184 
 OS01 SP EPg  2   1439 10.14                             134   -0.45 5  149 209 
 OS04 SP EPg  2   1439 12.52                             129   -0.24 5  174 199 
 OS03 SP EPg  2   1439 12.66                             128   -0.32 5  182 207 
                                                                                
 2008  6 1 1442 22.3 L -16.483 167.185 22.5  VAN 13 0.3                        1
 GAP=281        0.51       4.2     4.1 29.7 -0.7147E+01  0.3495E+02 -0.2912E+02E
 ACTION:ARG 12-06-25 17:31 OP:chb  STATUS:               ID:20080601144222 L   I
 2008-06-01-1442-14S.VNRC__100_MSEED                                           6
 STAT SP IPHASW D HRMM SECON CODA AMPLIT PERI AZIMU VELO AIN AR TRES W  DIS CAZ7
 OS10 SP EPg  1   1442 29.85                             100    0.07 7 36.9 334 
 VLAKABZ EPg  1   1442 32.04                              95   -0.22 7 48.9  31 
 VLAKABZ ESg  2   1442 39.78                              95   -0.21 5 48.9  31 
 OS09 SP EPg  1   1442 31.57                              94   -0.03 7 50.7 312 
 VESPIBZ EPg  2   1442 33.63                              93    0.49 5 56.4   1 
 OS08 SP EPg  1   1442 36.00                              92    0.51 7 76.0 349 
 OS05 SP EPg  2   1442 36.37                              91    0.28 5 80.2 338 
 OS04 SP EPg  3   1442 36.90                              91   -0.32 2 88.7 322 
 VAVUNBZ EPg  2   1442 38.90                              91    0.54 5 93.2 356 
 OS03 SP EPg  1   1442 39.27                              91   -0.33 7  109 312 
 VIRHOBZ EPg  1   1442 41.47                              91    0.15 7  115   1 
 VIRHOBZ ESg  1   1442 56.08                              91   -0.04 7  115   1 
 VBUTMBZ EPg  1   1442 42.91                              91   -0.19 7  127 351 
 VBUTMBZ ESg  1   1442 59.28                              91   -0.01 7  127 351 
 VTURTBZ EPg  3   1442 43.16                              91    0.06 2  128 359 
 VSARABZ EPg  1   1442 44.62                              91   -0.32 7  140 352 
 VSARABZ ESg  3   1443  1.94                              91   -0.62 2  140 352 
                                                                                
 2008  6 1 1444 17.6 L -15.145 167.932111.9  VAN  6 0.1                        1
 GAP=342        0.34      20.2    19.0 25.6  0.1769E+03 -0.4513E+03 -0.3535E+03E
 ACTION:ARG 12-06-25 17:31 OP:chb  STATUS:               ID:20080601144418 L   I
 2008-06-01-1444-16S.VNRC__100_MSEED                                           6
 STAT SP IPHASW D HRMM SECON CODA AMPLIT PERI AZIMU VELO AIN AR TRES W  DIS CAZ7
 VTURTBZ EPg  1   1444 36.13                             137    0.12 7 84.7 256 
 VIRHOBZ EPg  3   1444 36.54                             137    0.42 2 85.1 247 
 VTAMBBZ ESg  1   1444 52.52                             132   -0.05 7 99.1 249 
 VSARABZ EPg  0   1444 37.35                             131   -0.0710  101 265 
 VSARABZ ESg  2   1444 52.82                             131   -0.07 5  101 265 
 VBUTMBZ EPg  1   1444 37.40                             131   -0.19 7  103 257 
 VBUTMBZ ESg  1   1444 53.19                             131    0.00 7  103 257 
 VANGOBZ EPg  1   1444 38.78                             128    0.17 7  114 261 
 VANGOBZ ESg  2   1444 55.17                             128    0.17 5  114 261 
                                                                                
