 2008  6 1 1450 47.7 L -15.120 167.961 76.1  VAN  9 0.5                        1
 GAP=312        0.58      19.0    33.0 78.5  0.4103E+03 -0.2498E+04 -0.8646E+03E
 ACTION:ARG 12-06-25 17:31 OP:chb  STATUS:               ID:20080601145048 L   I
 2008-06-01-1450-44S.VNRC__100_MSEED                                           6
 STAT SP IPHASW D HRMM SECON CODA AMPLIT PERI AZIMU VELO AIN AR TRES W  DIS CAZ7
 VKOLHBZ EPg  3   1451  5.10                             122    1.20 2 87.4 263 
 VIRHOBZ EPg  2   1451  3.71                             121   -0.31 5 89.1 246 
 VTAMBBZ ESg  2   1451 18.85                             116   -0.37 5  103 248 
 VSARABZ EPg  2   1451  5.79                             116    0.19 5  105 263 
 VSARABZ ESg  3   1451 20.18                             116    0.66 2  105 263 
 VAVUNBZ EPg  2   1451  5.27                             116   -0.52 5  106 237 
 VBUTMBZ EPg  2   1451  5.37                             116   -0.45 5  107 256 
 VBUTMBZ ESg  2   1451 19.57                             116   -0.34 5  107 256 
 VPOTOBZ EPg  2   1451  6.74                             114    0.07 5  114 222 
 VNARWBZ EPg  1   1451  7.21                             113    0.36 7  116 215 
 VANGOBZ ESg  2   1451 22.49                             113    0.45 5  117 260 
                                                                                
 2008  6 1 1455 52.3 L -14.805 167.496108.1  VAN  4 0.0                        1
 GAP=335        0.30      22.8    23.5 25.4  0.3079E+03 -0.3981E+03 -0.5511E+03E
 ACTION:ARG 12-06-25 17:31 OP:chb  STATUS:               ID:20080601145552 L   I
 2008-06-01-1455-49S.VNRC__100_MSEED                                           6
 STAT SP IPHASW D HRMM SECON CODA AMPLIT PERI AZIMU VELO AIN AR TRES W  DIS CAZ7
 VKOLHBZ EPg  2   1456  8.83                             147    0.05 5 58.7 219 
 VSARABZ EPg  1   1456  9.55                             142   -0.05 7 71.6 229 
 VIRHOBZ EPg  1   1456  9.98                             139   -0.02 7 77.7 204 
 VIRHOBZ ESg  1   1456 23.78                             139    0.00 7 77.7 204 
 VBUTMBZ EPg  1   1456 10.34                             138    0.05 7 80.6 222 
 VBUTMBZ ESg  3   1456 24.28                             138   -0.01 2 80.6 222 
                                                                                
 2008  6 1 1500  8.3 L -16.626 167.834 29.3  VAN 11 0.4                        1
 GAP=322        0.73       9.3    14.3100.7 -0.5500E+02 -0.1903E+03  0.1642E+03E
 ACTION:ARG 12-06-25 17:31 OP:chb  STATUS:               ID:20080601150008 L   I
 2008-06-01-1500-04S.VNRC__100_MSEED                                           6
 STAT SP IPHASW D HRMM SECON CODA AMPLIT PERI AZIMU VELO AIN AR TRES W  DIS CAZ7
 VNARWBZ EPg  1   15 0 23.93                              94    0.17 7 88.6 324 
 VNARWBZ ESg  3   15 0 34.89                              94   -0.95 2 88.6 324 
 OS10 SP EPg  0   15 0 24.88                              93    0.5010 98.5 300 
 VESPIBZ EPg  1   15 0 25.27                              93    0.10 7 99.5 316 
 VPOTOBZ EPg  1   15 0 26.05                              93    0.36 7  102 323 
 OS09 SP EPg  0   15 0 26.91                              92   -0.0510  118 295 
 VAVUNBZ EPg  2   15 0 29.90                              92    0.16 5  132 325 
 VIRHOBZ EPg  1   15 0 31.48                              91   -0.23 7  147 333 
 OS04 SP EPg  1   15 0 31.24                              91   -0.55 7  151 305 
 VBUTMBZ EPg  1   15 0 34.02                              91   -0.55 7  167 328 
 VBUTMBZ ESg  2   15 0 55.33                              91    0.26 5  167 328 
 OS03 SP EPg  1   15 0 34.32                              91   -0.30 7  174 300 
 VSARABZ EPg  3   15 0 37.12                              91    0.96 2  179 330 
                                                                                
 2008  6 1 1501 43.0 L -14.689 167.556151.8  VAN  8 0.1                        1
 GAP=329        0.26      13.5    22.8 16.2  0.1820E+03 -0.3156E+03 -0.1660E+03E
 ACTION:ARG 12-06-25 17:31 OP:chb  STATUS:               ID:20080601150143 L   I
 2008-06-01-1501-44S.VNRC__100_MSEED                                           6
 STAT SP IPHASW D HRMM SECON CODA AMPLIT PERI AZIMU VELO AIN AR TRES W  DIS CAZ7
 VKOLHBZ EPg  2   15 2  4.53                             152    0.08 5 72.9 216 
 VTURTBZ EPg  3   15 2  4.79                             149   -0.07 2 82.2 211 
 VSARABZ EPg  1   15 2  5.19                             149    0.06 7 85.1 225 
 VIRHOBZ EPg  2   15 2  5.43                             146   -0.10 5 92.1 204 
 VBUTMBZ EPg  1   15 2  5.69                             146   -0.07 7 94.6 219 
 VBUTMBZ ESg  2   15 2 23.50                             146    0.01 5 94.6 219 
 VANGOBZ EPg  1   15 2  6.06                             144   -0.05 7 98.7 227 
 VAVUNBZ EPg  1   15 2  7.24                             140    0.10 7  115 203 
 VAVUNBZ ESg  3   15 2 25.88                             140   -0.07 2  115 203 
 VASAVBZ EPg  2   15 2  7.47                             138   -0.06 5  121 196 
                                                                                
 2008  6 1 15 4 28.0 L                       VAN  0                            1
 ACTION:ARG 12-06-25 17:31 OP:chb  STATUS:               ID:20080601150428 L   I
 2008-06-01-1504-28S.VNRC__100_MSEED                                           6
 STAT SP IPHASW D HRMM SECON CODA AMPLIT PERI AZIMU VELO AIN AR TRES W  DIS CAZ7
                                                                                
 2008  6 1 1518 37.9 L -15.502 167.463127.9  VAN 26 0.4                        1
 GAP=230        0.76       7.6     9.4  5.7  0.2332E+02  0.3126E+01  0.1750E+02E
 ACTION:ARG 12-06-25 17:31 OP:chb  STATUS:               ID:20080601151838 L   I
 2008-06-01-1518-31S.VNRC__100_MSEED                                           6
 STAT SP IPHASW D HRMM SECON CODA AMPLIT PERI AZIMU VELO AIN AR TRES W  DIS CAZ7
 VBOKIBN ESg  1   1519  7.80                             168   -0.61 7 25.6 247 
 VIRHOBZ EPg  1   1518 54.50                             166   -0.52 7 28.5 282 
 VIRHOBZ ESg  3   1519  7.35                             166   -1.00 2 28.5 282 
 VASAVBZ EPg  1   1518 55.23                             163   -0.03 7 35.0 223 
 VTURTBZ EPg  1   1518 54.85                             162   -0.36 7 37.2 301 
 VTURTBZ ESg  1   1519  7.91                             162   -0.78 7 37.2 301 
 VAVUNBZ EPg  1   1518 55.49                             161    0.09 7 38.8 246 
 VAVUNBZ ESg  3   1519 10.27                             161    1.23 2 38.8 246 
 VTAMBBZ EPg  0   1518 55.46                             160   -0.0410 42.1 275 
 VTAMBBZ ESg  1   1519  9.20                             160   -0.01 7 42.1 275 
 VKOLHBZ EPg  1   1518 55.19                             158   -0.45 7 45.6 313 
 VKOLHBZ ESg  3   1519  8.92                             158   -0.54 2 45.6 313 
 VPOTOBZ EPg  1   1518 56.40                             157    0.53 7 48.2 208 
 VBUTMBZ EPg  1   1518 56.16                             155    0.17 7 52.6 289 
 VBUTMBZ ESg  2   1519 10.16                             155    0.07 5 52.6 289 
 VNARWBZ EPg  1   1518 56.36                             154    0.23 7 54.4 194 
 VNARWBZ ESg  3   1519 10.91                             154    0.57 2 54.4 194 
 VEBENBZ EPg  1   1518 56.43                             154    0.34 7 54.8 262 
 VLEBEBZ EPg  1   1518 56.27                             154    0.11 7 55.6 280 
 VLEBEBZ ESg  3   1519 11.29                             154    0.90 2 55.6 280 
 OS08 SP EPg  2   1518 55.65                             154    0.00 5 55.8 233 
 VSARABZ EPg  0   1518 56.43                             152    0.1810 58.8 301 
 VSARABZ ESg  1   1519 11.11                             152    0.57 7 58.8 301 
 VESPIBZ EPg  2   1518 56.41                             152    0.12 5 59.7 209 
 VANGOBZ EPg  1   1518 57.09                             149    0.32 7 66.1 290 
 VANGOBZ ESg  2   1519 12.67                             149    1.19 5 66.1 290 
 VLAKABZ EPg  1   1518 57.50                             149    0.64 7 66.9 184 
 VSALEBZ EPg  1   1518 56.99                             148    0.18 7 69.7 257 
 OS07 SP EPg  3   1518 56.88                             146   -0.16 2 73.9 224 
 VSULEBZ EPg  2   1518 57.74                             145    0.09 5 78.8 269 
 VWUSIBZ EPg  1   1518 58.61                             142    0.42 7 87.5 280 
 OS04 SP EPg  0   1518 57.60                             140   -0.2110 92.8 245 
 OS02 SP EPg  1   1518 57.58                             138   -0.31 7 96.8 257 
 OS01 SP EPg  0   1518 58.09                             137   -0.1410 99.8 267 
 OS09 SP EPg  1   1518 57.56                             137   -0.48 7  100 222 
 OS03 SP EPg  0   1518 58.89                             133   -0.2510  116 252 
                                                                                
 2008  6 1 1533 35.2 L -15.743 167.851101.3  VAN 16 2.4                        1
 GAP=297        3.66      76.9   195.3157.5  0.6677E+04 -0.4636E+04 -0.7552E+04E
 ACTION:ARG 12-06-25 17:31 OP:chb  STATUS:               ID:20080601153335 L   I
 2008-06-01-1533-30S.VNRC__100_MSEED                                           6
 STAT SP IPHASW D HRMM SECON CODA AMPLIT PERI AZIMU VELO AIN AR TRES W  DIS CAZ7
 VNARWBZ EPg  1   1533 50.54                             145   -0.65 7 60.4 244 
 VASAVBZ EPg  1   1533 50.69                             142   -0.77 7 65.6 271 
 VASAVBZ ESg  3   1534  2.83                             142   -1.32 2 65.6 271 
 VPOTOBZ EPg  1   1533 51.04                             142   -0.55 7 66.0 256 
 VBOKIBN EPg  2   1534  2.23                             141   10.59 5 67.3 284 
 VESPIBZ EPg  1   1533 52.19                             138    0.08 7 75.1 250 
 VIRHOBZ EPg  1   1533 50.85                             137   -1.37 7 76.8 295 
 VAVUNBZ EPg  1   1533 52.24                             137   -0.13 7 78.0 278 
 OS08 SP EPg  2   1533 52.59                             134    0.05 5 86.2 265 
 VTURTBZ EPg  1   1533 51.64                             134   -1.27 7 86.7 302 
 VTAMBBZ EPg  3   1533 52.70                             133   -0.51 2 89.0 290 
 VKOLHBZ EPg  3   1533 52.22                             131   -1.47 2 94.7 308 
 VEBENBZ EPg  3   1533 54.79                             130    0.79 2 97.9 281 
 VBUTMBZ EPg  1   1533 54.00                             129   -0.29 7  101 295 
 VLEBEBZ EPg  1   1533 54.58                             128    0.10 7  103 291 
 VSARABZ EPg  1   1533 54.59                             127   -0.28 7  108 302 
 VANGOBZ EPg  1   1533 56.29                             125    0.69 7  115 295 
                                                                                
 2008  6 1 1538  3.8 L -14.784 167.345146.3  VAN 13 0.3                        1
 GAP=317        0.61      11.3    12.5  6.2 -0.7124E+01 -0.1525E+02 -0.4360E+02E
 ACTION:ARG 12-06-25 17:31 OP:chb  STATUS:               ID:20080601153804 L   I
 2008-06-01-1537-51S.VNRC__100_MSEED                                           6
 STAT SP IPHASW D HRMM SECON CODA AMPLIT PERI AZIMU VELO AIN AR TRES W  DIS CAZ7
 VKOLHBZ EPg  1   1538 23.68                             158   -0.04 7 52.3 203 
 VKOLHBE ESg  1   1538 38.85                             158   -0.39 7 52.3 203 
 VSARABZ EPg  0   1538 24.32                             155    0.1710 62.1 218 
 VSARABE ESg  1   1538 40.11                             155    0.11 7 62.1 218 
 VTURTBZ EPg  1   1538 24.16                             154    0.06 7 63.1 198 
 VTURTBE ESg  1   1538 39.55                             154   -0.36 7 63.1 198 
 VBUTMBZ EPg  0   1538 24.80                             151    0.0510 72.9 211 
 VIRHOBZ EPg  1   1538 24.74                             150   -0.04 7 74.9 192 
 VIRHOBE ESg  1   1538 40.58                             150   -0.55 7 74.9 192 
 VANGOBZ ESg  1   1538 41.97                             150    0.52 7 75.2 221 
 VTAMBBZ EPg  3   1538 25.30                             148    0.13 2 81.1 201 
 VTAMBBE ESg  1   1538 41.98                             148    0.16 7 81.1 201 
 VLEBEBZ EPg  2   1538 25.46                             148    0.19 5 81.5 211 
 VLEBEBE ESg  1   1538 42.04                             148    0.05 7 81.5 211 
 VAVUNBZ EPg  1   1538 26.47                             143    0.22 7 97.7 194 
 VAVUNBE EPg  1   1538 26.67                             146           97.7 194 
 VAVUNBE ESg  1   1538 44.15                             143    0.41 7 97.7 194 
 VAVUNBZ ESg  1   1538 44.24                             146           97.7 194 
 VWUSIBZ EPg  3   1538 26.47                             143    0.04 2 97.9 229 
 VASAVBZ EPg  1   1538 27.04                             141    0.26 7  106 186 
 OS02 SP EPg  1   1538 27.36                             134   -0.49 7  130 219 
 OS03 SP EPg  1   1538 28.92                             129   -0.42 7  151 220 
                                                                                
 2008  6 1 1538  3.8 L -14.825 167.340149.4  VAN 12 0.3                        1
 GAP=316        0.67      13.8    13.1  6.8  0.9372E+01 -0.9602E+01 -0.6001E+02E
 ACTION:ARG 12-06-25 17:31 OP:chb  STATUS:               ID:20080601153805dL   I
 2008-06-01-1538-07S.VNRC__100_MSEED                                           6
 STAT SP IPHASW D HRMM SECON CODA AMPLIT PERI AZIMU VELO AIN AR TRES W  DIS CAZ7
 VSARABZ EPg  1   1538 24.30                             157    0.05 7 58.3 220 
 VSARABE ESg  1   1538 40.03                             157   -0.18 7 58.3 220 
 VTURTBZ EPg  1   1538 24.15                             156   -0.02 7 58.7 199 
 VTURTBE ESg  1   1538 39.46                             156   -0.60 7 58.7 199 
 VBUTMBZ EPg  2   1538 24.81                             153    0.01 5 68.8 212 
 VBUTMBZ ESg  3   1538 41.41                             153    0.22 2 68.8 212 
 VIRHOBZ EPg  1   1538 24.73                             152   -0.08 7 70.4 192 
 VIRHOBE ESg  1   1538 40.67                             152   -0.53 7 70.4 192 
 VANGOBZ EPg  1   1538 25.26                             152    0.23 7 71.6 223 
 VANGOBE ESg  1   1538 42.32                             152    0.73 7 71.6 223 
 VTAMBBZ EPg  1   1538 25.26                             150    0.08 7 76.8 202 
 VTAMBBE ESg  1   1538 41.91                             150    0.04 7 76.8 202 
 VLEBEBZ EPg  2   1538 25.54                             150    0.25 5 77.5 212 
 VLEBEBE ESg  2   1538 42.06                             150    0.00 5 77.5 212 
 VAVUNBZ EPg  2   1538 26.55                             145    0.36 5 93.3 194 
 VAVUNBE ESg  1   1538 44.15                             145    0.48 7 93.3 194 
 VWUSIBZ EPg  1   1538 26.47                             144    0.02 7 94.6 231 
 VASAVBZ EPg  1   1538 27.08                             143    0.38 7  101 186 
 OS02 SP EPg  1   1538 27.35                             136   -0.41 7  126 220 
 OS03 SP EPg      1538 28.92                             131   -0.2810  147 221 
                                                                                
 2008  6 1 1540 22.1 L -14.611 167.021 35.0  VAN  6 0.1                        1
 GAP=345        0.26       3.4     7.1 15.5  0.3025E+01 -0.6848E+01 -0.3477E+02E
 ACTION:ARG 12-06-25 17:31 OP:chb  STATUS:               ID:20080601154022 L   I
 2008-06-01-1540-15S.VNRC__100_MSEED                                           6
 STAT SP IPHASW D HRMM SECON CODA AMPLIT PERI AZIMU VELO AIN AR TRES W  DIS CAZ7
 VSARABZ EPg  2   1540 34.95                             100    0.19 5 68.4 183 
 VSARABE ESg  2   1540 44.54                             100   -0.10 5 68.4 183 
 VKOLHBZ EPg  1   1540 34.81                             100   -0.01 7 68.7 168 
 VKOLHBE ESg  2   1540 44.82                             100    0.08 5 68.7 168 
 VTURTBZ EPg  1   1540 36.31                              97    0.01 7 80.8 169 
 VTURTBE ESg  2   1540 47.28                              97   -0.10 5 80.8 169 
 VBUTMBZ EPg  1   1540 36.44                              97   -0.13 7 81.8 182 
 VBUTMBZ ESg  2   1540 47.95                              97    0.10 5 81.8 182 
 VIRHOBZ EPg  1   1540 38.16                              95   -0.03 7 94.5 168 
 VIRHOBE ESg  3   1540 50.61                              95   -0.13 2 94.5 168 
 VAVUNBZ EPg  1   1540 41.01                              93    0.07 7  115 174 
 VAVUNBE ESg  2   1540 55.68                              93    0.05 5  115 174 
                                                                                
 2008  6 1 16 3 19.0 L                       VAN  0                            1
 ACTION:ARG 12-06-25 17:31 OP:chb  STATUS:               ID:20080601160319 L   I
 2008-06-01-1603-19S.VNRC__100_MSEED                                           6
 STAT SP IPHASW D HRMM SECON CODA AMPLIT PERI AZIMU VELO AIN AR TRES W  DIS CAZ7
                                                                                
 2008  6 1 1608 39.0 L -16.396 167.112 35.0  VAN 13 0.8                        1
 GAP=264        1.26       8.9    10.8 27.4 -0.3107E+02  0.7931E+01 -0.8070E+02E
 ACTION:ARG 12-06-25 17:31 OP:chb  STATUS:               ID:20080601160839 L   I
 2008-06-01-1608-28S.VNRC__100_MSEED                                           6
 STAT SP IPHASW D HRMM SECON CODA AMPLIT PERI AZIMU VELO AIN AR TRES W  DIS CAZ7
 OS10 SP EPg  1   16 8 45.08                             117   -0.69 7 25.0 340 
 VLEVIBZ EPg  2   16 8 46.01                             108   -1.42 5 30.6  29 
 OS09 SP EPg  1   16 8 46.92                              97   -0.20 7 38.5 309 
 VLAKABZ EPg  3   16 8 47.40                              93   -1.61 2 46.2  46 
 VESPIBZ EPg  1   16 8 49.12                              93    0.12 7 47.5  10 
 OS07 SP EPg  3   16 8 50.36                              93    1.37 2 47.7 343 
 OS08 SP EPg  1   16 8 51.15                              91    0.30 7 65.3 354 
 VAVUNBZ EPg  1   16 8 54.07                              90    0.39 7 83.4   1 
 VAVUNBE ESg  2   16 9  6.54                              90    1.41 5 83.4   1 
 OS03 SP EPg  1   16 8 54.53                              90    0.08 7 96.4 311 
 VTAMBBZ EPg  1   16 8 56.47                              90    0.25 7  103 358 
 VTAMBBZ ESg  1   16 9 10.27                              90    0.63 7  103 358 
 VBUTMBZ EPg  1   16 8 58.50                              90    0.45 7  116 354 
 VBUTMBZ ESg  1   16 9 12.30                              90   -0.61 7  116 354 
 VTURTBZ EPg  1   16 8 58.29                              90    0.11 7  118   3 
 VTURTBZ ESg  2   16 9 12.57                              90   -0.57 5  118   3 
 VSARABZ EPg  1   16 9  0.26                              90    0.47 7  130 354 
 VSARABZ ESg  2   16 9 13.70                              90   -2.31 5  130 354 
                                                                                
 2008  6 1 1610 52.0 L                       VAN  0                            1
 ACTION:ARG 12-06-25 17:31 OP:chb  STATUS:               ID:20080601161052 L   I
 2008-06-01-1610-52S.VNRC__100_MSEED                                           6
 STAT SP IPHASW D HRMM SECON CODA AMPLIT PERI AZIMU VELO AIN AR TRES W  DIS CAZ7
                                                                                
