 2008  6 1  0 3 53.0 L                                                         1
 ACTION:ARG 12-09-17 15:47 OP:chb  STATUS:               ID:20080601000353     I
 2008-06-01-0003-53S.VNRC__100_MSEED                                           6
 STAT SP IPHASW D HRMM SECON CODA AMPLIT PERI AZIMU VELO AIN AR TRES W  DIS CAZ7
 VASAVBZ EP   2A   0 4 15.01   54              -1.0                             
 VASAVBZ ES   1A   0 4 51.11                                                    
 VAVUNBZ EP   1A   0 4 14.81   21              -1.0                             
 VBUTMBZ EP   0A   0 4 14.31   31              -1.0                             
 VBUTMBZ ES   3A   0 4 26.91                                                    
 VIRHOBZ EP   1A   0 4 13.21   25              -1.0                             
 VKOLHBZ EP   0A   0 4 13.71   27              -1.0                             
 VKOLHBZ ES   3A   0 4 25.61                                                    
 VSARABZ EP   0A   0 4 14.41   73              -1.0                             
 VSARABZ ES   2A   0 4 27.11                                                    
 VTAMBBZ EP   0A   0 4 14.01   36              -1.0                             
 VTAMBBZ ES   2A   0 4 26.01                                                    
 VTURTBZ EP   1A   0 4 13.41   90              -1.0                             
 VTURTBZ ES   3A   0 4 25.01                                                    
                                                                                
 2008  6 1  013 41.0 L                                                         1
 ACTION:ARG 12-09-17 15:47 OP:chb  STATUS:               ID:20080601001341     I
 2008-06-01-0013-41S.VNRC__100_MSEED                                           6
 STAT SP IPHASW D HRMM SECON CODA AMPLIT PERI AZIMU VELO AIN AR TRES W  DIS CAZ7
 VASAVBZ EP   1A   014  0.71   24              -1.0                             
 VBUTMBZ EP   2A   014  7.91   77              -1.0                             
 VTAMBBZ EP   2A   014 38.61   54              -1.0                             
                                                                                
 2008  6 1  029 19.0 L                                                         1
 ACTION:ARG 12-09-17 15:47 OP:chb  STATUS:               ID:20080601002919     I
 2008-06-01-0029-19S.VNRC__100_MSEED                                           6
 STAT SP IPHASW D HRMM SECON CODA AMPLIT PERI AZIMU VELO AIN AR TRES W  DIS CAZ7
 VLEBEBZ EP   1A   029 37.91   93              -1.0                             
 VSARABZ EP   2A   029 38.81   92              -1.0                             
                                                                                
 2008  6 1  033 12.0 L                                                         1
 ACTION:ARG 12-09-17 15:47 OP:chb  STATUS:               ID:20080601003312     I
 2008-06-01-0033-12S.VNRC__100_MSEED                                           6
 STAT SP IPHASW D HRMM SECON CODA AMPLIT PERI AZIMU VELO AIN AR TRES W  DIS CAZ7
                                                                                
 2008  6 1  041 48.0 L                                                         1
 ACTION:ARG 12-09-17 15:47 OP:chb  STATUS:               ID:20080601004148     I
 2008-06-01-0041-48S.VNRC__100_MSEED                                           6
 STAT SP IPHASW D HRMM SECON CODA AMPLIT PERI AZIMU VELO AIN AR TRES W  DIS CAZ7
 VBUTMBZ EP   2A   042  9.71   89              -1.0                             
 VEBENBZ EP   0A   042 31.61   68              -1.0                             
 VEBENBZ ES   2A   043 32.51                                                    
 VSARABZ EP   1A   043  0.01   98              -1.0                             
 VSARABZ ES   2A   043 37.91                                                    
                                                                                
 2008  6 1  044 37.0 L                                                         1
 ACTION:ARG 12-09-17 15:47 OP:chb  STATUS:               ID:20080601004437     I
 2008-06-01-0044-37S.VNRC__100_MSEED                                           6
 STAT SP IPHASW D HRMM SECON CODA AMPLIT PERI AZIMU VELO AIN AR TRES W  DIS CAZ7
 VSARABZ EP   2A   044 58.51   25              -1.0                             
                                                                                
 2008  6 1  1 0 29.0 L                                                         1
 ACTION:ARG 12-09-17 15:47 OP:chb  STATUS:               ID:20080601010029     I
 2008-06-01-0100-29S.VNRC__100_MSEED                                           6
 STAT SP IPHASW D HRMM SECON CODA AMPLIT PERI AZIMU VELO AIN AR TRES W  DIS CAZ7
 VIRHOBZ EP   1A   1 0 50.01   72              -1.0                             
 VIRHOBZ ES   2A   1 0 55.31                                                    
 VLEBEBZ EP   2A   1 0 53.71   66              -1.0                             
 VSARABZ EP   1A   1 0 49.51   16              -1.0                             
 VTAMBBZ EP   2A   1 0 49.11   16              -1.0                             
 VTURTBZ EP   1A   1 0 49.41    7              -1.0                             
                                                                                
 2008  6 1  1 5  2.0 L                                                         1
 ACTION:ARG 12-09-17 15:47 OP:chb  STATUS:               ID:20080601010502     I
 2008-06-01-0105-02S.VNRC__100_MSEED                                           6
 STAT SP IPHASW D HRMM SECON CODA AMPLIT PERI AZIMU VELO AIN AR TRES W  DIS CAZ7
 VANGOBZ EP   0A   1 5 24.31   81              -1.0                             
 VANGOBZ ES   3A   1 5 36.81                                                    
 VASAVBZ EP   0A   1 5 27.81   68              -1.0                             
 VASAVBZ ES   2A   1 5 41.71                                                    
 VAVUNBZ EP   0A   1 5 26.41   80              -1.0                             
 VAVUNBZ ES   2A   1 5 40.61                                                    
 VBUTMBZ EP   0A   1 5 23.81   69              -1.0                             
 VBUTMBZ ES   2A   1 5 35.81                                                    
 VEBENBZ EP   2A   1 5 27.11   71              -1.0                             
 VESPIBZ EP   0A   1 5 31.01   71              -1.0                             
 VESPIBZ ES   2A   1 5 47.71                                                    
 VIRHOBZ EP   0A   1 5 24.11   77              -1.0                             
 VIRHOBZ ES   2A   1 5 36.11                                                    
 VKOLHBZ EP   0A   1 5 22.11   84              -1.0                             
 VKOLHBZ ES   2A   1 5 32.51                                                    
 VLEBEBZ EP   0A   1 5 24.71   89              -1.0                             
 VLEBEBZ ES   2A   1 5 37.01                                                    
 VNARWBZ EP   1A   1 6 53.21    1              -1.0                             
 VPOTOBZ EP   0A   1 5 29.71   84              -1.0                             
 VPOTOBZ ES   3A   1 5 46.11                                                    
 VSALEBZ EP   1A   1 5 28.41   27              -1.0                             
 VSARABZ EP   0A   1 5 22.91   79              -1.0                             
 VSULEBZ EP   0A   1 5 27.41   68             259.0                             
 VTAMBBZ EP   1A   1 5 25.41   89              -1.0                             
 VTAMBBZ ES   2A   1 5 37.11                                                    
 VTURTBZ EP   0A   1 5 23.11   65              -1.0                             
 VTURTBZ ES   3A   1 5 34.41                                                    
 VWUSIBZ EP   0A   1 5 26.31   71             219.0  9.9                        
                                                                                
 2008  6 1  115 19.0 L                                                         1
 ACTION:ARG 12-09-17 15:47 OP:chb  STATUS:               ID:20080601011519     I
 2008-06-01-0115-19S.VNRC__100_MSEED                                           6
 STAT SP IPHASW D HRMM SECON CODA AMPLIT PERI AZIMU VELO AIN AR TRES W  DIS CAZ7
 VANGOBZ EP   1A   115 57.11   39              -1.0                             
 VASAVBZ EP   1A   115 40.51   80              -1.0                             
 VASAVBZ ES   2A   115 54.41                                                    
 VAVUNBZ EP   1A   115 40.91   26              -1.0                             
 VAVUNBZ ES   2A   115 55.21                                                    
 VBUTMBZ EP   1A   115 54.61   67              -1.0                             
 VIRHOBZ EP   1A   115 39.61   34              -1.0                             
 VIRHOBZ ES   2A   115 52.31                                                    
 VKOLHBZ EP   1A   115 40.11   47              -1.0                             
 VKOLHBZ ES   2A   115 53.41                                                    
 VLEBEBZ EP   1A   115 55.81    7              -1.0                             
 VPOTOBZ EP   1A   115 41.71   89              -1.0                             
 VPOTOBZ ES   2A   115 57.41                                                    
 VSARABZ EP   0A   115 40.71   90              -1.0                             
 VSARABZ ES   2A   115 55.11                                                    
 VTAMBBZ EP   2A   115 40.31   23                                               
 VTAMBBZ ES   2A   115 53.91                  172.0                             
 VTURTBZ EP   1A   115 52.81   66             228.0                             
 VTURTBZ ES   3A   116 46.51                                                    
                                                                                
 2008  6 1  124 17.0 L                                                         1
 ACTION:ARG 12-09-17 15:47 OP:chb  STATUS:               ID:20080601012417     I
 2008-06-01-0124-17S.VNRC__100_MSEED                                           6
 STAT SP IPHASW D HRMM SECON CODA AMPLIT PERI AZIMU VELO AIN AR TRES W  DIS CAZ7
 VANGOBZ EP   1A   124 37.61   76              -1.0                             
 VANGOBZ ES   2A   124 43.51                                                    
 VIRHOBZ EP   2A   124 41.71   20              -1.0                             
 VIRHOBZ ES   2A   124 49.31                                                    
 VKOLHBZ EP   0A   124 38.21   36              -1.0                             
 VKOLHBZ ES   1A   124 44.21                                                    
 VLEBEBZ EP   1A   124 45.81   83              -1.0                             
 VSARABZ EP   0A   124 36.91   89              -1.0                             
 VSARABZ ES   3A   124 42.41                                                    
 VSULEBZ EP   1A   124 53.61    7             283.0                             
 VTURTBZ EP   1A   124 46.21   83             270.0                             
                                                                                
 2008  6 1  2 3 29.0 L                                                         1
 ACTION:ARG 12-09-17 15:47 OP:chb  STATUS:               ID:20080601020329     I
 2008-06-01-0203-29S.VNRC__100_MSEED                                           6
 STAT SP IPHASW D HRMM SECON CODA AMPLIT PERI AZIMU VELO AIN AR TRES W  DIS CAZ7
 VANGOBZ EP   0A   2 3 52.21   65              -1.0                             
 VASAVBZ EP   1A   2 3 54.11   25              -1.0                             
 VAVUNBZ EP   0A   2 3 53.61   85             270.0 19.6                        
 VAVUNBZ ES   3A   2 4 10.71                                                    
 VBUTMBZ EP   1A   2 3 52.01   83              -1.0                             
 VBUTMBZ ES   3A   2 4  7.41                                                    
 VESPIBZ EP   2A   2 3 45.11   45             210.0                             
 VIRHOBZ EP   0A   2 3 51.61   73              -1.0                             
 VIRHOBZ ES   2A   2 4  6.71                                                    
 VKOLHBZ EP   0A   2 3 50.51   56              -1.0                             
 VKOLHBZ ES   2A   2 4  4.71                                                    
 VLAKABZ EP   1A   2 4 23.61   20              -1.0                             
 VLEBEBZ EP   1A   2 3 52.31   73              -1.0                             
 VLEBEBZ ES   2A   2 4  8.61                                                    
 VSARABZ EP   0A   2 3 51.21   55             174.0  5.6                        
 VSARABZ ES   3A   2 4  6.41                                                    
 VSULEBZ EP   1A   2 3 54.21   81              -1.0                             
 VTAMBBZ EP   1A   2 3 52.31   53              -1.0                             
 VTAMBBZ ES   2A   2 4  7.91                                                    
 VTURTBZ EP   0A   2 3 51.11   81              -1.0                             
                                                                                
 2008  6 1  2 8 35.0 L                                                         1
 ACTION:ARG 12-09-17 15:47 OP:chb  STATUS:               ID:20080601020835     I
 2008-06-01-0208-35S.VNRC__100_MSEED                                           6
 STAT SP IPHASW D HRMM SECON CODA AMPLIT PERI AZIMU VELO AIN AR TRES W  DIS CAZ7
 VANGOBZ EP   1A   2 9  7.31   80              -1.0                             
 VIRHOBZ EP   1A   2 9  9.31   78              -1.0                             
 VKOLHBZ EP   0A   2 9  5.71   79              -1.0                             
 VKOLHBZ ES   2A   2 9 19.91                                                    
 VLAKABZ EP   0A   2 9 56.51    2              -1.0                             
 VSARABZ EP   1A   2 9  5.91   64              -1.0                             
 VTURTBZ EP   1A   2 9  7.41   80              -1.0                             
                                                                                
 2008  6 1  242 59.0 L                                                         1
 ACTION:ARG 12-09-17 15:47 OP:chb  STATUS:               ID:20080601024259     I
 2008-06-01-0242-59S.VNRC__100_MSEED                                           6
 STAT SP IPHASW D HRMM SECON CODA AMPLIT PERI AZIMU VELO AIN AR TRES W  DIS CAZ7
 VSULEBZ EP   1A   243 24.31   68             317.0  5.2                        
 VWUSIBZ EP   1A   243 34.91    5              -1.0                             
                                                                                
 2008  6 1  252  9.0 L                                                         1
 ACTION:ARG 12-09-17 15:47 OP:chb  STATUS:               ID:20080601025209     I
 2008-06-01-0252-09S.VNRC__100_MSEED                                           6
 STAT SP IPHASW D HRMM SECON CODA AMPLIT PERI AZIMU VELO AIN AR TRES W  DIS CAZ7
 VKOLHBZ EP   2A   252 30.31   26              -1.0                             
                                                                                
 2008  6 1  257 19.0 L                                                         1
 ACTION:ARG 12-09-17 15:47 OP:chb  STATUS:               ID:20080601025719     I
 2008-06-01-0257-19S.VNRC__100_MSEED                                           6
 STAT SP IPHASW D HRMM SECON CODA AMPLIT PERI AZIMU VELO AIN AR TRES W  DIS CAZ7
 VBUTMBZ EP   2A   258  9.71    8              -1.0                             
 VIRHOBZ EP   2A   257 54.11   61              -1.0                             
 VIRHOBZ ES   2A   258  6.51                                                    
 VKOLHBZ EP   1A   258  8.41    9              -1.0                             
 VLEBEBZ EP   1A   258 10.81    8              -1.0                             
 VSARABZ EP   0A   257 55.31   66              -1.0                             
 VSARABZ ES   2A   258 10.31                                                    
 VTURTBZ EP   2A   257 54.11   77              -1.0                             
                                                                                
 2008  6 1  319 30.0 L                                                         1
 ACTION:ARG 12-09-17 15:47 OP:chb  STATUS:               ID:20080601031930     I
 2008-06-01-0319-30S.VNRC__100_MSEED                                           6
 STAT SP IPHASW D HRMM SECON CODA AMPLIT PERI AZIMU VELO AIN AR TRES W  DIS CAZ7
 VANGOBZ EP   1A   320  6.21   59              -1.0                             
 VBUTMBZ EP   1A   320  5.11   42              -1.0                             
 VIRHOBZ EP   1A   320  4.71   41              -1.0                             
 VKOLHBZ EP   2A   320  2.71    8              -1.0                             
 VLEBEBZ EP   2A   320  6.21    8              -1.0                             
 VSARABZ EP   1A   319 50.11   72              -1.0                             
 VSARABZ ES   2A   320  3.61                                                    
                                                                                
 2008  6 1  327 51.0 L                                                         1
 ACTION:ARG 12-09-17 15:47 OP:chb  STATUS:               ID:20080601032751     I
 2008-06-01-0327-51S.VNRC__100_MSEED                                           6
 STAT SP IPHASW D HRMM SECON CODA AMPLIT PERI AZIMU VELO AIN AR TRES W  DIS CAZ7
 VIRHOBZ EP   1A   328 23.71   74              -1.0                             
 VIRHOBZ ES   2A   328 55.11                                                    
 VKOLHBZ EP   2A   328 52.41   42              -1.0                             
 VLAKABZ EP   0A   328 18.81   15               3.0                             
 VLEBEBZ EP   2A   328 25.31   74              -1.0                             
 VLEBEBZ ES   1A   328 55.91                                                    
                                                                                
 2008  6 1  328 33.0 L                                                         1
 ACTION:ARG 12-09-17 15:47 OP:chb  STATUS:               ID:20080601032833     I
 2008-06-01-0328-33S.VNRC__100_MSEED                                           6
 STAT SP IPHASW D HRMM SECON CODA AMPLIT PERI AZIMU VELO AIN AR TRES W  DIS CAZ7
 VKOLHBZ EP   2A   328 52.31   41              -1.0                             
 VLEBEBZ EP   0A   328 55.91   46              -1.0                             
                                                                                
