 2008  6 1  343 56.0 L                                                         1
 ACTION:ARG 12-09-17 15:47 OP:chb  STATUS:               ID:20080601034356     I
 2008-06-01-0343-56S.VNRC__100_MSEED                                           6
 STAT SP IPHASW D HRMM SECON CODA AMPLIT PERI AZIMU VELO AIN AR TRES W  DIS CAZ7
 VANGOBZ EP   0A   344 20.61   22              -1.0                             
 VBUTMBZ EP   0A   344 20.91   87              -1.0                             
 VBUTMBZ ES   2A   344 25.51                                                    
 VIRHOBZ EP   1A   344 23.41   77              -1.0                             
 VIRHOBZ ES   2A   344 29.51                                                    
 VKOLHBZ EP   1A   344 21.61   86              -1.0                             
 VKOLHBZ ES   1A   344 26.31                                                    
 VLEBEBZ EP   0A   344 26.21   18              -1.0                             
 VSARABZ EP   0A   344 20.31   29              -1.0                             
 VSARABZ ES   2A   344 24.31                                                    
 VTURTBZ EP   2A   344 27.11    9              -1.0                             
                                                                                
 2008  6 1  347 53.0 L                                                         1
 ACTION:ARG 12-09-17 15:47 OP:chb  STATUS:               ID:20080601034753     I
 2008-06-01-0347-53S.VNRC__100_MSEED                                           6
 STAT SP IPHASW D HRMM SECON CODA AMPLIT PERI AZIMU VELO AIN AR TRES W  DIS CAZ7
                                                                                
 2008  6 1  358 39.0 L                                                         1
 ACTION:ARG 12-09-17 15:47 OP:chb  STATUS:               ID:20080601035839     I
 2008-06-01-0358-39S.VNRC__100_MSEED                                           6
 STAT SP IPHASW D HRMM SECON CODA AMPLIT PERI AZIMU VELO AIN AR TRES W  DIS CAZ7
 VSARABZ EP   0A   358 58.71   92              -1.0                             
 VTURTBZ EP   2A   359 16.81   63              -1.0                             
                                                                                
 2008  6 1  4 5 42.0 L                                                         1
 ACTION:ARG 12-09-17 15:47 OP:chb  STATUS:               ID:20080601040542     I
 2008-06-01-0405-42S.VNRC__100_MSEED                                           6
 STAT SP IPHASW D HRMM SECON CODA AMPLIT PERI AZIMU VELO AIN AR TRES W  DIS CAZ7
 VANGOBZ EP   2A   4 6  3.51   44              -1.0                             
 VASAVBZ EP   1A   4 6 30.01   64              -1.0                             
 VAVUNBZ EP   1A   4 6  5.51   55              -1.0                             
 VAVUNBZ ES   3A   4 6 29.51                                                    
 VBUTMBZ EP   0A   4 6  3.31   90              -1.0                             
 VBUTMBZ ES   2A   4 6 24.91                                                    
 VIRHOBZ EP   0A   4 6  3.21   85             210.0 15.4                        
 VIRHOBZ ES   2A   4 6 24.91                                                    
 VKOLHBZ EP   0A   4 6  1.91   92              -1.0                             
 VKOLHBZ ES   2A   4 6 22.31                                                    
 VLEBEBZ EP   0A   4 6 26.11   52              -1.0                             
 VSARABZ EP   0A   4 6  2.31   82             176.0  6.5                        
 VSARABZ ES   2A   4 6 23.71                                                    
 VSULEBZ EP   0A   4 6  5.31   55              -1.0                             
 VTAMBBZ EP   0A   4 6 26.11   89              -1.0                             
 VTURTBZ EP   2A   4 6  3.11   85              -1.0                             
 VTURTBZ ES   2A   4 6 23.61                                                    
 VWUSIBZ EP   0A   4 6  4.41   76              -1.0                             
 VWUSIBZ ES   2A   4 6 27.11                                                    
                                                                                
 2008  6 1  414 28.0 L                                                         1
 ACTION:ARG 12-09-17 15:47 OP:chb  STATUS:               ID:20080601041428     I
 2008-06-01-0414-28S.VNRC__100_MSEED                                           6
 STAT SP IPHASW D HRMM SECON CODA AMPLIT PERI AZIMU VELO AIN AR TRES W  DIS CAZ7
 VESPIBZ EP   2A   415 21.01   59                                               
 VESPIBZ ES   2A   416  8.11                  246.0                             
 VLAKABZ EP   0A   415 17.01    2              36.0                             
                                                                                
 2008  6 1  414 57.0 L                                                         1
 ACTION:ARG 12-09-17 15:47 OP:chb  STATUS:               ID:20080601041457     I
 2008-06-01-0414-57S.VNRC__100_MSEED                                           6
 STAT SP IPHASW D HRMM SECON CODA AMPLIT PERI AZIMU VELO AIN AR TRES W  DIS CAZ7
 VESPIBZ EP   2A   415 21.01   49                                               
 VESPIBZ ES   2A   416  8.11                  246.0                             
 VLAKABZ EP   0A   415 17.01   92              36.0                             
 VTURTBZ EP   1A   416 46.61    2              -1.0                             
                                                                                
 2008  6 1  429  2.0 L                                                         1
 ACTION:ARG 12-09-17 15:47 OP:chb  STATUS:               ID:20080601042902     I
 2008-06-01-0429-02S.VNRC__100_MSEED                                           6
 STAT SP IPHASW D HRMM SECON CODA AMPLIT PERI AZIMU VELO AIN AR TRES W  DIS CAZ7
 VANGOBZ EP   2A   429 24.11   77              -1.0                             
 VBUTMBZ EP   2A   429 23.41   66              -1.0                             
 VKOLHBZ EP   1A   429 21.91   47              -1.0                             
 VKOLHBZ ES   2A   429 37.31                                                    
 VSARABZ EP   1A   429 22.51   78              -1.0                             
 VSARABZ ES   3A   429 38.51                                                    
 VTAMBBZ EP   2A   430 21.01   24              -1.0                             
 VTURTBZ EP   1A   429 22.41   92              -1.0                             
 VTURTBZ ES   3A   429 38.01                                                    
                                                                                
 2008  6 1  446  9.0 L                                                         1
 ACTION:ARG 12-09-17 15:47 OP:chb  STATUS:               ID:20080601044609     I
 2008-06-01-0446-09S.VNRC__100_MSEED                                           6
 STAT SP IPHASW D HRMM SECON CODA AMPLIT PERI AZIMU VELO AIN AR TRES W  DIS CAZ7
 VKOLHBZ EP   1A   446 29.91   77              -1.0                             
 VSULEBZ EP   1A   447 33.31    2              -1.0                             
 VWUSIBZ EP   1A   447 37.41   24              -1.0                             
 VWUSIBZ ES   1A   447 58.51                                                    
                                                                                
 2008  6 1  449 40.0 L                                                         1
 ACTION:ARG 12-09-17 15:47 OP:chb  STATUS:               ID:20080601044940     I
 2008-06-01-0449-40S.VNRC__100_MSEED                                           6
 STAT SP IPHASW D HRMM SECON CODA AMPLIT PERI AZIMU VELO AIN AR TRES W  DIS CAZ7
 VESPIBZ EP   1A   451  1.41   31             269.0                             
 VKOLHBZ EP   2A   450  8.51   43              -1.0                             
 VLAKABZ EP   2A   450 13.71   18              -1.0                             
 VSARABZ EP   2A   450  8.71   43              -1.0                             
                                                                                
 2008  6 1  5 5 36.0 L                                                         1
 ACTION:ARG 12-09-17 15:47 OP:chb  STATUS:               ID:20080601050536     I
 2008-06-01-0505-36S.VNRC__100_MSEED                                           6
 STAT SP IPHASW D HRMM SECON CODA AMPLIT PERI AZIMU VELO AIN AR TRES W  DIS CAZ7
 VANGOBZ EP   0A   5 5 58.81   74              -1.0                             
 VAVUNBZ EP   1A   5 5 56.81   91              -1.0                             
 VBUTMBZ EP   1A   5 5 57.91   25              -1.0                             
 VESPIBZ EP   1A   5 5 56.91   91                                               
 VESPIBZ ES   2A   5 7 17.51                  239.0                             
 VIRHOBZ EP   1A   5 5 56.31   92              -1.0                             
 VKOLHBZ EP   0A   5 5 57.21   73              -1.0                             
 VLEBEBZ EP   1A   5 5 58.21   77              -1.0                             
 VNARWBZ EP   2A   5 6 15.51    4              -1.0                             
 VPOTOBZ EP   0A   5 5 56.71   91              -1.0                             
 VPOTOBZ ES   2A   5 6 14.01                                                    
 VSARABZ EP   0A   5 5 58.11   89              -1.0                             
 VSARABZ ES   3A   5 6 17.01                                                    
 VTURTBZ EP   2A   5 5 50.21   77              -1.0                             
                                                                                
 2008  6 1  5 7  9.0 L                                                         1
 ACTION:ARG 12-09-17 15:47 OP:chb  STATUS:               ID:20080601050709     I
 2008-06-01-0507-09S.VNRC__100_MSEED                                           6
 STAT SP IPHASW D HRMM SECON CODA AMPLIT PERI AZIMU VELO AIN AR TRES W  DIS CAZ7
 VESPIBZ EP   2A   5 8 56.51   12              -1.0                             
                                                                                
 2008  6 1  511 50.0 L                                                         1
 ACTION:ARG 12-09-17 15:47 OP:chb  STATUS:               ID:20080601051150     I
 2008-06-01-0511-50S.VNRC__100_MSEED                                           6
 STAT SP IPHASW D HRMM SECON CODA AMPLIT PERI AZIMU VELO AIN AR TRES W  DIS CAZ7
 VLEBEBZ EP   1A   512 19.01   69              -1.0                             
                                                                                
 2008  6 1  535 56.0 L                                                         1
 ACTION:ARG 12-09-17 15:47 OP:chb  STATUS:               ID:20080601053556     I
 2008-06-01-0535-56S.VNRC__100_MSEED                                           6
 STAT SP IPHASW D HRMM SECON CODA AMPLIT PERI AZIMU VELO AIN AR TRES W  DIS CAZ7
 VAVUNBZ EP   2A   536 35.91   72              -1.0                             
 VIRHOBZ EP   2A   536 33.71   13              -1.0                             
 VLAKABZ EP   2A   536 52.81   28              -1.0                             
 VSARABZ EP   1A   536 25.01   83              -1.0                             
 VSARABZ ES   3A   536 37.71                                                    
                                                                                
 2008  6 1  553  9.0 L                                                         1
 ACTION:ARG 12-09-17 15:47 OP:chb  STATUS:               ID:20080601055309     I
 2008-06-01-0553-09S.VNRC__100_MSEED                                           6
 STAT SP IPHASW D HRMM SECON CODA AMPLIT PERI AZIMU VELO AIN AR TRES W  DIS CAZ7
 VESPIBZ EP   2A   554 34.51   12             256.0                             
 VSARABZ EP   0A   553 28.91   41              -1.0                             
                                                                                
 2008  6 1  6 9 57.0 L                                                         1
 ACTION:ARG 12-09-17 15:47 OP:chb  STATUS:               ID:20080601060957     I
 2008-06-01-0609-57S.VNRC__100_MSEED                                           6
 STAT SP IPHASW D HRMM SECON CODA AMPLIT PERI AZIMU VELO AIN AR TRES W  DIS CAZ7
 VLEBEBZ EP   2A   611 35.31   83              -1.0                             
                                                                                
 2008  6 1  627 33.0 L                                                         1
 ACTION:ARG 12-09-17 15:47 OP:chb  STATUS:               ID:20080601062733     I
 2008-06-01-0627-33S.VNRC__100_MSEED                                           6
 STAT SP IPHASW D HRMM SECON CODA AMPLIT PERI AZIMU VELO AIN AR TRES W  DIS CAZ7
 VPOTOBZ EP   2A   627 54.61   90              -1.0                             
 VSARABZ EP   0A   627 54.91   90              -1.0                             
 VSARABZ ES   2A   629  2.31                                                    
                                                                                
 2008  6 1  630 45.0 L                                                         1
 ACTION:ARG 12-09-17 15:47 OP:chb  STATUS:               ID:20080601063045     I
 2008-06-01-0630-45S.VNRC__100_MSEED                                           6
 STAT SP IPHASW D HRMM SECON CODA AMPLIT PERI AZIMU VELO AIN AR TRES W  DIS CAZ7
 VANGOBZ EP   0A   631  9.51   76              -1.0                             
 VANGOBZ ES   2A   631 26.71                                                    
 VASAVBZ EP   0A   631  7.31   63              -1.0                             
 VASAVBZ ES   2A   631 22.11                                                    
 VAVUNBZ EP   0A   631  7.11   64             270.0 10.7                        
 VAVUNBZ ES   3A   631 23.41                                                    
 VBUTMBZ EP   0A   631  7.61   57               1.0  9.2                        
 VBUTMBZ ES   2A   631 24.11                                                    
 VEBENBZ EP   1A   631  9.41   88              -1.0                             
 VESPIBZ EP   0A   631  8.61   88              -1.0                             
 VESPIBZ ES   3A   631 25.61                                                    
 VIRHOBZ EP   0A   631  5.91   86             302.0 11.1                        
 VIRHOBZ ES   2A   631 21.21                                                    
 VKOLHBZ EP   0A   631  6.51   82              -1.0                             
 VKOLHBZ ES   2A   631 22.81                                                    
 VLEBEBZ EP   0A   631  8.21   86              -1.0                             
 VLEBEBZ ES   2A   631 25.31                                                    
 VNARWBZ EP   0A   631  8.21   89              -1.0                             
 VNARWBZ ES   2A   631 24.31                                                    
 VPOTOBZ EP   0A   631  7.61   58              -1.0                             
 VPOTOBZ ES   2A   631 24.11                                                    
 VSALEBZ EP   1A   631 10.01   87              -1.0                             
 VSARABZ EP   0A   631  7.91   64              -1.0                             
 VSARABZ ES   2A   631 24.71                                                    
 VSULEBZ EP   0A   631 11.11   62              -1.0                             
 VTAMBBZ EP   0A   631  6.81   87               7.0                             
 VTAMBBZ ES   1A   631 22.71                                                    
 VTURTBZ EP   0A   631  6.21   90              -1.0                             
 VTURTBZ ES   2A   631 21.91                                                    
 VWUSIBZ EP   0A   631 11.11   48              -1.0                             
                                                                                
 2008  6 1  658 22.0 L                                                         1
 ACTION:ARG 12-09-17 15:47 OP:chb  STATUS:               ID:20080601065822     I
 2008-06-01-0658-22S.VNRC__100_MSEED                                           6
 STAT SP IPHASW D HRMM SECON CODA AMPLIT PERI AZIMU VELO AIN AR TRES W  DIS CAZ7
 VANGOBZ EP   0A   658 44.11   30              -1.0                             
 VAVUNBZ EP   1A   658 45.71   28              -1.0                             
 VBUTMBZ EP   0A   658 43.91   35              -1.0                             
 VIRHOBZ EP   0A   658 43.61   89             216.0 13.0                        
 VKOLHBZ EP   1A   658 42.51   92              -1.0                             
 VLAKABZ EP   2A   659 51.91  -89              -1.0                             
 VLEBEBZ EP   0A   658 44.31   46              -1.0                             
 VLEBEBZ ES   3A   659  0.01                                                    
 VPOTOBZ EP   1A   658 48.21   23              -1.0                             
 VSARABZ EP   1A   658 43.21   19              -1.0                             
 VTURTBZ EP   1A   658 43.01   17              -1.0                             
                                                                                
 2008  6 1  7 7 13.0 L                                                         1
 ACTION:ARG 12-09-17 15:47 OP:chb  STATUS:               ID:20080601070713     I
 2008-06-01-0707-13S.VNRC__100_MSEED                                           6
 STAT SP IPHASW D HRMM SECON CODA AMPLIT PERI AZIMU VELO AIN AR TRES W  DIS CAZ7
 VESPIBZ EP   1A   7 7 49.71   75              -1.0                             
 VESPIBZ ES   3A   7 8 24.61                                                    
 VLEBEBZ EP   1A   7 7 56.01   60             268.0  6.5                        
 VLEVIBZ EP   1A   7 7 50.31   74              -1.0                             
                                                                                
 2008  6 1  710  2.0 L                                                         1
 ACTION:ARG 12-09-17 15:47 OP:chb  STATUS:               ID:20080601071002     I
 2008-06-01-0710-02S.VNRC__100_MSEED                                           6
 STAT SP IPHASW D HRMM SECON CODA AMPLIT PERI AZIMU VELO AIN AR TRES W  DIS CAZ7
 VANGOBZ EP   2A   710 41.11   33              -1.0                             
 VAVUNBZ EP   2A   710 23.51   24              -1.0                             
 VBUTMBZ EP   1A   710 23.41   40              -1.0                             
 VBUTMBZ ES   2A   710 38.31                                                    
 VIRHOBZ EP   1A   710 22.01   25              -1.0                             
 VKOLHBZ EP   2A   710 37.01   52              -1.0                             
 VKOLHBZ ES   2A   711 20.31                                                    
 VLEBEBZ EP   1A   710 23.71   65              -1.0                             
 VPOTOBZ EP   1A   710 24.21   24              -1.0                             
 VSARABZ EP   0A   710 23.31   91              -1.0                             
 VSARABZ ES   2A   711 38.21                                                    
 VTAMBBZ EP   1A   710 14.61   29              -1.0                             
 VTAMBBZ ES   3A   710 37.41                                                    
 VTURTBZ EP   2A   710 22.31   16              -1.0                             
                                                                                
