 2008  6 1 1319 51.0 L                                                         1
 ACTION:ARG 12-09-17 15:47 OP:chb  STATUS:               ID:20080601131951     I
 2008-06-01-1319-51S.VNRC__100_MSEED                                           6
 STAT SP IPHASW D HRMM SECON CODA AMPLIT PERI AZIMU VELO AIN AR TRES W  DIS CAZ7
 VBUTMBZ EP   1A  1320 26.21    8              -1.0                             
 VKOLHBZ EP   2A  1320  6.31   22              -1.0                             
 VLEBEBZ EP   2A  1320 27.51   28              -1.0                             
 VSARABZ EP   2A  1320 11.71   20              -1.0                             
 VSARABZ ES   2A  1320 25.01                                                    
                                                                                
 2008  6 1 1342 56.0 L                                                         1
 ACTION:ARG 12-09-17 15:47 OP:chb  STATUS:               ID:20080601134256     I
 2008-06-01-1342-56S.VNRC__100_MSEED                                           6
 STAT SP IPHASW D HRMM SECON CODA AMPLIT PERI AZIMU VELO AIN AR TRES W  DIS CAZ7
 VANGOBZ EP   2A  1343 44.31   83              -1.0                             
 VASAVBZ EP   0A  1343 21.31   82             279.0 12.3                        
 VASAVBZ ES   2A  1343 28.61                                                    
 VAVUNBZ EP   0A  1343 23.51   43              -1.0                             
 VAVUNBZ ES   2A  1343 32.51                                                    
 VBUTMBZ EP   0A  1343 27.71   73              -1.0                             
 VBUTMBZ ES   2A  1343 40.21                                                    
 VESPIBZ EP   0A  1343 19.81   88             216.0  5.5                        
 VESPIBZ ES   2A  1343 26.81                                                    
 VIRHOBZ EP   0A  1343 24.71   48              -1.0                             
 VIRHOBZ ES   3A  1343 35.01                                                    
 VKOLHBZ EP   2A  1343 42.31   54              -1.0                             
 VLAKABZ EP   0A  1343 17.61   28              -1.0                             
 VLEVIBZ EP   2A  1343 20.21   16              -1.0                             
 VLEVIBZ ES   2A  1343 27.31                                                    
 VNARWBZ EP   0A  1343 18.31   89              -1.0                             
 VNARWBZ ES   2A  1343 23.51                                                    
 VPOTOBZ EP   0A  1343 19.81   88              -1.0                             
 VPOTOBZ ES   2A  1343 26.61                                                    
 VSARABZ EP   0A  1343 29.41   69              -1.0                             
 VSARABZ ES   3A  1343 43.11                                                    
 VTAMBBZ EP   1A  1343 36.51   68              -1.0                             
 VTURTBZ EP   0A  1343 26.61   81              -1.0                             
 VTURTBZ ES   2A  1344 36.71                                                    
                                                                                
 2008  6 1 14 6 28.0 L                                                         1
 ACTION:ARG 12-09-17 15:47 OP:chb  STATUS:               ID:20080601140628     I
 2008-06-01-1406-28S.VNRC__100_MSEED                                           6
 STAT SP IPHASW D HRMM SECON CODA AMPLIT PERI AZIMU VELO AIN AR TRES W  DIS CAZ7
 VANGOBZ EP   0A  14 7  1.61   42              -1.0                             
 VANGOBZ ES   3A  14 7 20.61                                                    
 VASAVBZ EP   0A  14 6 58.11   30              -1.0                             
 VASAVBZ ES   2A  14 7 13.31                                                    
 VAVUNBZ EP   0A  14 6 58.71   38             270.0  9.3                        
 VAVUNBZ ES   2A  14 7 15.11                                                    
 VBUTMBZ EP   0A  14 6 59.91   55               1.0  7.6                        
 VBUTMBZ ES   2A  14 7 16.91                                                    
 VEBENBZ EP   2A  14 7  0.71   55              -1.0                             
 VESPIBZ EP   2A  14 6 59.11   32              -1.0                             
 VIRHOBZ EP   1A  14 6 58.31   39              -1.0                             
 VIRHOBZ ES   2A  14 7 13.71                                                    
 VKOLHBZ EP   0A  14 6 59.51   71              -1.0                             
 VKOLHBZ ES   3A  14 7 16.21                                                    
 VLEBEBZ EP   1A  14 7  0.41   40              -1.0                             
 VLEBEBZ ES   2A  14 7 17.81                                                    
 VPOTOBZ EP   0A  14 6 58.81   26              -1.0                             
 VPOTOBZ ES   2A  14 7 14.91                                                    
 VSARABZ EP   0A  14 7  0.51   45              -1.0                             
 VSARABZ ES   2A  14 7 18.01                                                    
 VTAMBBZ EP   0A  14 6 59.21   74              -1.0                             
 VTAMBBZ ES   1A  14 7 15.11                                                    
 VTURTBZ EP   0A  14 6 58.71   61              -1.0                             
                                                                                
 2008  6 1 1413 28.0 L                                                         1
 ACTION:ARG 12-09-17 15:47 OP:chb  STATUS:               ID:20080601141328     I
 2008-06-01-1413-28S.VNRC__100_MSEED                                           6
 STAT SP IPHASW D HRMM SECON CODA AMPLIT PERI AZIMU VELO AIN AR TRES W  DIS CAZ7
 VANGOBZ EP   1A  1413 50.91   71              -1.0                             
 VANGOBZ ES   2A  1414  8.91                                                    
 VAVUNBZ EP   0A  1413 48.61   72              -1.0                             
 VAVUNBZ ES   3A  1414  4.61                                                    
 VBUTMBZ EP   0A  1413 49.51   83              -1.0                             
 VBUTMBZ ES   1A  1414  5.81                                                    
 VESPIBZ EP   2A  1413 49.41   91              -1.0                             
 VIRHOBZ EP   1A  1413 48.01   78              -1.0                             
 VIRHOBZ ES   3A  1414  3.01                                                    
 VKOLHBZ EP   1A  1413 49.21   85              -1.0                             
 VLEBEBZ EP   1A  1414  6.91   61              -1.0                             
 VLEBEBZ ES   2A  1414 46.81                                                    
 VNARWBZ EP   1A  1414  5.01   35              -1.0                             
 VPOTOBZ EP   1A  1413 49.01   32              -1.0                             
 VPOTOBZ ES   3A  1414  5.31                                                    
 VSARABZ EP   0A  1413 49.91   36              -1.0                             
 VSARABZ ES   2A  1414  6.61                                                    
 VTAMBBZ EP   2A  1413 49.21   91              -1.0                             
 VTAMBBZ ES   2A  1414  4.61                                                    
 VTURTBZ EP   0A  1413 48.11   35              -1.0                             
 VTURTBZ ES   2A  1414  3.41                                                    
                                                                                
 2008  6 1 1418 22.0 L                                                         1
 ACTION:ARG 12-09-17 15:47 OP:chb  STATUS:               ID:20080601141822     I
 2008-06-01-1418-22S.VNRC__100_MSEED                                           6
 STAT SP IPHASW D HRMM SECON CODA AMPLIT PERI AZIMU VELO AIN AR TRES W  DIS CAZ7
 VANGOBZ EP   0A  1419  4.41   70              -1.0                             
 VASAVBZ EP   0A  1418 57.11   77              -1.0                             
 VASAVBZ ES   3A  1419  8.41                                                    
 VAVUNBZ EP   0A  1418 58.41   76             270.0  9.8                        
 VAVUNBZ ES   2A  1419 11.21                                                    
 VBUTMBZ EP   0A  1419  2.51   72              -1.0                             
 VEBENBZ EP   1A  1419  0.21   74              -1.0                             
 VEBENBZ ES   2A  1419 14.71                                                    
 VESPIBZ EP   0A  1418 53.21   81              -1.0                             
 VIRHOBZ EP   0A  1419  1.01   73             358.0  5.1                        
 VIRHOBZ ES   2A  1419 16.21                                                    
 VKOLHBZ EP   0A  1419  4.51   70             336.0  8.1                        
 VLAKABZ EP   0A  1418 51.81   82              17.0 12.4                        
 VLEBEBZ EP   0A  1419  1.81   72             270.0  4.8                        
 VLEVIBZ EP   0A  1418 50.51   84              -1.0                             
 VLEVIBZ ES   2A  1418 57.81                                                    
 VNARWBZ EP   0A  1418 53.61   80             357.0                             
 VPOTOBZ EP   0A  1418 55.01   79              -1.0                             
 VPOTOBZ ES   3A  1419  5.61                                                    
 VSALEBZ EP   1A  1418 58.81   75              -1.0                             
 VSARABZ EP   0A  1419  4.11   70                                               
 VSARABZ ES   3A  1419 22.41                  225.0                             
 VSULEBZ EP   0A  1419  1.11   73              -1.0                             
 VTAMBBZ EP   0A  1419  1.01   73              -1.0                             
 VTAMBBZ ES   2A  1419 15.51                                                    
 VTURTBZ EP   0A  1419  2.61   71              16.0  7.7                        
 VWUSIBZ EP   1A  1419  3.31   71              -1.0                             
                                                                                
 2008  6 1 1418 38.0 L                                                         1
 ACTION:ARG 12-09-17 15:47 OP:chb  STATUS:               ID:20080601141838     I
 2008-06-01-1418-38S.VNRC__100_MSEED                                           6
 STAT SP IPHASW D HRMM SECON CODA AMPLIT PERI AZIMU VELO AIN AR TRES W  DIS CAZ7
 VANGOBZ EP   0A  1419  4.41   86              -1.0                             
 VASAVBZ EP   0A  1418 57.11   93              -1.0                             
 VASAVBZ ES   3A  1419  8.41                                                    
 VAVUNBZ EP   0A  1418 58.41   92             270.0  9.8                        
 VAVUNBZ ES   2A  1419 11.21                                                    
 VBUTMBZ EP   0A  1419  2.51   87              -1.0                             
 VEBENBZ EP   1A  1419  0.21   90              -1.0                             
 VEBENBZ ES   2A  1419 14.71                                                    
 VESPIBZ EP   0A  1418 53.21   97              -1.0                             
 VIRHOBZ EP   0A  1419  1.01   89             358.0  5.1                        
 VIRHOBZ ES   2A  1419 16.21                                                    
 VKOLHBZ EP   0A  1419  4.51   82             336.0  8.1                        
 VLAKABZ EP   0A  1418 51.81   98              17.0 12.4                        
 VLEBEBZ EP   0A  1419  1.81   88             270.0  4.8                        
 VLEVIBZ EP   0A  1418 50.51   91              -1.0                             
 VLEVIBZ ES   2A  1418 57.81                                                    
 VNARWBZ EP   0A  1418 53.61   96             357.0                             
 VPOTOBZ EP   0A  1418 55.01   95              -1.0                             
 VPOTOBZ ES   3A  1419  5.61                                                    
 VSALEBZ EP   1A  1418 58.71   87              -1.0                             
 VSARABZ EP   0A  1419  4.11   86                                               
 VSARABZ ES   3A  1419 22.41                  225.0                             
 VSULEBZ EP   0A  1419  1.11   89              -1.0                             
 VTAMBBZ EP   0A  1419  1.01   87              -1.0                             
 VTAMBBZ ES   2A  1419 15.51                                                    
 VTURTBZ EP   0A  1419  2.61   87              16.0  7.7                        
 VWUSIBZ EP   1A  1419  3.31   87              -1.0                             
                                                                                
 2008  6 1 1426  6.0 L                                                         1
 ACTION:ARG 12-09-17 15:47 OP:chb  STATUS:               ID:20080601142606     I
 2008-06-01-1426-06S.VNRC__100_MSEED                                           6
 STAT SP IPHASW D HRMM SECON CODA AMPLIT PERI AZIMU VELO AIN AR TRES W  DIS CAZ7
 VANGOBZ EP   2A  1426 28.71   51              -1.0                             
 VANGOBZ ES   2A  1426 40.91                                                    
 VASAVBZ EP   0A  1426 26.81   21                                               
 VASAVBZ ES   2A  1427 40.61                  291.0                             
 VAVUNBZ EP   2A  1426 30.41   83              -1.0                             
 VAVUNBZ ES   2A  1426 43.91                                                    
 VBUTMBZ EP   0A  1426 27.81   51              -1.0                             
 VBUTMBZ ES   2A  1426 40.11                                                    
 VKOLHBZ EP   1A  1426 26.41   91              -1.0                             
 VKOLHBZ ES   3A  1427 24.41                                                    
 VLAKABZ EP   0A  1427 28.91    3              -1.0                             
 VLEBEBZ EP   0A  1426 41.31   39              -1.0                             
 VLEVIBZ EP   2A  1427  7.51   37              -1.0                             
 VSARABZ EP   0A  1426 26.91   43              -1.0                             
 VSARABZ ES   3A  1426 39.01                                                    
 VTAMBBZ EP   1A  1426 41.11    6              -1.0                             
 VTURTBZ EP   0A  1426 26.81   68              -1.0                             
 VTURTBZ ES   2A  1426 38.51                                                    
                                                                                
 2008  6 1 1428 17.0 L                                                         1
 ACTION:ARG 12-09-17 15:47 OP:chb  STATUS:               ID:20080601142817     I
 2008-06-01-1428-17S.VNRC__100_MSEED                                           6
 STAT SP IPHASW D HRMM SECON CODA AMPLIT PERI AZIMU VELO AIN AR TRES W  DIS CAZ7
 VLEVIBZ EP   2A  1428 32.81   25              88.0                             
                                                                                
 2008  6 1 1431 10.0 L                                                         1
 ACTION:ARG 12-09-17 15:47 OP:chb  STATUS:               ID:20080601143110     I
 2008-06-01-1431-10S.VNRC__100_MSEED                                           6
 STAT SP IPHASW D HRMM SECON CODA AMPLIT PERI AZIMU VELO AIN AR TRES W  DIS CAZ7
 VASAVBZ EP   2A  1431 38.51   84             214.0                             
 VAVUNBZ EP   1A  1431 24.61   95              -1.0                             
 VBUTMBZ EP   1A  1431 43.51   79              -1.0                             
                                                                                
 2008  6 1 1433  1.0 L                                                         1
 ACTION:ARG 12-09-17 15:47 OP:chb  STATUS:               ID:20080601143301     I
 2008-06-01-1433-01S.VNRC__100_MSEED                                           6
 STAT SP IPHASW D HRMM SECON CODA AMPLIT PERI AZIMU VELO AIN AR TRES W  DIS CAZ7
 VAVUNBZ EP   1A  1434 21.31   32              -1.0                             
 VAVUNBZ ES   2A  1434 34.01                                                    
 VIRHOBZ EP   2A  1434 38.91   14              -1.0                             
 VLAKABZ EP   2A  1434 14.91   32              -1.0                             
 VLEVIBZ EP   2A  1433 50.31   63              93.0                             
 VLEVIBZ ES   2A  1434 20.31                                                    
 VTAMBBZ EP   1A  1434 38.21   13              -1.0                             
                                                                                
 2008  6 1 1433 52.0 L                                                         1
 ACTION:ARG 12-09-17 15:47 OP:chb  STATUS:               ID:20080601143352     I
 2008-06-01-1433-52S.VNRC__100_MSEED                                           6
 STAT SP IPHASW D HRMM SECON CODA AMPLIT PERI AZIMU VELO AIN AR TRES W  DIS CAZ7
 VAVUNBZ EP   1A  1434 21.31   37              -1.0                             
 VAVUNBZ ES   2A  1434 34.01                                                    
 VIRHOBZ EP   2A  1434 38.91   31              -1.0                             
 VLAKABZ EP   2A  1434 14.91   44              -1.0                             
 VLEVIBZ EP   1A  1434 20.31    2              -1.0                             
 VTAMBBZ EP   1A  1434 38.21   39              -1.0                             
                                                                                
 2008  6 1 1438 46.0 L                                                         1
 ACTION:ARG 12-09-17 15:47 OP:chb  STATUS:               ID:20080601143846     I
 2008-06-01-1438-46S.VNRC__100_MSEED                                           6
 STAT SP IPHASW D HRMM SECON CODA AMPLIT PERI AZIMU VELO AIN AR TRES W  DIS CAZ7
 VANGOBZ EP   2A  1438 56.51   96              -1.0                             
 VAVUNBZ EP   2A  1439 10.71   85              -1.0                             
 VAVUNBZ ES   2A  1439 31.81                                                    
 VBUTMBZ EP   0A  1439  8.31   68              -1.0                             
 VBUTMBZ ES   2A  1439 27.71                                                    
 VIRHOBZ EP   1A  1439  8.41   59              -1.0                             
 VIRHOBZ ES   2A  1439 27.81                                                    
 VKOLHBZ EP   1A  1439  7.11   36              -1.0                             
 VKOLHBZ ES   2A  1439 25.21                                                    
 VLEBEBZ EP   1A  1439 28.81   26              -1.0                             
 VSARABZ EP   0A  1439  7.41   63              -1.0                             
 VTAMBBZ EP   2A  1439 29.11   69              -1.0                             
 VTURTBZ EP   1A  1439 26.41   11              -1.0                             
 VWUSIBZ EP   1A  1439 30.21   19              -1.0                             
                                                                                
