 2008  6 1  859 11.0 L                                                         1
 ACTION:ARG 12-09-17 15:47 OP:chb  STATUS:               ID:20080601085911     I
 2008-06-01-0859-11S.VNRC__100_MSEED                                           6
 STAT SP IPHASW D HRMM SECON CODA AMPLIT PERI AZIMU VELO AIN AR TRES W  DIS CAZ7
 VANGOBZ EP   1A   859 39.61   78              -1.0                             
 VANGOBZ ES   2A   859 54.01                                                    
 VAVUNBZ EP   1A   859 41.41   31              -1.0                             
 VAVUNBZ ES   2A   859 56.21                                                    
 VBUTMBZ EP   1A   859 39.41   38              -1.0                             
 VBUTMBZ ES   1A   859 52.91                                                    
 VESPIBZ EP   1A   9 0  2.81   29              -1.0                             
 VIRHOBZ EP   1A   859 39.41   69              -1.0                             
 VIRHOBZ ES   1A   859 52.51                                                    
 VKOLHBZ EP   2A   859 31.01   92              -1.0                             
 VLEBEBZ EP   1A   859 40.11   35              -1.0                             
 VLEBEBZ ES   1A   859 53.71                                                    
 VLEVIBZ EP   1A   9 0 26.21   35              -1.0                             
 VPOTOBZ EP   1A   859 43.81   67              -1.0                             
 VSARABZ EP   0A   859 38.61   50              -1.0                             
 VSARABZ ES   2A   859 51.81                                                    
 VTAMBBZ EP   1A   859 32.11   77              -1.0                             
 VTAMBBZ ES   2A   859 53.91                                                    
 VTURTBZ EP   1A   859 51.41   78              -1.0                             
 VTURTBZ ES   2A   9 0 53.51                                                    
                                                                                
 2008  6 1  918 53.0 L                                                         1
 ACTION:ARG 12-09-17 15:47 OP:chb  STATUS:               ID:20080601091853     I
 2008-06-01-0918-53S.VNRC__100_MSEED                                           6
 STAT SP IPHASW D HRMM SECON CODA AMPLIT PERI AZIMU VELO AIN AR TRES W  DIS CAZ7
 VANGOBZ EP   1A   920 33.01    2              -1.0                             
 VESPIBZ EP   2A   920 37.61    7              -1.0                             
 VNARWBZ EP   2A   919 14.21   91              -1.0                             
                                                                                
 2008  6 1  921 22.0 L                                                         1
 ACTION:ARG 12-09-17 15:47 OP:chb  STATUS:               ID:20080601092122     I
 2008-06-01-0921-22S.VNRC__100_MSEED                                           6
 STAT SP IPHASW D HRMM SECON CODA AMPLIT PERI AZIMU VELO AIN AR TRES W  DIS CAZ7
 VANGOBZ EP   0A   921 44.01   90             140.0 48.6                        
 VASAVBZ EP   0A   921 46.41   67              -1.0                             
 VASAVBZ ES   2A   922  2.81                                                    
 VAVUNBZ EP   0A   921 45.71   47             270.0 13.3                        
 VAVUNBZ ES   2A   922  2.21                                                    
 VBUTMBZ EP   0A   921 43.51   91              -1.0                             
 VEBENBZ EP   2A   923  2.91    1              -1.0                             
 VESPIBZ EP   2A   922  8.41    5              -1.0                             
 VIRHOBZ EP   0A   921 43.31   91             235.0 12.2                        
 VIRHOBZ ES   3A   921 58.31                                                    
 VKOLHBZ EP   0A   921 42.01   77              -1.0                             
 VLEBEBZ EP   0A   921 44.21   90              -1.0                             
 VNARWBZ EP   2A   921 40.91   73              -1.0                             
 VPOTOBZ EP   0A   921 48.31   70              -1.0                             
 VSALEBZ EP   0A   921 46.81   46              -1.0                             
 VSARABZ EP   0A   921 42.91   84             176.0  6.6                        
 VSULEBZ EP   0A   921 46.31   88              -1.0                             
 VTAMBBZ EP   0A   921 44.21   84             356.0 10.1                        
 VTAMBBZ ES   2A   921 59.41                                                    
 VTURTBZ EP   0A   921 42.71   91              -1.0                             
 VTURTBZ ES   3A   921 57.71                                                    
 VWUSIBZ EP   0A   921 45.41   57             229.0 12.0                        
                                                                                
 2008  6 1  933  6.0 L                                                         1
 ACTION:ARG 12-09-17 15:47 OP:chb  STATUS:               ID:20080601093306     I
 2008-06-01-0933-06S.VNRC__100_MSEED                                           6
 STAT SP IPHASW D HRMM SECON CODA AMPLIT PERI AZIMU VELO AIN AR TRES W  DIS CAZ7
 VANGOBZ EP   0A   933 36.21   82              -1.0                             
 VAVUNBZ EP   1A   933 38.11   67              -1.0                             
 VAVUNBZ ES   2A   933 54.21                                                    
 VBUTMBZ EP   0A   933 35.81   82              -1.0                             
 VESPIBZ EP   0A   933 21.21   96              -1.0                             
 VIRHOBZ EP   0A   933 35.91   82              -1.0                             
 VIRHOBZ ES   2A   933 50.51                                                    
 VKOLHBZ EP   0A   933 34.71   83              -1.0                             
 VLEBEBZ EP   0A   933 36.41   82              -1.0                             
 VLEVIBZ EP   2A   933 20.81   97                                               
 VLEVIBZ ES   2A   934 52.21                   97.0                             
 VNARWBZ EP   2A   933 25.71   38              -1.0                             
 VSARABZ EP   0A   933 35.21   75             169.0  7.2                        
 VTAMBBZ EP   1A   933 36.61   64              -1.0                             
 VTAMBBZ ES   2A   933 51.61                                                    
 VTURTBZ EP   0A   933 35.21   83              -1.0                             
 VTURTBZ ES   3A   933 49.61                                                    
                                                                                
 2008  6 1  944  1.0 L                                                         1
 ACTION:ARG 12-09-17 15:47 OP:chb  STATUS:               ID:20080601094401     I
 2008-06-01-0944-01S.VNRC__100_MSEED                                           6
 STAT SP IPHASW D HRMM SECON CODA AMPLIT PERI AZIMU VELO AIN AR TRES W  DIS CAZ7
 VANGOBZ EP   2A   944 33.11   63              -1.0                             
 VBUTMBZ EP   2A   944 45.31   27              -1.0                             
 VLEVIBZ EP   2A   945 12.21   14              -1.0                             
 VSARABZ EP   2A   944 31.81   46              -1.0                             
                                                                                
 2008  6 1  949 32.0 L                                                         1
 ACTION:ARG 12-09-17 15:47 OP:chb  STATUS:               ID:20080601094932     I
 2008-06-01-0949-32S.VNRC__100_MSEED                                           6
 STAT SP IPHASW D HRMM SECON CODA AMPLIT PERI AZIMU VELO AIN AR TRES W  DIS CAZ7
 VANGOBZ EP   1A   950  4.71   50              -1.0                             
 VANGOBZ ES   3A   950 34.41                                                    
 VAVUNBZ EP   1A   950 18.31   19             270.0  9.1                        
 VIRHOBZ EP   2A   950 16.01   68              -1.0                             
 VLAKABZ EP   0A   950 16.81   63              -1.0                             
 VLEBEBZ EP   2A   950  4.91   68              -1.0                             
 VLEBEBZ ES   2A   950 17.51                                                    
 VLEVIBZ EP   2A   950 19.11   83              -1.0                             
 VLEVIBZ ES   2A   951 25.41                                                    
 VSARABZ EP   1A   950  3.21   53              -1.0                             
 VSARABZ ES   3A   950 32.41                                                    
 VTAMBBZ EP   1A   950 16.61   48              -1.0                             
 VTURTBZ EP   2A   950  4.41   35              -1.0                             
                                                                                
 2008  6 1  949 48.0 L                                                         1
 ACTION:ARG 12-09-17 15:47 OP:chb  STATUS:               ID:20080601094948     I
 2008-06-01-0949-48S.VNRC__100_MSEED                                           6
 STAT SP IPHASW D HRMM SECON CODA AMPLIT PERI AZIMU VELO AIN AR TRES W  DIS CAZ7
 VANGOBZ EP   1A   950  4.71   85              -1.0                             
 VANGOBZ ES   3A   950 34.41                                                    
 VASAVBZ EP   2A   951 25.51   14              -1.0                             
 VAVUNBZ EP   1A   950 18.31   35             270.0  9.2                        
 VIRHOBZ EP   2A   950 16.01   84              -1.0                             
 VLAKABZ EP   0A   950 16.81   83              -1.0                             
 VLEBEBZ EP   2A   950  4.91   68              -1.0                             
 VLEBEBZ ES   2A   950 17.51                                                    
 VLEVIBZ EP   2A   950  0.51   98              -1.0                             
 VLEVIBZ ES   2A   951 25.41                                                    
 VSARABZ EP   1A   950  3.21   58              -1.0                             
 VSARABZ ES   3A   950 32.41                                                    
 VTAMBBZ EP   1A   950 16.61   79              -1.0                             
 VTURTBZ EP   2A   950  4.41   94              -1.0                             
                                                                                
 2008  6 1 10 0 33.0 L                                                         1
 ACTION:ARG 12-09-17 15:47 OP:chb  STATUS:               ID:20080601100033     I
 2008-06-01-1000-33S.VNRC__100_MSEED                                           6
 STAT SP IPHASW D HRMM SECON CODA AMPLIT PERI AZIMU VELO AIN AR TRES W  DIS CAZ7
 VANGOBZ EP   1A  10 0 54.11   91              -1.0                             
 VANGOBZ ES   2A  10 1 34.61                                                    
 VAVUNBZ EP   1A  10 0 55.51   89              -1.0                             
 VAVUNBZ ES   3A  10 1 11.71                                                    
 VBUTMBZ EP   1A  10 1  9.81   65              -1.0                             
 VBUTMBZ ES   3A  10 1 34.11                                                    
 VIRHOBZ EP   2A  10 0 53.61   91              -1.0                             
 VIRHOBZ ES   2A  10 1 33.71                                                    
 VLEBEBZ EP   2A  10 1 34.71   50              -1.0                             
 VLEBEBZ ES   2A  10 1 49.91                                                    
 VLEVIBZ EP   2A  10 1 52.01   33                                               
 VLEVIBZ ES   2A  10 2 10.31                  108.0                             
 VSARABZ EP   0A  10 0 53.11   92              -1.0                             
 VSARABZ ES   1A  10 1 32.91                                                    
 VSULEBZ EP   1A  10 1 38.11   41              -1.0                             
 VTAMBBZ EP   1A  10 1 49.21   27              -1.0                             
 VTURTBZ EP   1A  10 1 33.21   70              -1.0                             
                                                                                
 2008  6 1 10 1  8.0 L                                                         1
 ACTION:ARG 12-09-17 15:47 OP:chb  STATUS:               ID:20080601100108     I
 2008-06-01-1001-08S.VNRC__100_MSEED                                           6
 STAT SP IPHASW D HRMM SECON CODA AMPLIT PERI AZIMU VELO AIN AR TRES W  DIS CAZ7
 VANGOBZ EP   1A  10 1 34.61   28              -1.0                             
 VAVUNBZ EP   2A  10 1 51.91   10              -1.0                             
 VBUTMBZ EP   2A  10 1 34.21   23              -1.0                             
 VIRHOBZ EP   1A  10 1 33.71   28              -1.0                             
 VIRHOBZ ES   3A  10 1 48.41                                                    
 VLEBEBZ EP   2A  10 1 34.71   27              -1.0                             
 VLEBEBZ ES   2A  10 1 49.91                                                    
 VLEVIBZ EP   1A  10 2 10.31   68             108.0                             
 VLEVIBZ ES   2A  10 2 56.31                                                    
 VSARABZ EP   0A  10 1 33.01   27              -1.0                             
 VSARABZ ES   2A  10 1 47.41                                                    
 VSULEBZ EP   1A  10 1 38.11   33              -1.0                             
 VTAMBBZ EP   1A  10 1 49.21   12              -1.0                             
 VTURTBZ EP   1A  10 1 33.21   26              -1.0                             
                                                                                
 2008  6 1 1027 35.0 L                                                         1
 ACTION:ARG 12-09-17 15:47 OP:chb  STATUS:               ID:20080601102735     I
 2008-06-01-1027-35S.VNRC__100_MSEED                                           6
 STAT SP IPHASW D HRMM SECON CODA AMPLIT PERI AZIMU VELO AIN AR TRES W  DIS CAZ7
 VANGOBZ EP   0A  1027 57.81   89               6.0 26.6                        
 VASAVBZ EP   0A  1027 56.01   64                                               
 VASAVBZ ES   2A  1028 47.71                  244.0                             
 VAVUNBZ EP   0A  1027 56.11   56             270.0  8.8                        
 VAVUNBZ ES   3A  1028 11.81                                                    
 VBUTMBZ EP   0A  1027 56.61   69              -1.0                             
 VBUTMBZ ES   2A  1028 11.51                                                    
 VEBENBZ EP   2A  1027 57.61   28              -1.0                             
 VESPIBZ EP   0A  1027 57.21   84              -1.0                             
 VIRHOBZ EP   0A  1027 55.31   65             300.0 22.4                        
 VIRHOBZ ES   3A  1028  9.01                                                    
 VKOLHBZ EP   0A  1027 56.21   40              -1.0                             
 VKOLHBZ ES   2A  1028 10.41                                                    
 VLEBEBZ EP   0A  1027 57.21   86              -1.0                             
 VLEBEBZ ES   3A  1028 12.71                                                    
 VNARWBZ EP   0A  1027 57.11   59              -1.0                             
 VNARWBZ ES   2A  1028 12.91                                                    
 VPOTOBZ EP   0A  1027 56.81   37              -1.0                             
 VPOTOBZ ES   2A  1028 12.51                                                    
 VSARABZ EP   0A  1027 57.01   42             175.0  8.2                        
 VSARABZ ES   2A  1028 12.31                                                    
 VSULEBZ EP   1A  1027 58.91   64              -1.0                             
 VTAMBBZ EP   0A  1027 56.21   43              -1.0                             
 VTAMBBZ ES   2A  1028 10.41                                                    
 VTURTBZ EP   0A  1027 55.31   49              -1.0                             
 VTURTBZ ES   2A  1028  9.41                                                    
 VWUSIBZ EP   2A  1027 59.41   88              -1.0                             
                                                                                
 2008  6 1 1034 15.0 L                                                         1
 ACTION:ARG 12-09-17 15:47 OP:chb  STATUS:               ID:20080601103415     I
 2008-06-01-1034-15S.VNRC__100_MSEED                                           6
 STAT SP IPHASW D HRMM SECON CODA AMPLIT PERI AZIMU VELO AIN AR TRES W  DIS CAZ7
 VASAVBZ EP   0A  1034 43.91   51             238.0                             
 VASAVBZ ES   3A  1035 32.91                                                    
 VBUTMBZ EP   1A  1034 38.01   41              -1.0                             
 VSARABZ EP   0A  1034 38.51   89              -1.0                             
                                                                                
