 2008  6 1 12 2 46.0 L                                                         1
 ACTION:ARG 12-09-17 15:47 OP:chb  STATUS:               ID:20080601120246     I
 2008-06-01-1202-46S.VNRC__100_MSEED                                           6
 STAT SP IPHASW D HRMM SECON CODA AMPLIT PERI AZIMU VELO AIN AR TRES W  DIS CAZ7
 VAVUNBZ EP   2A  12 3  7.31   91              -1.0                             
 VESPIBZ EP   0A  12 3  2.31   96              -1.0                             
 VNARWBZ EP   0A  12 3  2.31   96              -1.0                             
 VSULEBZ EP   1A  12 3  9.61   88              -1.0                             
 VWUSIBZ EP   1A  12 3 13.01   85              -1.0                             
                                                                                
 2008  6 1 1211  5.0 L                                                         1
 ACTION:ARG 12-09-17 15:47 OP:chb  STATUS:               ID:20080601121105     I
 2008-06-01-1211-05S.VNRC__100_MSEED                                           6
 STAT SP IPHASW D HRMM SECON CODA AMPLIT PERI AZIMU VELO AIN AR TRES W  DIS CAZ7
 VANGOBZ EP   1A  1211 39.61   77              -1.0                             
 VANGOBZ ES   3A  1212 54.71                                                    
 VAVUNBZ EP   2A  1211 55.21   79              -1.0                             
 VAVUNBZ ES   1A  1212 53.61                                                    
 VEBENBZ EP   2A  1212 52.61    4              -1.0                             
 VIRHOBZ EP   2A  1212 55.91    1              -1.0                             
 VLEBEBZ EP   1A  1211 56.11   61              -1.0                             
 VLEBEBZ ES   2A  1212 57.81                                                    
 VSALEBZ EP   2A  1212 52.41    5              -1.0                             
 VSULEBZ EP   1A  1212  3.61   53             293.0                             
 VTAMBBZ EP   2A  1212 54.11    3              -1.0                             
 VTURTBZ EP   1A  1211 35.61   81              -1.0                             
 VTURTBZ ES   1A  1212 55.81                                                    
                                                                                
 2008  6 1 1211 21.0 L                                                         1
 ACTION:ARG 12-09-17 15:47 OP:chb  STATUS:               ID:20080601121121     I
 2008-06-01-1211-21S.VNRC__100_MSEED                                           6
 STAT SP IPHASW D HRMM SECON CODA AMPLIT PERI AZIMU VELO AIN AR TRES W  DIS CAZ7
 VANGOBZ EP   1A  1211 39.61   93              -1.0                             
 VANGOBZ ES   3A  1212 54.71                                                    
 VAVUNBZ EP   2A  1211 55.21   92              -1.0                             
 VAVUNBZ ES   1A  1212 53.61                                                    
 VEBENBZ EP   2A  1212 52.61   13              -1.0                             
 VIRHOBZ EP   2A  1212 55.91   17                                               
 VIRHOBZ ES   2A  1213  1.31                  253.0                             
 VLEBEBZ EP   1A  1211 56.11   74              -1.0                             
 VLEBEBZ ES   2A  1212 57.81                                                    
 VSULEBZ EP   1A  1212  3.61   64             293.0                             
 VTAMBBZ EP   2A  1212 54.11   19              -1.0                             
 VTAMBBZ ES   2A  1212 58.71                                                    
 VTURTBZ EP   1A  1211 35.71   97              -1.0                             
 VTURTBZ ES   1A  1212 55.81                                                    
                                                                                
 2008  6 1 1212 32.0 L                                                         1
 ACTION:ARG 12-09-17 15:47 OP:chb  STATUS:               ID:20080601121232     I
 2008-06-01-1212-32S.VNRC__100_MSEED                                           6
 STAT SP IPHASW D HRMM SECON CODA AMPLIT PERI AZIMU VELO AIN AR TRES W  DIS CAZ7
 VANGOBZ EP   2A  1212 54.71   89              -1.0                             
 VANGOBZ ES   1A  1214 21.21                                                    
 VASAVBZ EP   0A  1214 19.51    4              -1.0                             
 VAVUNBZ EP   0A  1212 53.61   90              -1.0                             
 VAVUNBZ ES   1A  1214 19.61                                                    
 VBUTMBZ EP   0A  1214 20.31    4              -1.0                             
 VEBENBZ EP   2A  1212 52.61   91              -1.0                             
 VEBENBZ ES   1A  1214 20.51                                                    
 VESPIBZ EP   0A  1214 20.41    4              -1.0                             
 VIRHOBZ EP   1A  1213  1.31   88             253.0                             
 VIRHOBZ ES   1A  1214 19.21                                                    
 VKOLHBZ EP   0A  1214 20.21    4              -1.0                             
 VLAKABZ EP   0A  1214 21.81    2              -1.0                             
 VLEBEBZ EP   1A  1212 53.71   90              -1.0                             
 VLEBEBZ ES   1A  1214 20.41                                                    
 VLEVIBZ EP   0A  1214 21.91    2             175.0 15.3                        
 VNARWBZ EP   0A  1214 20.51    3             112.0 11.6                        
 VPOTOBZ EP   2A  1213  5.31   79              -1.0                             
 VPOTOBZ ES   1A  1214 20.01                                                    
 VSALEBZ EP   2A  1212 52.41   92              -1.0                             
 VSALEBZ ES   1A  1214 20.91                                                    
 VSARABZ EP   0A  1214 20.81    3              -1.0                             
 VSULEBZ EP   0A  1214 21.61    2              62.0  5.5                        
 VTAMBBZ EP   1A  1212 58.71   88              -1.0                             
 VTAMBBZ ES   1A  1214 19.71                                                    
 VTURTBZ EP   0A  1212 55.81   88              -1.0                             
 VTURTBZ ES   1A  1214 19.61                                                    
 VWUSIBZ EP   2A  1212 56.51   87              -1.0                             
 VWUSIBZ ES   1A  1214 22.61                                                    
                                                                                
 2008  6 1 1213 59.0 L                                                         1
 ACTION:ARG 12-09-17 15:47 OP:chb  STATUS:               ID:20080601121359     I
 2008-06-01-1213-59S.VNRC__100_MSEED                                           6
 STAT SP IPHASW D HRMM SECON CODA AMPLIT PERI AZIMU VELO AIN AR TRES W  DIS CAZ7
 VANGOBZ EP   0A  1214 21.21   90               5.0 26.5                        
 VASAVBZ EP   0A  1214 19.51   79              -1.0                             
 VASAVBZ ES   2A  1214 31.71                                                    
 VAVUNBZ EP   0A  1214 19.61   91             270.0 15.3                        
 VAVUNBZ ES   1A  1214 32.31                                                    
 VBUTMBZ EP   0A  1214 20.31   91              -1.0                             
 VBUTMBZ ES   2A  1214 34.11                                                    
 VEBENBZ EP   0A  1214 20.51   83             262.0 43.6                        
 VEBENBZ ES   2A  1214 34.11                                                    
 VESPIBZ EP   0A  1214 20.41   91              -1.0                             
 VESPIBZ ES   1A  1214 33.61                                                    
 VIRHOBZ EP   0A  1214 19.21   92             292.0 15.1                        
 VIRHOBZ ES   2A  1214 31.41                                                    
 VKOLHBZ EP   0A  1214 20.21   91              -1.0                             
 VKOLHBZ ES   1A  1214 32.91                                                    
 VLAKABZ EP   0A  1214 21.81   89              -1.0                             
 VLAKABZ ES   3A  1214 37.81                                                    
 VLEBEBZ EP   0A  1214 20.41   91             264.0  7.6                        
 VLEBEBZ ES   3A  1214 34.61                                                    
 VLEVIBZ EP   0A  1214 21.91   77             175.0 15.3                        
 VLEVIBZ ES   1A  1214 36.01                                                    
 VNARWBZ EP   0A  1214 20.51   90             112.0 11.6                        
 VNARWBZ ES   3A  1214 35.51                                                    
 VPOTOBZ EP   0A  1214 20.01   91             101.0 22.9                        
 VPOTOBZ ES   2A  1214 33.21                                                    
 VSALEBZ EP   0A  1214 20.91   83              -1.0                             
 VSALEBZ ES   2A  1214 35.31                                                    
 VSARABZ EP   0A  1214 20.81   90              -1.0                             
 VSARABZ ES   2A  1214 34.61                                                    
 VSULEBZ EP   0A  1214 21.61   89              62.0  5.5                        
 VSULEBZ ES   3A  1214 38.01                                                    
 VTAMBBZ EP   0A  1214 19.71   91             324.0 18.1                        
 VTAMBBZ ES   1A  1214 33.01                                                    
 VTURTBZ EP   0A  1214 19.61   91               4.0 23.1                        
 VTURTBZ ES   2A  1214 32.11                                                    
 VWUSIBZ EP   0A  1214 22.61   88             263.0 14.4                        
 VWUSIBZ ES   2A  1214 38.11                                                    
                                                                                
 2008  6 1 1216 14.0 L                                                         1
 ACTION:ARG 12-09-17 15:47 OP:chb  STATUS:               ID:20080601121614     I
 2008-06-01-1216-14S.VNRC__100_MSEED                                           6
 STAT SP IPHASW D HRMM SECON CODA AMPLIT PERI AZIMU VELO AIN AR TRES W  DIS CAZ7
 VAVUNBZ EP   1A  1216 36.81   13              -1.0                             
 VIRHOBZ EP   2A  1216 38.81   15              -1.0                             
 VIRHOBZ ES   2A  1216 45.91                                                    
 VSALEBZ EP   2A  1216 34.01   82              -1.0                             
 VSULEBZ EP   0A  1216 34.61   15              -1.0                             
 VSULEBZ ES   3A  1216 39.21                                                    
 VTAMBBZ EP   1A  1216 43.21    7              -1.0                             
 VTURTBZ EP   1A  1216 39.11   61              -1.0                             
 VTURTBZ ES   2A  1216 46.61                                                    
 VWUSIBZ EP   1A  1216 36.41   12             307.0 12.9                        
                                                                                
 2008  6 1 1226  0.0 L                                                         1
 ACTION:ARG 12-09-17 15:47 OP:chb  STATUS:               ID:20080601122600     I
 2008-06-01-1226-00S.VNRC__100_MSEED                                           6
 STAT SP IPHASW D HRMM SECON CODA AMPLIT PERI AZIMU VELO AIN AR TRES W  DIS CAZ7
 VANGOBZ EP   0A  1226 22.51   90              -1.0                             
 VAVUNBZ EP   0A  1226 22.21   61              -1.0                             
 VBUTMBZ EP   0A  1226 21.81   62              -1.0                             
 VEBENBZ EP   1A  1226 21.11   91              -1.0                             
 VEBENBZ ES   2A  1226 25.41                                                    
 VIRHOBZ EP   0A  1226 22.91   19              52.0  7.3                        
 VIRHOBZ ES   2A  1226 28.21                                                    
 VLEBEBZ EP   1A  1226 21.21   13              -1.0                             
 VLEBEBZ ES   2A  1226 24.91                                                    
 VSALEBZ EP   1A  1226 21.91   10              -1.0                             
 VSULEBZ EP   2A  1226 22.21   18              -1.0                             
 VTAMBBZ EP   0A  1226 21.51   91             358.0 16.0                        
 VTURTBZ EP   0A  1226 23.11   30              -1.0                             
 VWUSIBZ EP   2A  1226 24.61   13              -1.0                             
 VWUSIBZ ES   2A  1226 31.61                                                    
                                                                                
 2008  6 1 1233 30.0 L                                                         1
 ACTION:ARG 12-09-17 15:47 OP:chb  STATUS:               ID:20080601123330     I
 2008-06-01-1233-30S.VNRC__100_MSEED                                           6
 STAT SP IPHASW D HRMM SECON CODA AMPLIT PERI AZIMU VELO AIN AR TRES W  DIS CAZ7
 VBUTMBZ EP   1A  1233 52.21   64              -1.0                             
 VIRHOBZ EP   2A  1233 51.71    5              -1.0                             
 VTAMBBZ EP   2A  1233 53.41   72              -1.0                             
                                                                                
 2008  6 1 1236 37.0 L                                                         1
 ACTION:ARG 12-09-17 15:47 OP:chb  STATUS:               ID:20080601123637     I
 2008-06-01-1236-37S.VNRC__100_MSEED                                           6
 STAT SP IPHASW D HRMM SECON CODA AMPLIT PERI AZIMU VELO AIN AR TRES W  DIS CAZ7
 VBUTMBZ EP   1A  1237  8.81   29              -1.0                             
                                                                                
 2008  6 1 1242 13.0 L                                                         1
 ACTION:ARG 12-09-17 15:47 OP:chb  STATUS:               ID:20080601124213     I
 2008-06-01-1242-13S.VNRC__100_MSEED                                           6
 STAT SP IPHASW D HRMM SECON CODA AMPLIT PERI AZIMU VELO AIN AR TRES W  DIS CAZ7
 VBUTMBZ EP   2A  1242 48.31   69              -1.0                             
                                                                                
 2008  6 1 1250 15.0 L                                                         1
 ACTION:ARG 12-09-17 15:47 OP:chb  STATUS:               ID:20080601125015     I
 2008-06-01-1250-15S.VNRC__100_MSEED                                           6
 STAT SP IPHASW D HRMM SECON CODA AMPLIT PERI AZIMU VELO AIN AR TRES W  DIS CAZ7
 VBUTMBZ EP   1A  1250 37.81   34              -1.0                             
 VSARABZ EP   1A  1250 38.21   33              -1.0                             
 VTAMBBZ EP   2A  1250 55.51   72              -1.0                             
                                                                                
 2008  6 1 1251 52.0 L                                                         1
 ACTION:ARG 12-09-17 15:47 OP:chb  STATUS:               ID:20080601125152     I
 2008-06-01-1251-52S.VNRC__100_MSEED                                           6
 STAT SP IPHASW D HRMM SECON CODA AMPLIT PERI AZIMU VELO AIN AR TRES W  DIS CAZ7
 VANGOBZ EP   0A  1252 13.31   66              -1.0                             
 VANGOBZ ES   2A  1252 29.51                                                    
 VASAVBZ EP   1A  1252 31.51   23              -1.0                             
 VAVUNBZ EP   1A  1252 14.51   67              -1.0                             
 VAVUNBZ ES   1A  1252 30.91                                                    
 VBUTMBZ EP   0A  1252 12.91   68              -1.0                             
 VBUTMBZ ES   1A  1252 28.51                                                    
 VESPIBZ EP   2A  1252 17.71   69              -1.0                             
 VIRHOBZ EP   0A  1252 12.71   64              -1.0                             
 VIRHOBZ ES   2A  1252 27.71                                                    
 VKOLHBZ EP   1A  1252 11.81   49              -1.0                             
 VKOLHBZ ES   2A  1252 26.11                                                    
 VLAKABZ EP   2A  1253 13.41   31              -1.0                             
 VLEBEBZ EP   1A  1252 13.51   59              -1.0                             
 VLEBEBZ ES   1A  1252 29.81                                                    
 VNARWBZ EP   1A  1252 17.01   87              -1.0                             
 VSARABZ EP   0A  1252 12.31   61              -1.0                             
 VSARABZ ES   2A  1252 27.51                                                    
 VTAMBBZ EP   0A  1252 28.81   65              -1.0                             
 VTURTBZ EP   0A  1252 12.01   57                                               
 VTURTBZ ES   1A  1252 26.71                  261.0                             
 VWUSIBZ EP   1A  1252 14.61   48              -1.0                             
                                                                                
 2008  6 1 1259 26.0 L                                                         1
 ACTION:ARG 12-09-17 15:47 OP:chb  STATUS:               ID:20080601125926     I
 2008-06-01-1259-26S.VNRC__100_MSEED                                           6
 STAT SP IPHASW D HRMM SECON CODA AMPLIT PERI AZIMU VELO AIN AR TRES W  DIS CAZ7
 VKOLHBZ EP   1A  1259 53.91   78              -1.0                             
 VNARWBZ EP   1A  1259 51.71   86              -1.0                             
                                                                                
 2008  6 1 13 3 33.0 L                                                         1
 ACTION:ARG 12-09-17 15:47 OP:chb  STATUS:               ID:20080601130333     I
 2008-06-01-1303-33S.VNRC__100_MSEED                                           6
 STAT SP IPHASW D HRMM SECON CODA AMPLIT PERI AZIMU VELO AIN AR TRES W  DIS CAZ7
                                                                                
 2008  6 1 1310 47.0 L                                                         1
 ACTION:ARG 12-09-17 15:47 OP:chb  STATUS:               ID:20080601131047     I
 2008-06-01-1310-47S.VNRC__100_MSEED                                           6
 STAT SP IPHASW D HRMM SECON CODA AMPLIT PERI AZIMU VELO AIN AR TRES W  DIS CAZ7
 VAVUNBZ EP   1A  1311 15.81   42              -1.0                             
 VBUTMBZ EP   1A  1311 20.31   59              -1.0                             
 VEBENBZ EP   0A  1312 29.01    4             332.0                             
 VESPIBZ EP   0A  1311 10.21   89             281.0 11.4                        
 VIRHOBZ EP   2A  1311 17.31   46              -1.0                             
 VKOLHBZ EP   2A  1311 40.31   50              -1.0                             
 VLAKABZ EP   1A  1311  7.51   91              -1.0                             
 VNARWBZ EP   1A  1311  9.01   80              -1.0                             
                                                                                
 2008  6 1 1314  8.0 L                                                         1
 ACTION:ARG 12-09-17 15:47 OP:chb  STATUS:               ID:20080601131408     I
 2008-06-01-1314-08S.VNRC__100_MSEED                                           6
 STAT SP IPHASW D HRMM SECON CODA AMPLIT PERI AZIMU VELO AIN AR TRES W  DIS CAZ7
                                                                                
