 2008  6 1  730 57.0 L                                                         1
 ACTION:ARG 12-09-17 15:47 OP:chb  STATUS:               ID:20080601073057     I
 2008-06-01-0730-57S.VNRC__100_MSEED                                           6
 STAT SP IPHASW D HRMM SECON CODA AMPLIT PERI AZIMU VELO AIN AR TRES W  DIS CAZ7
 VANGOBZ EP   0A   731 17.51   98              -1.0                             
 VANGOBZ ES   3A   731 32.11                                                    
 VASAVBZ EP   2A   731 26.51   31              -1.0                             
 VASAVBZ ES   1A   731 43.11                                                    
 VAVUNBZ EP   0A   731 23.51   49              -1.0                             
 VAVUNBZ ES   2A   731 40.01                                                    
 VBUTMBZ EP   0A   731 18.11   91              -1.0                             
 VBUTMBZ ES   3A   731 31.81                                                    
 VEBENBZ EP   2A   731 39.01   57              -1.0                             
 VESPIBZ EP   0A   731 29.01   80              -1.0                             
 VESPIBZ ES   2A   731 48.81                                                    
 VIRHOBZ EP   0A   731 20.41   83             170.0  6.5                        
 VKOLHBZ EP   0A   731 17.21   76              -1.0                             
 VKOLHBZ ES   3A   731 27.71                                                    
 VLEBEBZ EP   0A   731 19.11   80              -1.0                             
 VLEBEBZ ES   3A   731 34.01                                                    
 VNARWBZ EP   2A   731 30.01   77              -1.0                             
 VPOTOBZ EP   0A   731 28.11   50              -1.0                             
 VPOTOBZ ES   2A   731 48.01                                                    
 VSALEBZ EP   2A   731 25.51   71              -1.0                             
 VSARABZ EP   0A   731 16.11   77              -1.0                             
 VSULEBZ EP   0A   731 23.51   41              -1.0                             
 VTAMBBZ EP   1A   731 20.71   86              -1.0                             
 VTURTBZ EP   0A   731 18.91   90              -1.0                             
 VTURTBZ ES   3A   731 30.71                                                    
 VWUSIBZ EP   0A   731 19.61   65             214.0  6.5                        
 VWUSIBZ ES   2A   731 35.71                                                    
                                                                                
 2008  6 1  736 18.0 L                                                         1
 ACTION:ARG 12-09-17 15:47 OP:chb  STATUS:               ID:20080601073618     I
 2008-06-01-0736-18S.VNRC__100_MSEED                                           6
 STAT SP IPHASW D HRMM SECON CODA AMPLIT PERI AZIMU VELO AIN AR TRES W  DIS CAZ7
 VANGOBZ EP   2A   736 42.71   26              -1.0                             
 VANGOBZ ES   1A   736 59.51                                                    
 VAVUNBZ EP   1A   736 42.71   61              -1.0                             
 VAVUNBZ ES   2A   737  2.91                                                    
 VBUTMBZ EP   2A   737  0.01   68              -1.0                             
 VIRHOBZ EP   1A   736 41.91   42              -1.0                             
 VIRHOBZ ES   2A   736 59.11                                                    
 VKOLHBZ EP   0A   736 56.71   42              -1.0                             
 VLEBEBZ EP   1A   736 42.81   87              -1.0                             
 VLEBEBZ ES   1A   737  0.31                                                    
 VSARABZ EP   0A   736 41.31   60              -1.0                             
 VSARABZ ES   1A   736 57.61                                                    
 VTURTBZ EP   1A   736 31.81   92              -1.0                             
                                                                                
 2008  6 1  742  3.0 L                                                         1
 ACTION:ARG 12-09-17 15:47 OP:chb  STATUS:               ID:20080601074203     I
 2008-06-01-0742-03S.VNRC__100_MSEED                                           6
 STAT SP IPHASW D HRMM SECON CODA AMPLIT PERI AZIMU VELO AIN AR TRES W  DIS CAZ7
 VANGOBZ EP   1A   742 24.51   62              -1.0                             
 VANGOBZ ES   2A   742 40.81                                                    
 VAVUNBZ EP   1A   742 25.51   43              -1.0                             
 VAVUNBZ ES   2A   742 42.41                                                    
 VBUTMBZ EP   0A   742 24.11   91              -1.0                             
 VBUTMBZ ES   2A   742 39.81                                                    
 VIRHOBZ EP   0A   742 23.71   41              -1.0                             
 VIRHOBZ ES   3A   742 39.31                                                    
 VKOLHBZ EP   2A   742 23.11   34              -1.0                             
 VLEBEBZ EP   0A   742 24.61   48              -1.0                             
 VLEBEBZ ES   3A   742 41.11                                                    
 VPOTOBZ EP   1A   742 27.61   33              -1.0                             
 VSARABZ EP   0A   742 20.91   90              -1.0                             
 VSARABZ ES   2A   743 47.51                                                    
 VTURTBZ EP   0A   742 23.21   92              -1.0                             
 VTURTBZ ES   2A   742 38.11                                                    
                                                                                
 2008  6 1  747  5.0 L                                                         1
 ACTION:ARG 12-09-17 15:47 OP:chb  STATUS:               ID:20080601074705     I
 2008-06-01-0747-05S.VNRC__100_MSEED                                           6
 STAT SP IPHASW D HRMM SECON CODA AMPLIT PERI AZIMU VELO AIN AR TRES W  DIS CAZ7
 VANGOBZ EP   2A   747 57.21   60              -1.0                             
 VSARABZ EP   0A   747 17.21   80              -1.0                             
                                                                                
 2008  6 1  747 35.0 L                                                         1
 ACTION:ARG 12-09-17 15:47 OP:chb  STATUS:               ID:20080601074735     I
 2008-06-01-0747-35S.VNRC__100_MSEED                                           6
 STAT SP IPHASW D HRMM SECON CODA AMPLIT PERI AZIMU VELO AIN AR TRES W  DIS CAZ7
 VANGOBZ EP   2A   747 57.21   20              -1.0                             
 VSARABZ EP   2A   749  1.01    7              -1.0                             
 VSARABZ ES   2A   749  7.21                                                    
                                                                                
 2008  6 1  754 17.0 L                                                         1
 ACTION:ARG 12-09-17 15:47 OP:chb  STATUS:               ID:20080601075417     I
 2008-06-01-0754-17S.VNRC__100_MSEED                                           6
 STAT SP IPHASW D HRMM SECON CODA AMPLIT PERI AZIMU VELO AIN AR TRES W  DIS CAZ7
 VLEBEBZ EP   0A   755 38.51    3              34.0                             
 VSARABZ EP   1A   754 38.31   91              -1.0                             
 VSARABZ ES   1A   755 28.41                                                    
 VTAMBBZ EP   2A   755 39.41   24              -1.0                             
                                                                                
 2008  6 1  757 45.0 L                                                         1
 ACTION:ARG 12-09-17 15:47 OP:chb  STATUS:               ID:20080601075745     I
 2008-06-01-0757-45S.VNRC__100_MSEED                                           6
 STAT SP IPHASW D HRMM SECON CODA AMPLIT PERI AZIMU VELO AIN AR TRES W  DIS CAZ7
 VIRHOBZ EP   1A   758  7.11   52              -1.0                             
 VLEBEBZ EP   1A   758  7.61   52              -1.0                             
 VLEBEBZ ES   2A   758 22.51                                                    
 VNARWBZ EP   2A   758 33.81   23              -1.0                             
 VSARABZ EP   1A   758  6.31   91              -1.0                             
 VSARABZ ES   3A   759 37.51                                                    
                                                                                
 2008  6 1  8 6 31.0 L                                                         1
 ACTION:ARG 12-09-17 15:47 OP:chb  STATUS:               ID:20080601080631     I
 2008-06-01-0806-31S.VNRC__100_MSEED                                           6
 STAT SP IPHASW D HRMM SECON CODA AMPLIT PERI AZIMU VELO AIN AR TRES W  DIS CAZ7
 VANGOBZ EP   1A   8 7 20.51   78              -1.0                             
 VANGOBZ ES   2A   8 8 19.31                                                    
 VAVUNBZ EP   0A   8 7  2.81   80             270.0  5.7                        
 VBUTMBZ EP   1A   8 7  3.41   71              -1.0                             
 VBUTMBZ ES   2A   8 7 17.61                                                    
 VIRHOBZ EP   0A   8 7  1.61   39             309.0 17.8                        
 VIRHOBZ ES   2A   8 7 14.71                                                    
 VKOLHBZ EP   0A   8 7  2.61   37              -1.0                             
 VKOLHBZ ES   2A   8 7 16.11                                                    
 VLEBEBZ EP   2A   8 7  3.81   40              -1.0                             
 VLEVIBZ EP   1A   8 7 21.91   52             262.0                             
 VLEVIBZ ES   2A   8 8  0.01                                                    
 VNARWBZ EP   1A   8 7 18.01   55              -1.0                             
 VSARABZ EP   0A   8 7  3.51   72             172.0  9.9                        
 VSARABZ ES   2A   8 7 18.11                                                    
 VTAMBBZ EP   2A   8 7 16.81    5              -1.0                             
 VTURTBZ EP   0A   8 7  1.91   27              -1.0                             
 VTURTBZ ES   1A   8 7 14.91                                                    
                                                                                
 2008  6 1  811 13.0 L                                                         1
 ACTION:ARG 12-09-17 15:47 OP:chb  STATUS:               ID:20080601081113     I
 2008-06-01-0811-13S.VNRC__100_MSEED                                           6
 STAT SP IPHASW D HRMM SECON CODA AMPLIT PERI AZIMU VELO AIN AR TRES W  DIS CAZ7
 VANGOBZ EP   0A   811 39.51   63              -1.0                             
 VANGOBZ ES   3A   811 52.11                                                    
 VASAVBZ EP   1A   811 52.11   72                                               
 VASAVBZ ES   3A   812 39.11                  266.0                             
 VAVUNBZ EP   0A   811 40.01   82             270.0 12.5                        
 VAVUNBZ ES   2A   811 51.41                                                    
 VBUTMBZ EP   0A   811 38.71   58              -1.0                             
 VBUTMBZ ES   2A   811 49.41                                                    
 VESPIBZ EP   1A   811 43.41   37              -1.0                             
 VESPIBZ ES   2A   811 57.41                                                    
 VIRHOBZ EP   0A   811 38.21   55              -1.0                             
 VIRHOBZ ES   2A   811 48.41                                                    
 VKOLHBZ EP   0A   811 37.51   88              -1.0                             
 VLEBEBZ EP   0A   811 39.11   85              -1.0                             
 VLEBEBZ ES   2A   811 50.71                                                    
 VLEVIBZ EP   0A   812 52.31   34                                               
 VLEVIBZ ES   1A   813  1.11                  131.0                             
 VSARABZ EP   0A   811 38.51   40              -1.0                             
 VSARABZ ES   2A   811 49.21                                                    
 VSULEBZ EP   0A   811 42.41   37              -1.0                             
 VTAMBBZ EP   1A   811 49.41   76              -1.0                             
 VTURTBZ EP   0A   811 37.81   26              -1.0                             
 VTURTBZ ES   2A   811 47.51                                                    
 VWUSIBZ EP   0A   811 42.11   24             247.0  6.8                        
 VWUSIBZ ES   2A   811 56.31                                                    
                                                                                
 2008  6 1  818  9.0 L                                                         1
 ACTION:ARG 12-09-17 15:47 OP:chb  STATUS:               ID:20080601081809     I
 2008-06-01-0818-09S.VNRC__100_MSEED                                           6
 STAT SP IPHASW D HRMM SECON CODA AMPLIT PERI AZIMU VELO AIN AR TRES W  DIS CAZ7
 VANGOBZ EP   1A   818 31.41   90              -1.0                             
 VAVUNBZ EP   0A   818 30.61   77             270.0  7.3                        
 VBUTMBZ EP   0A   818 30.11   91              -1.0                             
 VIRHOBZ EP   1A   818 29.11   91              -1.0                             
 VKOLHBZ EP   1A   818 29.21   43              -1.0                             
 VLEBEBZ EP   1A   818 30.91   72              -1.0                             
 VPOTOBZ EP   1A   818 32.31   24              -1.0                             
 VSARABZ EP   0A   818 30.11   73             178.0  5.4                        
 VTAMBBZ EP   1A   818 29.81   91              -1.0                             
 VTURTBZ EP   0A   818 28.91   70              -1.0                             
                                                                                
 2008  6 1  822 49.0 L                                                         1
 ACTION:ARG 12-09-17 15:47 OP:chb  STATUS:               ID:20080601082249     I
 2008-06-01-0822-49S.VNRC__100_MSEED                                           6
 STAT SP IPHASW D HRMM SECON CODA AMPLIT PERI AZIMU VELO AIN AR TRES W  DIS CAZ7
 VASAVBZ EP   1A   823 14.01   60              49.0                             
 VKOLHBZ EP   2A   823 19.81    1              -1.0                             
 VTURTBZ EP   1A   823 15.81    5              -1.0                             
                                                                                
 2008  6 1  830 40.0 L                                                         1
 ACTION:ARG 12-09-17 15:47 OP:chb  STATUS:               ID:20080601083040     I
 2008-06-01-0830-40S.VNRC__100_MSEED                                           6
 STAT SP IPHASW D HRMM SECON CODA AMPLIT PERI AZIMU VELO AIN AR TRES W  DIS CAZ7
 VANGOBZ EP   1A   831  5.21   87              -1.0                             
 VSARABZ EP   2A   831  3.51   85              -1.0                             
 VTAMBBZ EP   1A   830 52.01  100              -1.0                             
 VTURTBZ EP   2A   830 50.51   25              -1.0                             
 VTURTBZ ES   1A   831  0.31                                                    
                                                                                
 2008  6 1  842  1.0 L                                                         1
 ACTION:ARG 12-09-17 15:47 OP:chb  STATUS:               ID:20080601084201     I
 2008-06-01-0842-01S.VNRC__100_MSEED                                           6
 STAT SP IPHASW D HRMM SECON CODA AMPLIT PERI AZIMU VELO AIN AR TRES W  DIS CAZ7
 VLEBEBZ EP   0A   843 42.41    3             203.0                             
                                                                                
 2008  6 1  846 45.0 L                                                         1
 ACTION:ARG 12-09-17 15:47 OP:chb  STATUS:               ID:20080601084645     I
 2008-06-01-0846-45S.VNRC__100_MSEED                                           6
 STAT SP IPHASW D HRMM SECON CODA AMPLIT PERI AZIMU VELO AIN AR TRES W  DIS CAZ7
 VANGOBZ EP   1A   847 47.11   50              -1.0                             
 VANGOBZ ES   2A   848  9.11                                                    
 VBUTMBZ EP   0A   847 19.51   91              -1.0                             
 VBUTMBZ ES   2A   848  9.51                                                    
 VKOLHBZ EP   0A   846 55.51   90              -1.0                             
 VKOLHBZ ES   2A   847 33.61                                                    
 VLEBEBZ EP   2A   847 21.31   76              -1.0                             
 VLEBEBZ ES   2A   847 47.61                                                    
 VSARABZ EP   1A   847 20.21   84              -1.0                             
 VSARABZ ES   2A   848  7.81                                                    
 VTAMBBZ EP   1A   848 10.51   26              -1.0                             
                                                                                
 2008  6 1  847 16.0 L                                                         1
 ACTION:ARG 12-09-17 15:47 OP:chb  STATUS:               ID:20080601084716     I
 2008-06-01-0847-16S.VNRC__100_MSEED                                           6
 STAT SP IPHASW D HRMM SECON CODA AMPLIT PERI AZIMU VELO AIN AR TRES W  DIS CAZ7
 VANGOBZ EP   1A   847 47.11   43              -1.0                             
 VANGOBZ ES   2A   848  9.11                                                    
 VBUTMBZ EP   2A   847 47.01   32              -1.0                             
 VBUTMBZ ES   2A   848  9.51                                                    
 VIRHOBZ EP   1A   847 46.71   31              -1.0                             
 VIRHOBZ ES   3A   848  8.91                                                    
 VKOLHBZ EP   2A   847 33.61   49              -1.0                             
 VLEBEBZ EP   1A   847 47.61   36                                               
 VLEBEBZ ES   3A   848 10.81                  290.0                             
 VSARABZ EP   1A   847 46.11   32              -1.0                             
 VSARABZ ES   2A   848  7.81                                                    
 VTAMBBZ EP   1A   848 10.51    7              -1.0                             
                                                                                
