 2008  6 1 1036 42.0 L                                                         1
 ACTION:ARG 12-09-17 15:47 OP:chb  STATUS:               ID:20080601103642     I
 2008-06-01-1036-42S.VNRC__100_MSEED                                           6
 STAT SP IPHASW D HRMM SECON CODA AMPLIT PERI AZIMU VELO AIN AR TRES W  DIS CAZ7
 VANGOBZ EP   1A  1037 13.91   80              -1.0                             
 VASAVBZ EP   1A  1037 13.51   80              -1.0                             
 VASAVBZ ES   2A  1037 25.11                                                    
 VAVUNBZ EP   0A  1037 15.11   79             270.0  8.7                        
 VAVUNBZ ES   2A  1037 28.01                                                    
 VBUTMBZ EP   0A  1037 19.51   74              -1.0                             
 VBUTMBZ ES   3A  1037 36.21                                                    
 VEBENBZ EP   0A  1037 17.01   77              -1.0                             
 VEBENBZ ES   2A  1037 31.41                                                    
 VESPIBZ EP   0A  1037 10.11   84             331.0 12.0                        
 VIRHOBZ EP   0A  1037 18.01   76             348.0  5.5                        
 VIRHOBZ ES   2A  1037 32.91                                                    
 VKOLHBZ EP   0A  1037 21.61   72              -1.0                             
 VKOLHBZ ES   2A  1037 38.21                                                    
 VLAKABZ EP   0A  1037  8.71   85              -1.0                             
 VLAKABZ ES   2A  1037 16.61                                                    
 VLEBEBZ EP   1A  1037 14.81   79              -1.0                             
 VLEBEBZ ES   2A  1037 18.91                                                    
 VLEVIBZ EP   0A  1037  7.41   87              36.0 19.5                        
 VLEVIBZ ES   1A  1037 14.51                                                    
 VNARWBZ EP   0A  1037 10.31   84             347.0                             
 VNARWBZ ES   2A  1038 27.01                                                    
 VPOTOBZ EP   0A  1037 11.71   82              -1.0                             
 VPOTOBZ ES   3A  1037 22.11                                                    
 VSALEBZ EP   2A  1037  3.21   76              -1.0                             
 VSARABZ EP   1A  1037 13.41   81                                               
 VSARABZ ES   1A  1037 21.21                                                    
 VSULEBZ EP   2A  1037 16.01   78              -1.0                             
 VTAMBBZ EP   0A  1037 17.81   76              -1.0                             
 VTAMBBZ ES   2A  1037 32.31                                                    
 VTURTBZ EP   0A  1037 19.91   85              -1.0                             
 VTURTBZ ES   3A  1037 35.81                                                    
 VWUSIBZ EP   2A  1037 36.51   57              -1.0                             
                                                                                
 2008  6 1 1041 22.0 L                                                         1
 ACTION:ARG 12-09-17 15:47 OP:chb  STATUS:               ID:20080601104122     I
 2008-06-01-1041-22S.VNRC__100_MSEED                                           6
 STAT SP IPHASW D HRMM SECON CODA AMPLIT PERI AZIMU VELO AIN AR TRES W  DIS CAZ7
 VANGOBZ EP   2A  1041 56.81   50              -1.0                             
 VAVUNBZ EP   1A  1042  9.51   28              -1.0                             
 VIRHOBZ EP   2A  1042 14.41   29              -1.0                             
 VTAMBBZ EP   1A  1042 13.81   49              -1.0                             
                                                                                
 2008  6 1 1043 24.0 L                                                         1
 ACTION:ARG 12-09-17 15:47 OP:chb  STATUS:               ID:20080601104324     I
 2008-06-01-1043-24S.VNRC__100_MSEED                                           6
 STAT SP IPHASW D HRMM SECON CODA AMPLIT PERI AZIMU VELO AIN AR TRES W  DIS CAZ7
 VANGOBZ EP   0A  1043 44.91   89              -1.0                             
 VANGOBZ ES   1A  1045 11.51                                                    
 VAVUNBZ EP   1A  1043 50.61   67             270.0  8.7                        
 VAVUNBZ ES   3A  1044 20.81                                                    
 VBUTMBZ EP   1A  1043 45.81   77              -1.0                             
 VIRHOBZ EP   0A  1043 48.31   70             162.0  7.1                        
 VKOLHBZ EP   0A  1043 45.21   70              -1.0                             
 VLEBEBZ EP   0A  1043 46.61   69              -1.0                             
 VSARABZ EP   1A  1043 44.31   65              -1.0                             
 VTURTBZ EP   1A  1043 46.61   85              -1.0                             
                                                                                
 2008  6 1 1046  1.0 L                                                         1
 ACTION:ARG 12-09-17 15:47 OP:chb  STATUS:               ID:20080601104601     I
 2008-06-01-1046-01S.VNRC__100_MSEED                                           6
 STAT SP IPHASW D HRMM SECON CODA AMPLIT PERI AZIMU VELO AIN AR TRES W  DIS CAZ7
 VANGOBZ EP   1A  1047  1.01   41              -1.0                             
 VAVUNBZ EP   2A  1046 45.81   50             270.0  6.4                        
 VAVUNBZ ES   2A  1046 59.91                                                    
 VBUTMBZ EP   2A  1046 36.31   63              -1.0                             
 VBUTMBZ ES   1A  1046 59.61                                                    
 VIRHOBZ EP   2A  1046 35.51   70              -1.0                             
 VKOLHBZ EP   2A  1046 58.41   55              -1.0                             
 VLEBEBZ EP   2A  1046 37.51   47              -1.0                             
 VLEBEBZ ES   2A  1047  1.01                                                    
 VSARABZ EP   1A  1046 21.91   91              -1.0                             
 VSARABZ ES   2A  1047  0.01                                                    
 VTAMBBZ EP   2A  1046 36.71   60              -1.0                             
 VTAMBBZ ES   1A  1046 58.61                                                    
 VTURTBZ EP   1A  1046 44.81   65              -1.0                             
 VTURTBZ ES   1A  1046 57.41                                                    
                                                                                
 2008  6 1 1046 37.0 L                                                         1
 ACTION:ARG 12-09-17 15:47 OP:chb  STATUS:               ID:20080601104637     I
 2008-06-01-1046-37S.VNRC__100_MSEED                                           6
 STAT SP IPHASW D HRMM SECON CODA AMPLIT PERI AZIMU VELO AIN AR TRES W  DIS CAZ7
 VANGOBZ EP   1A  1047  1.01   23              -1.0                             
 VANGOBZ ES   2A  1048 20.71                                                    
 VAVUNBZ EP   1A  1046 59.91   24              -1.0                             
 VBUTMBZ EP   1A  1046 59.71   23              -1.0                             
 VIRHOBZ EP   2A  1046 57.01   26              -1.0                             
 VKOLHBZ EP   2A  1046 58.41   87              -1.0                             
 VLEBEBZ EP   1A  1047  1.11   22              -1.0                             
 VSARABZ EP   1A  1047  0.01   22              -1.0                             
 VTAMBBZ EP   0A  1046 58.61   25              -1.0                             
 VTURTBZ EP   0A  1046 57.41   25             284.0                             
                                                                                
 2008  6 1 1058 42.0 L                                                         1
 ACTION:ARG 12-09-17 15:47 OP:chb  STATUS:               ID:20080601105842     I
 2008-06-01-1058-42S.VNRC__100_MSEED                                           6
 STAT SP IPHASW D HRMM SECON CODA AMPLIT PERI AZIMU VELO AIN AR TRES W  DIS CAZ7
 VANGOBZ EP   1A  1059  3.41   33              -1.0                             
 VBUTMBZ EP   1A  1059  3.01   31              -1.0                             
 VBUTMBZ ES   3A  1059 17.71                                                    
 VKOLHBZ EP   2A  1059  1.91   25              -1.0                             
 VKOLHBZ ES   2A  1059 14.91                                                    
 VLEBEBZ EP   1A  1059  3.61   90                                               
 VLEBEBZ ES   1A  1059 54.31                   32.0                             
 VLEVIBZ EP   1A  11 0 26.81    7              -1.0                             
 VSARABZ EP   1A  1059  2.21   25              -1.0                             
 VSARABZ ES   3A  1059 16.31                                                    
 VTAMBBZ EP   1A  1059 18.31   76              -1.0                             
                                                                                
 2008  6 1 11 4 57.0 L                                                         1
 ACTION:ARG 12-09-17 15:47 OP:chb  STATUS:               ID:20080601110457     I
 2008-06-01-1104-57S.VNRC__100_MSEED                                           6
 STAT SP IPHASW D HRMM SECON CODA AMPLIT PERI AZIMU VELO AIN AR TRES W  DIS CAZ7
 VAVUNBZ EP   2A  11 5 19.31   90              -1.0                             
 VBUTMBZ EP   1A  11 5 18.31   91              -1.0                             
 VBUTMBZ ES   2A  11 5 31.51                                                    
 VSARABZ EP   1A  11 5 18.61   90              -1.0                             
 VSARABZ ES   2A  11 5 31.61                                                    
 VTAMBBZ EP   1A  11 5 31.01   76              -1.0                             
 VTAMBBZ ES   3A  11 6 19.21                                                    
 VTURTBZ EP   1A  11 5 17.71   24              -1.0                             
 VTURTBZ ES   3A  11 5 29.91                                                    
                                                                                
 2008  6 1 11 6 42.0 L                                                         1
 ACTION:ARG 12-09-17 15:47 OP:chb  STATUS:               ID:20080601110642     I
 2008-06-01-1106-42S.VNRC__100_MSEED                                           6
 STAT SP IPHASW D HRMM SECON CODA AMPLIT PERI AZIMU VELO AIN AR TRES W  DIS CAZ7
 VLEBEBZ EP   2A  11 7  7.31   73              -1.0                             
                                                                                
 2008  6 1 1119  8.0 L                                                         1
 ACTION:ARG 12-09-17 15:47 OP:chb  STATUS:               ID:20080601111908     I
 2008-06-01-1119-08S.VNRC__100_MSEED                                           6
 STAT SP IPHASW D HRMM SECON CODA AMPLIT PERI AZIMU VELO AIN AR TRES W  DIS CAZ7
 VESPIBZ EP   2A  1119 28.11   42              -1.0                             
                                                                                
 2008  6 1 1126 33.0 L                                                         1
 ACTION:ARG 12-09-17 15:47 OP:chb  STATUS:               ID:20080601112633     I
 2008-06-01-1126-33S.VNRC__100_MSEED                                           6
 STAT SP IPHASW D HRMM SECON CODA AMPLIT PERI AZIMU VELO AIN AR TRES W  DIS CAZ7
 VSARABZ EP   2A  1127  7.11    4              -1.0                             
                                                                                
 2008  6 1 1139 45.0 L                                                         1
 ACTION:ARG 12-09-17 15:47 OP:chb  STATUS:               ID:20080601113945     I
 2008-06-01-1139-45S.VNRC__100_MSEED                                           6
 STAT SP IPHASW D HRMM SECON CODA AMPLIT PERI AZIMU VELO AIN AR TRES W  DIS CAZ7
 VANGOBZ EP   1A  1140 17.81   55              -1.0                             
 VANGOBZ ES   2A  1140 30.01                                                    
 VAVUNBZ EP   0A  1140 20.31   74              -1.0                             
 VAVUNBZ ES   3A  1140 34.71                                                    
 VBUTMBZ EP   1A  1140 29.71   41              -1.0                             
 VESPIBZ EP   2A  1140 42.21   19              -1.0                             
 VIRHOBZ EP   0A  1140 18.01   75              -1.0                             
 VIRHOBZ ES   2A  1140 30.51                                                    
 VKOLHBZ EP   1A  1140 16.11   60              -1.0                             
 VKOLHBZ ES   2A  1140 26.71                                                    
 VLEBEBZ EP   2A  1140 18.51   75              -1.0                             
 VLEBEBZ ES   2A  1140 31.11                                                    
 VSARABZ EP   2A  1140 17.31   36              -1.0                             
 VSULEBZ EP   2A  1140 21.61   51              -1.0                             
 VTAMBBZ EP   1A  1140 31.21   32              -1.0                             
 VTURTBZ EP   0A  1140 16.81   74              -1.0                             
 VTURTBZ ES   2A  1140 28.81                                                    
 VWUSIBZ EP   1A  1140 19.41   34              -1.0                             
 VWUSIBZ ES   3A  1140 33.71                                                    
                                                                                
 2008  6 1 1140  1.0 L                                                         1
 ACTION:ARG 12-09-17 15:47 OP:chb  STATUS:               ID:20080601114001     I
 2008-06-01-1140-01S.VNRC__100_MSEED                                           6
 STAT SP IPHASW D HRMM SECON CODA AMPLIT PERI AZIMU VELO AIN AR TRES W  DIS CAZ7
 VANGOBZ EP   1A  1140 17.81   99              -1.0                             
 VANGOBZ ES   2A  1140 30.01                                                    
 VAVUNBZ EP   0A  1140 20.31   87              -1.0                             
 VAVUNBZ ES   3A  1140 34.71                                                    
 VBUTMBZ EP   2A  1140 17.61   89              -1.0                             
 VBUTMBZ ES   2A  1140 29.71                                                    
 VESPIBZ EP   2A  1140 42.21   27              -1.0                             
 VIRHOBZ EP   0A  1140 18.01   87              -1.0                             
 VIRHOBZ ES   2A  1140 30.51                                                    
 VKOLHBZ EP   1A  1140 16.11   59              -1.0                             
 VKOLHBZ ES   2A  1140 26.71                                                    
 VLEBEBZ EP   2A  1140 18.51   95              -1.0                             
 VLEBEBZ ES   2A  1140 31.11                                                    
 VSARABZ EP   2A  1140 17.41   26              -1.0                             
 VSULEBZ EP   2A  1140 21.61   52              -1.0                             
 VTAMBBZ EP   1A  1140 31.21   82              -1.0                             
 VTURTBZ EP   0A  1140 16.81   96              -1.0                             
 VTURTBZ ES   2A  1140 28.81                                                    
 VWUSIBZ EP   1A  1140 19.41   38              -1.0                             
 VWUSIBZ ES   3A  1140 33.71                                                    
                                                                                
 2008  6 1 1149  3.0 L                                                         1
 ACTION:ARG 12-09-17 15:47 OP:chb  STATUS:               ID:20080601114903     I
 2008-06-01-1149-03S.VNRC__100_MSEED                                           6
 STAT SP IPHASW D HRMM SECON CODA AMPLIT PERI AZIMU VELO AIN AR TRES W  DIS CAZ7
 VASAVBZ EP   1A  1149 28.81   86              -1.0                             
 VASAVBZ ES   2A  1149 38.61                                                    
 VAVUNBZ EP   0A  1149 29.31   86             270.0 10.9                        
 VBUTMBZ EP   2A  1149 38.51   77              -1.0                             
 VESPIBZ EP   0A  1149 25.21   62              -1.0                             
 VESPIBZ ES   2A  1149 34.31                                                    
 VIRHOBZ EP   0A  1149 32.21   52               2.0  6.0                        
 VKOLHBZ EP   2A  1149 36.01   41              -1.0                             
 VLAKABZ EP   0A  1149 25.11   90              38.0 11.8                        
 VLAKABZ ES   3A  1149 33.51                                                    
 VLEVIBZ EP   0A  1149 23.21   34              75.0 11.6                        
 VNARWBZ EP   0A  1149 25.81   60              -1.0                             
 VNARWBZ ES   1A  1149 35.31                                                    
 VPOTOBZ EP   0A  1149 26.81   54              -1.0                             
 VPOTOBZ ES   2A  1149 36.31                                                    
 VSARABZ EP   1A  1149 35.11   44              -1.0                             
 VTURTBZ EP   1A  1149 34.21   41              -1.0                             
 VTURTBZ ES   2A  1149 39.81                                                    
                                                                                
 2008  6 1 1153 32.0 L                                                         1
 ACTION:ARG 12-09-17 15:47 OP:chb  STATUS:               ID:20080601115332     I
 2008-06-01-1153-32S.VNRC__100_MSEED                                           6
 STAT SP IPHASW D HRMM SECON CODA AMPLIT PERI AZIMU VELO AIN AR TRES W  DIS CAZ7
 VANGOBZ EP   1A  1153 53.91   31              -1.0                             
 VAVUNBZ EP   1A  1153 51.91   30              -1.0                             
 VAVUNBZ ES   2A  1154  8.01                                                    
 VBUTMBZ EP   0A  1153 52.51   39              -1.0                             
 VBUTMBZ ES   2A  1154  8.41                                                    
 VIRHOBZ EP   2A  1153 51.31   65              -1.0                             
 VKOLHBZ EP   2A  1153 52.21   23              -1.0                             
 VKOLHBZ ES   2A  1154  7.51                                                    
 VLEBEBZ EP   2A  1154  9.71   74              -1.0                             
 VSARABZ EP   1A  1153 52.91   91              -1.0                             
 VSARABZ ES   3A  1154  9.21                                                    
 VTAMBBZ EP   1A  1154  7.21   77              -1.0                             
 VTURTBZ EP   0A  1153 50.31   35              -1.0                             
 VTURTBZ ES   2A  1154  6.31                                                    
                                                                                
 2008  6 1 1158  8.0 L                                                         1
 ACTION:ARG 12-09-17 15:47 OP:chb  STATUS:               ID:20080601115808     I
 2008-06-01-1158-08S.VNRC__100_MSEED                                           6
 STAT SP IPHASW D HRMM SECON CODA AMPLIT PERI AZIMU VELO AIN AR TRES W  DIS CAZ7
 VBUTMBZ EP   2A  1158 35.91   33              -1.0                             
                                                                                
