 2008  6 1 1442 14.0 L                                                         1
 ACTION:ARG 12-09-17 15:47 OP:chb  STATUS:               ID:20080601144214     I
 2008-06-01-1442-14S.VNRC__100_MSEED                                           6
 STAT SP IPHASW D HRMM SECON CODA AMPLIT PERI AZIMU VELO AIN AR TRES W  DIS CAZ7
 VASAVBZ EP   2A  1442 25.71   33              -1.0                             
 VAVUNBZ EP   1A  1442 51.31   42              -1.0                             
 VBUTMBZ EP   0A  1442 43.01   83              -1.0                             
 VBUTMBZ ES   3A  1442 59.31                                                    
 VESPIBZ EP   2A  1442 24.71   97             217.0                             
 VIRHOBZ EP   1A  1442 41.71   39               8.0                             
 VIRHOBZ ES   2A  1442 56.11                                                    
 VLAKABZ EP   2A  1442 32.41   45                                               
 VLAKABZ ES   2A  1442 39.61                  264.0                             
 VLEVIBZ EP   2A  1443 50.71  -96              -1.0                             
 VTAMBBZ EP   1A  1442 55.61   70              -1.0                             
                                                                                
 2008  6 1 1444 16.0 L                                                         1
 ACTION:ARG 12-09-17 15:47 OP:chb  STATUS:               ID:20080601144416     I
 2008-06-01-1444-16S.VNRC__100_MSEED                                           6
 STAT SP IPHASW D HRMM SECON CODA AMPLIT PERI AZIMU VELO AIN AR TRES W  DIS CAZ7
 VANGOBZ EP   0A  1444 55.21   20              -1.0                             
 VBUTMBZ EP   0A  1444 37.21   51              -1.0                             
 VBUTMBZ ES   2A  1444 52.91                                                    
 VLEVIBZ EP   1A  1444 58.21   70              92.0  4.8                        
 VSARABZ EP   0A  1444 37.21   47              -1.0                             
 VSARABZ ES   2A  1444 53.21                                                    
 VTAMBBZ EP   1A  1444 52.41   68              -1.0                             
 VTURTBZ EP   1A  1444 36.21   35              -1.0                             
                                                                                
 2008  6 1 1450 44.0 L                                                         1
 ACTION:ARG 12-09-17 15:47 OP:chb  STATUS:               ID:20080601145044     I
 2008-06-01-1450-44S.VNRC__100_MSEED                                           6
 STAT SP IPHASW D HRMM SECON CODA AMPLIT PERI AZIMU VELO AIN AR TRES W  DIS CAZ7
 VANGOBZ EP   2A  1451  5.01   82              -1.0                             
 VANGOBZ ES   2A  1451 22.31                                                    
 VASAVBZ EP   1A  1451  5.61   55              -1.0                             
 VASAVBZ ES   1A  1451 58.71                                                    
 VAVUNBZ EP   2A  1451  5.71   81                                               
 VAVUNBZ ES   2A  1451 56.61                   91.0  7.7                        
 VBUTMBZ EP   1A  1451  5.31   71              -1.0                             
 VBUTMBZ ES   3A  1451 19.51                                                    
 VKOLHBZ EP   2A  1451 19.21   10              -1.0                             
 VSARABZ EP   0A  1451  5.51   90              -1.0                             
 VSARABZ ES   3A  1451 20.71                                                    
 VTURTBZ EP   1A  1451  4.31   92              -1.0                             
                                                                                
 2008  6 1 1455 49.0 L                                                         1
 ACTION:ARG 12-09-17 15:47 OP:chb  STATUS:               ID:20080601145549     I
 2008-06-01-1455-49S.VNRC__100_MSEED                                           6
 STAT SP IPHASW D HRMM SECON CODA AMPLIT PERI AZIMU VELO AIN AR TRES W  DIS CAZ7
 VBUTMBZ EP   1A  1456 10.11   30              -1.0                             
 VBUTMBZ ES   2A  1456 24.21                                                    
 VSARABZ EP   1A  1456  9.61   79              -1.0                             
 VSARABZ ES   3A  1456 23.31                                                    
 VSULEBZ EP   2A  1457  3.21   34                                               
 VSULEBZ ES   2A  1457  7.61                  302.0                             
 VTURTBZ EP   1A  1456  8.41   56              -1.0                             
 VTURTBZ ES   2A  1456 22.61                                                    
                                                                                
 2008  6 1 15 0  4.0 L                                                         1
 ACTION:ARG 12-09-17 15:47 OP:chb  STATUS:               ID:20080601150004     I
 2008-06-01-1500-04S.VNRC__100_MSEED                                           6
 STAT SP IPHASW D HRMM SECON CODA AMPLIT PERI AZIMU VELO AIN AR TRES W  DIS CAZ7
 VAVUNBZ EP   1A  15 0 31.11   65             271.0  6.6                        
 VBUTMBZ EP   0A  15 0 33.91   82              -1.0                             
 VESPIBZ EP   1A  15 0 25.41   85              -1.0                             
 VIRHOBZ EP   1A  15 0 31.81   57              -1.0                             
 VLAKABZ EP   0A  15 0 22.21   94                                               
 VLAKABZ ES   3A  15 0 30.81                  251.0                             
 VNARWBZ EP   1A  15 0 24.01   72              -1.0                             
 VSARABZ EP   1A  15 0 36.91   79              -1.0                             
                                                                                
 2008  6 1 15 1 44.0 L                                                         1
 ACTION:ARG 12-09-17 15:47 OP:chb  STATUS:               ID:20080601150144     I
 2008-06-01-1501-44S.VNRC__100_MSEED                                           6
 STAT SP IPHASW D HRMM SECON CODA AMPLIT PERI AZIMU VELO AIN AR TRES W  DIS CAZ7
 VANGOBZ EP   2A  15 2  6.21   90              -1.0                             
 VBUTMBZ EP   1A  15 2  5.51   90              -1.0                             
 VSARABZ EP   1A  15 2  4.91   31              -1.0                             
 VTAMBBZ EP   1A  15 2 17.81   76              -1.0                             
 VTURTBZ EP   1A  15 2  4.61   86              -1.0                             
 VTURTBZ ES   3A  15 2 21.41                                                    
                                                                                
 2008  6 1 15 4 28.0 L                                                         1
 ACTION:ARG 12-09-17 15:47 OP:chb  STATUS:               ID:20080601150428     I
 2008-06-01-1504-28S.VNRC__100_MSEED                                           6
 STAT SP IPHASW D HRMM SECON CODA AMPLIT PERI AZIMU VELO AIN AR TRES W  DIS CAZ7
 VTAMBBZ EP   2A  15 4 57.71   63              -1.0                             
                                                                                
 2008  6 1 1518 31.0 L                                                         1
 ACTION:ARG 12-09-17 15:47 OP:chb  STATUS:               ID:20080601151831     I
 2008-06-01-1518-31S.VNRC__100_MSEED                                           6
 STAT SP IPHASW D HRMM SECON CODA AMPLIT PERI AZIMU VELO AIN AR TRES W  DIS CAZ7
 VANGOBZ EP   1A  1518 47.31   92              -1.0                             
 VANGOBZ ES   1A  1518 56.91                                                    
 VASAVBZ EP   0A  1518 55.01   48              -1.0                             
 VASAVBZ ES   2A  1519  8.71                                                    
 VAVUNBZ EP   0A  1518 55.11   72             270.0  8.4                        
 VAVUNBZ ES   3A  1519  9.31                                                    
 VBUTMBZ EP   0A  1518 55.81   87              -1.0                             
 VBUTMBZ ES   2A  1519 10.01                                                    
 VEBENBZ EP   0A  1518 56.71   68              -1.0                             
 VEBENBZ ES   3A  1519 12.91                                                    
 VESPIBZ EP   0A  1518 56.31   51              -1.0                             
 VIRHOBZ EP   0A  1518 54.21   87             272.0 16.9                        
 VIRHOBZ ES   2A  1519  7.31                                                    
 VKOLHBZ EP   0A  1518 55.31   41              -1.0                             
 VKOLHBZ ES   2A  1519  9.01                                                    
 VLAKABZ EP   1A  1518 57.81   27                                               
 VLAKABZ ES   3A  1519 13.41                  312.0                             
 VLEBEBZ EP   0A  1518 56.11   81              -1.0                             
 VLEBEBZ ES   2A  1519 11.41                                                    
 VLEVIBZ EP   1A  1519 11.21   62              -1.0                             
 VNARWBZ EP   0A  1518 56.01   48              -1.0                             
 VNARWBZ ES   2A  1519 10.91                                                    
 VPOTOBZ EP   0A  1518 56.01   43              -1.0                             
 VPOTOBZ ES   2A  1519 11.21                                                    
 VSALEBZ EP   1A  1518 57.01   33              -1.0                             
 VSARABZ EP   0A  1518 56.21   52              -1.0                             
 VSARABZ ES   2A  1519 10.91                                                    
 VSULEBZ EP   1A  1518 57.81   59              -1.0                             
 VTAMBBZ EP   0A  1518 55.31   38             341.0 15.8                        
 VTAMBBZ ES   2A  1519  9.21                                                    
 VTURTBZ EP   0A  1518 54.61   79              11.0 38.5                        
 VTURTBZ ES   1A  1519  7.91                                                    
 VWUSIBZ EP   1A  1518 58.41   40              -1.0                             
                                                                                
 2008  6 1 1533 30.0 L                                                         1
 ACTION:ARG 12-09-17 15:47 OP:chb  STATUS:               ID:20080601153330     I
 2008-06-01-1533-30S.VNRC__100_MSEED                                           6
 STAT SP IPHASW D HRMM SECON CODA AMPLIT PERI AZIMU VELO AIN AR TRES W  DIS CAZ7
 VANGOBZ EP   1A  1533 56.01   74              -1.0                             
 VANGOBZ ES   3A  1534 13.61                                                    
 VASAVBZ EP   1A  1534  2.51   63              -1.0                             
 VAVUNBZ EP   0A  1533 52.21   82              -1.0                             
 VBUTMBZ EP   0A  1533 53.71   88              -1.0                             
 VBUTMBZ ES   2A  1534  9.41                                                    
 VEBENBZ EP   2A  1534 10.71   24              -1.0                             
 VESPIBZ EP   2A  1533 52.11   82              -1.0                             
 VIRHOBZ EP   0A  1533 50.71   91             288.0  6.2                        
 VIRHOBZ ES   2A  1535 23.51                                                    
 VLEBEBZ EP   0A  1533 55.01   87              -1.0                             
 VLEBEBZ ES   3A  1534 11.91                                                    
 VNARWBZ EP   2A  1533 50.31   92              -1.0                             
 VNARWBZ ES   2A  1534 37.71                                                    
 VPOTOBZ EP   1A  1533 50.71   75              -1.0                             
 VPOTOBZ ES   2A  1534  4.31                                                    
 VSARABZ EP   0A  1533 54.61   87             179.0                             
 VSARABZ ES   2A  1535  5.11                                                    
 VTURTBZ EP   0A  1533 51.31   91              -1.0                             
 VTURTBZ ES   2A  1535 22.11                                                    
                                                                                
 2008  6 1 1537 51.0 L                                                         1
 ACTION:ARG 12-09-17 15:47 OP:chb  STATUS:               ID:20080601153751     I
 2008-06-01-1537-51S.VNRC__100_MSEED                                           6
 STAT SP IPHASW D HRMM SECON CODA AMPLIT PERI AZIMU VELO AIN AR TRES W  DIS CAZ7
 VANGOBZ EP   2A  1538 25.31   41              -1.0                             
 VANGOBZ ES   1A  1538 41.91                                                    
 VAVUNBZ EP   0A  1538 26.31   66             270.0 11.4                        
 VAVUNBZ ES   1A  1538 43.91                                                    
 VBUTMBZ EP   0A  1538 24.61   78              -1.0                             
 VBUTMBZ ES   2A  1538 41.21                                                    
 VIRHOBZ EP   1A  1538 24.51   59              -1.0                             
 VIRHOBZ ES   2A  1538 40.51                                                    
 VKOLHBZ EP   1A  1538 38.61    9              -1.0                             
 VLAKABZ EP   0A  1538 34.01   64              -1.0                             
 VLEBEBZ EP   2A  1538 25.31   65              -1.0                             
 VLEBEBZ ES   1A  1538 42.01                                                    
 VSARABZ EP   0A  1538 24.01   49              -1.0                             
 VSARABZ ES   2A  1538 40.01                                                    
 VTAMBBZ EP   0A  1538 41.51   53              -1.0                             
 VTURTBZ EP   1A  1538 23.81   36              -1.0                             
 VTURTBZ ES   2A  1538 39.41                                                    
                                                                                
 2008  6 1 1538  7.0 L                                                         1
 ACTION:ARG 12-09-17 15:47 OP:chb  STATUS:               ID:20080601153807     I
 2008-06-01-1538-07S.VNRC__100_MSEED                                           6
 STAT SP IPHASW D HRMM SECON CODA AMPLIT PERI AZIMU VELO AIN AR TRES W  DIS CAZ7
 VANGOBZ EP   2A  1538 25.31   41              -1.0                             
 VANGOBZ ES   1A  1538 41.91                                                    
 VAVUNBZ EP   0A  1538 26.31   66             270.0 11.4                        
 VAVUNBZ ES   1A  1538 43.91                                                    
 VBUTMBZ EP   0A  1538 24.61   83              -1.0                             
 VBUTMBZ ES   2A  1538 41.21                                                    
 VIRHOBZ EP   1A  1538 24.51   64              -1.0                             
 VIRHOBZ ES   2A  1538 40.51                                                    
 VKOLHBZ EP   1A  1538 38.61   74              -1.0                             
 VKOLHBZ ES   3A  1539 51.21                                                    
 VLAKABZ EP   0A  1538 34.01   64              -1.0                             
 VLEBEBZ EP   2A  1538 25.31   63              -1.0                             
 VLEBEBZ ES   1A  1538 42.01                                                    
 VSARABZ EP   0A  1538 24.01   48              -1.0                             
 VSARABZ ES   2A  1538 40.01                                                    
 VTAMBBZ EP   0A  1538 41.51   26              -1.0                             
 VTURTBZ EP   1A  1538 23.81   39              -1.0                             
 VTURTBZ ES   2A  1538 39.41                                                    
                                                                                
 2008  6 1 1540 15.0 L                                                         1
 ACTION:ARG 12-09-17 15:47 OP:chb  STATUS:               ID:20080601154015     I
 2008-06-01-1540-15S.VNRC__100_MSEED                                           6
 STAT SP IPHASW D HRMM SECON CODA AMPLIT PERI AZIMU VELO AIN AR TRES W  DIS CAZ7
 VANGOBZ EP   2A  1540 46.91   13              -1.0                             
 VBUTMBZ EP   1A  1540 36.41   34              -1.0                             
 VBUTMBZ ES   2A  1540 47.51                                                    
 VIRHOBZ EP   1A  1540 38.11   72              -1.0                             
 VIRHOBZ ES   2A  1540 50.91                                                    
 VKOLHBZ EP   2A  1540 34.71   92              -1.0                             
 VKOLHBZ ES   1A  1540 44.11                                                    
 VLEBEBZ EP   1A  1540 49.01   52              -1.0                             
 VSARABZ EP   0A  1540 34.71   33              -1.0                             
 VSARABZ ES   1A  1540 44.21                                                    
 VTAMBBZ EP   1A  1540 50.71   16              -1.0                             
 VTURTBZ EP   1A  1540 36.21   27              -1.0                             
 VTURTBZ ES   2A  1540 47.11                                                    
                                                                                
 2008  6 1 16 3 19.0 L                                                         1
 ACTION:ARG 12-09-17 15:47 OP:chb  STATUS:               ID:20080601160319     I
 2008-06-01-1603-19S.VNRC__100_MSEED                                           6
 STAT SP IPHASW D HRMM SECON CODA AMPLIT PERI AZIMU VELO AIN AR TRES W  DIS CAZ7
 VKOLHBZ EP   1A  16 3 50.11   60              -1.0                             
 VLEVIBZ EP   1A  16 4 10.91   56                                               
 VLEVIBZ ES   2A  16 5  5.31                                                    
                                                                                
 2008  6 1 16 8 28.0 L                                                         1
 ACTION:ARG 12-09-17 15:47 OP:chb  STATUS:               ID:20080601160828     I
 2008-06-01-1608-28S.VNRC__100_MSEED                                           6
 STAT SP IPHASW D HRMM SECON CODA AMPLIT PERI AZIMU VELO AIN AR TRES W  DIS CAZ7
 VAVUNBZ EP   1A  16 8 54.01   85              -1.0                             
 VAVUNBZ ES   2A  16 9  6.51                                                    
 VBUTMBZ EP   1A  16 9 12.21   56              -1.0                             
 VIRHOBZ EP   2A  16 9 11.41   59              -1.0                             
 VLAKABZ EP   2A  16 9 11.31   54              -1.0                             
 VLEVIBZ EP   1A  16 8 52.81   87              -1.0                             
 VTAMBBZ EP   2A  16 8 56.61   78              -1.0                             
 VTAMBBZ ES   2A  16 9 10.71                                                    
                                                                                
 2008  6 1 1610 52.0 L                                                         1
 ACTION:ARG 12-09-17 15:47 OP:chb  STATUS:               ID:20080601161052     I
 2008-06-01-1610-52S.VNRC__100_MSEED                                           6
 STAT SP IPHASW D HRMM SECON CODA AMPLIT PERI AZIMU VELO AIN AR TRES W  DIS CAZ7
 VASAVBZ EP   2A  1611 41.31    4             311.0                             
 VLEVIBZ EP   2A  1612 30.51   13              -1.0                             
                                                                                
